{
  "type": "FeatureCollection",
  "name": "proyectos_gnl_v2",
  "crs": {
    "type": "name",
    "properties": {
      "name": "urn:ogc:def:crs:OGC:1.3:CRS84"
    }
  },
  "features": [
    {
      "type": "Feature",
      "properties": {
        "id": "Saguaro_T1",
        "nombre_feature": "Saguaro Energía GNL — Tren 1 (172 ha)",
        "terminal_grupo": "Saguaro Energía GNL",
        "promovente": "Mexico Pacific Limited",
        "empresa_madre": "Mexico Pacific Limited",
        "estado": "Sonora",
        "municipio": "Pitiquito",
        "localidad": "Puerto Libertad",
        "tipo_area": "temporal_almacenamiento",
        "estatus_permiso": "Propuesto / Pre-FID",
        "status_code": "proposed",
        "color_hex": "#E53935",
        "capacidad_mtpa": 15.0,
        "superficie_ha": 172.417,
        "precision_geom": "approximate_centroid",
        "fuente_coordenadas": "GEM Wiki centroid (approx); MIA-R Tabla II.5 has exact UTM vertices (17 vertices)",
        "clave_proyecto": "nan",
        "impacto_notes": "30 MTPA total. Comunicación ONU AL OTH 39/2025. Conexión con Gasoducto Sierra Madre (800 km).",
        "latitud": 29.909838,
        "longitud": -112.684038
      },
      "geometry": {
        "type": "Polygon",
        "coordinates": [
          [
            [
              -112.67633840926332,
              29.909838
            ],
            [
              -112.67648635474033,
              29.911140050571653
            ],
            [
              -112.67692450570966,
              29.912392064070037
            ],
            [
              -112.67763602427529,
              29.913545926318545
            ],
            [
              -112.67859356717773,
              29.914557295038062
            ],
            [
              -112.67976033658027,
              29.915387303895873
            ],
            [
              -112.68109149418908,
              29.916004056117053
            ],
            [
              -112.68253588436379,
              29.91638385025962
            ],
            [
              -112.684038,
              29.916512091047665
            ],
            [
              -112.68554011563621,
              29.91638385025962
            ],
            [
              -112.68698450581093,
              29.916004056117053
            ],
            [
              -112.68831566341973,
              29.915387303895873
            ],
            [
              -112.68948243282227,
              29.914557295038062
            ],
            [
              -112.69043997572471,
              29.913545926318545
            ],
            [
              -112.69115149429034,
              29.912392064070037
            ],
            [
              -112.69158964525967,
              29.911140050571653
            ],
            [
              -112.69173759073668,
              29.909838
            ],
            [
              -112.69158964525967,
              29.908535949428348
            ],
            [
              -112.69115149429034,
              29.907283935929964
            ],
            [
              -112.69043997572471,
              29.906130073681457
            ],
            [
              -112.68948243282227,
              29.90511870496194
            ],
            [
              -112.68831566341973,
              29.90428869610413
            ],
            [
              -112.68698450581093,
              29.903671943882948
            ],
            [
              -112.68554011563621,
              29.90329214974038
            ],
            [
              -112.684038,
              29.903163908952337
            ],
            [
              -112.68253588436379,
              29.90329214974038
            ],
            [
              -112.68109149418908,
              29.903671943882948
            ],
            [
              -112.67976033658027,
              29.90428869610413
            ],
            [
              -112.67859356717773,
              29.90511870496194
            ],
            [
              -112.67763602427529,
              29.906130073681457
            ],
            [
              -112.67692450570966,
              29.907283935929964
            ],
            [
              -112.67648635474033,
              29.908535949428348
            ],
            [
              -112.67633840926332,
              29.909838
            ]
          ]
        ]
      }
    },
    {
      "type": "Feature",
      "properties": {
        "id": "Saguaro_T2",
        "nombre_feature": "Saguaro Energía GNL — Tren 2 (47 ha)",
        "terminal_grupo": "Saguaro Energía GNL",
        "promovente": "Mexico Pacific Limited",
        "empresa_madre": "Mexico Pacific Limited",
        "estado": "Sonora",
        "municipio": "Pitiquito",
        "localidad": "Puerto Libertad",
        "tipo_area": "temporal_almacenamiento",
        "estatus_permiso": "Propuesto / Pre-FID",
        "status_code": "proposed",
        "color_hex": "#E53935",
        "capacidad_mtpa": 15.0,
        "superficie_ha": 46.824,
        "precision_geom": "approximate_centroid",
        "fuente_coordenadas": "GEM Wiki centroid (approx); MIA-R Tabla II.6 has exact UTM vertices (29 vertices)",
        "clave_proyecto": "nan",
        "impacto_notes": "30 MTPA total. Comunicación ONU AL OTH 39/2025. Conexión con Gasoducto Sierra Madre (800 km).",
        "latitud": 29.901838,
        "longitud": -112.692038
      },
      "geometry": {
        "type": "Polygon",
        "coordinates": [
          [
            [
              -112.68802585169773,
              29.901837999999998
            ],
            [
              -112.68810294400234,
              29.902516534705903
            ],
            [
              -112.68833125830213,
              29.903168993703588
            ],
            [
              -112.68870202060661,
              29.903770303359675
            ],
            [
              -112.68920098272834,
              29.904297355681294
            ],
            [
              -112.6898089698328,
              29.904729896343305
            ],
            [
              -112.69050261731654,
              29.905051303050637
            ],
            [
              -112.69125526869574,
              29.905249224323775
            ],
            [
              -112.69203800000001,
              29.905316054159186
            ],
            [
              -112.69282073130428,
              29.905249224323775
            ],
            [
              -112.69357338268348,
              29.905051303050637
            ],
            [
              -112.69426703016723,
              29.904729896343305
            ],
            [
              -112.69487501727168,
              29.904297355681294
            ],
            [
              -112.69537397939341,
              29.903770303359675
            ],
            [
              -112.6957447416979,
              29.903168993703588
            ],
            [
              -112.69597305599768,
              29.902516534705903
            ],
            [
              -112.69605014830229,
              29.901837999999998
            ],
            [
              -112.69597305599768,
              29.901159465294093
            ],
            [
              -112.6957447416979,
              29.900507006296408
            ],
            [
              -112.69537397939341,
              29.89990569664032
            ],
            [
              -112.69487501727168,
              29.899378644318702
            ],
            [
              -112.69426703016723,
              29.89894610365669
            ],
            [
              -112.69357338268348,
              29.89862469694936
            ],
            [
              -112.69282073130428,
              29.89842677567622
            ],
            [
              -112.69203800000001,
              29.89835994584081
            ],
            [
              -112.69125526869574,
              29.89842677567622
            ],
            [
              -112.69050261731654,
              29.89862469694936
            ],
            [
              -112.6898089698328,
              29.89894610365669
            ],
            [
              -112.68920098272834,
              29.899378644318702
            ],
            [
              -112.68870202060661,
              29.89990569664032
            ],
            [
              -112.68833125830213,
              29.900507006296408
            ],
            [
              -112.68810294400234,
              29.901159465294093
            ],
            [
              -112.68802585169773,
              29.901837999999998
            ]
          ]
        ]
      }
    },
    {
      "type": "Feature",
      "properties": {
        "id": "Saguaro_Reserva",
        "nombre_feature": "Saguaro Energía GNL — Área Reserva (1 ha)",
        "terminal_grupo": "Saguaro Energía GNL",
        "promovente": "Mexico Pacific Limited",
        "empresa_madre": "Mexico Pacific Limited",
        "estado": "Sonora",
        "municipio": "Pitiquito",
        "localidad": "Puerto Libertad",
        "tipo_area": "conservacion",
        "estatus_permiso": "Propuesto / Pre-FID",
        "status_code": "proposed",
        "color_hex": "#E53935",
        "capacidad_mtpa": null,
        "superficie_ha": 0.946,
        "precision_geom": "approximate_centroid",
        "fuente_coordenadas": "GEM Wiki centroid (approx); MIA-R Tabla II.7 has exact UTM vertices (13 vertices)",
        "clave_proyecto": "nan",
        "impacto_notes": "30 MTPA total. Comunicación ONU AL OTH 39/2025. Conexión con Gasoducto Sierra Madre (800 km).",
        "latitud": 29.906838,
        "longitud": -112.687038
      },
      "geometry": {
        "type": "Polygon",
        "coordinates": [
          [
            [
              -112.68646769118128,
              29.906838
            ],
            [
              -112.68647864950532,
              29.90693444581306
            ],
            [
              -112.68651110335517,
              29.907027185267612
            ],
            [
              -112.6865638055476,
              29.907112654438425
            ],
            [
              -112.68663473076691,
              29.907187568793198
            ],
            [
              -112.68672115339669,
              29.907249049415288
            ],
            [
              -112.68681975226374,
              29.907294733638867
            ],
            [
              -112.68692673826891,
              29.907322865844847
            ],
            [
              -112.687038,
              29.907332364928322
            ],
            [
              -112.6871492617311,
              29.907322865844847
            ],
            [
              -112.68725624773626,
              29.907294733638867
            ],
            [
              -112.68735484660331,
              29.907249049415288
            ],
            [
              -112.68744126923309,
              29.907187568793198
            ],
            [
              -112.6875121944524,
              29.907112654438425
            ],
            [
              -112.68756489664483,
              29.907027185267612
            ],
            [
              -112.68759735049468,
              29.90693444581306
            ],
            [
              -112.68760830881872,
              29.906838
            ],
            [
              -112.68759735049468,
              29.90674155418694
            ],
            [
              -112.68756489664483,
              29.90664881473239
            ],
            [
              -112.6875121944524,
              29.906563345561576
            ],
            [
              -112.68744126923309,
              29.906488431206803
            ],
            [
              -112.68735484660331,
              29.906426950584713
            ],
            [
              -112.68725624773626,
              29.906381266361134
            ],
            [
              -112.6871492617311,
              29.906353134155154
            ],
            [
              -112.687038,
              29.90634363507168
            ],
            [
              -112.68692673826891,
              29.906353134155154
            ],
            [
              -112.68681975226374,
              29.906381266361134
            ],
            [
              -112.68672115339669,
              29.906426950584713
            ],
            [
              -112.68663473076691,
              29.906488431206803
            ],
            [
              -112.6865638055476,
              29.906563345561576
            ],
            [
              -112.68651110335517,
              29.90664881473239
            ],
            [
              -112.68647864950532,
              29.90674155418694
            ],
            [
              -112.68646769118128,
              29.906838
            ]
          ]
        ]
      }
    },
    {
      "type": "Feature",
      "properties": {
        "id": "Saguaro_Campamentos",
        "nombre_feature": "Saguaro Energía GNL — Campamentos (21 ha)",
        "terminal_grupo": "Saguaro Energía GNL",
        "promovente": "Mexico Pacific Limited",
        "empresa_madre": "Mexico Pacific Limited",
        "estado": "Sonora",
        "municipio": "Pitiquito",
        "localidad": "Puerto Libertad",
        "tipo_area": "permanente_campamentos",
        "estatus_permiso": "Propuesto / Pre-FID",
        "status_code": "proposed",
        "color_hex": "#E53935",
        "capacidad_mtpa": null,
        "superficie_ha": 20.532,
        "precision_geom": "approximate_centroid",
        "fuente_coordenadas": "GEM Wiki centroid (approx); MIA-R Tabla II.8 has exact UTM vertices (13 vertices)",
        "clave_proyecto": "nan",
        "impacto_notes": "30 MTPA total. Comunicación ONU AL OTH 39/2025. Conexión con Gasoducto Sierra Madre (800 km).",
        "latitud": 29.907838,
        "longitud": -112.686038
      },
      "geometry": {
        "type": "Polygon",
        "coordinates": [
          [
            [
              -112.68338104311755,
              29.907837999999998
            ],
            [
              -112.68343209579902,
              29.90828731760804
            ],
            [
              -112.68358329191753,
              29.908719368192383
            ],
            [
              -112.68382882109104,
              29.909117548291373
            ],
            [
              -112.68415924777109,
              29.909466556067102
            ],
            [
              -112.6845618738457,
              29.909752979346475
            ],
            [
              -112.68502122662058,
              29.9099658110435
            ],
            [
              -112.68551965342623,
              29.91009687215541
            ],
            [
              -112.68603800000001,
              29.910141126077182
            ],
            [
              -112.6865563465738,
              29.91009687215541
            ],
            [
              -112.68705477337944,
              29.9099658110435
            ],
            [
              -112.68751412615433,
              29.909752979346475
            ],
            [
              -112.68791675222893,
              29.909466556067102
            ],
            [
              -112.68824717890898,
              29.909117548291373
            ],
            [
              -112.68849270808249,
              29.908719368192383
            ],
            [
              -112.688643904201,
              29.90828731760804
            ],
            [
              -112.68869495688247,
              29.907837999999998
            ],
            [
              -112.688643904201,
              29.907388682391957
            ],
            [
              -112.68849270808249,
              29.906956631807613
            ],
            [
              -112.68824717890898,
              29.906558451708623
            ],
            [
              -112.68791675222893,
              29.906209443932894
            ],
            [
              -112.68751412615433,
              29.90592302065352
            ],
            [
              -112.68705477337944,
              29.905710188956498
            ],
            [
              -112.6865563465738,
              29.905579127844586
            ],
            [
              -112.68603800000001,
              29.905534873922814
            ],
            [
              -112.68551965342623,
              29.905579127844586
            ],
            [
              -112.68502122662058,
              29.905710188956498
            ],
            [
              -112.6845618738457,
              29.90592302065352
            ],
            [
              -112.68415924777109,
              29.906209443932894
            ],
            [
              -112.68382882109104,
              29.906558451708623
            ],
            [
              -112.68358329191753,
              29.906956631807613
            ],
            [
              -112.68343209579902,
              29.907388682391957
            ],
            [
              -112.68338104311755,
              29.907837999999998
            ]
          ]
        ]
      }
    },
    {
      "type": "Feature",
      "properties": {
        "id": "Saguaro_Caminos",
        "nombre_feature": "Saguaro Energía GNL — Caminos de Acceso (155 vértices)",
        "terminal_grupo": "Saguaro Energía GNL",
        "promovente": "Mexico Pacific Limited",
        "empresa_madre": "Mexico Pacific Limited",
        "estado": "Sonora",
        "municipio": "Pitiquito",
        "localidad": "Puerto Libertad",
        "tipo_area": "permanente_caminos",
        "estatus_permiso": "Propuesto / Pre-FID",
        "status_code": "proposed",
        "color_hex": "#E53935",
        "capacidad_mtpa": null,
        "superficie_ha": 1.809,
        "precision_geom": "approximate_centroid",
        "fuente_coordenadas": "GEM Wiki centroid (approx); MIA-R Tabla II.9 has exact UTM vertices (155 vertices)",
        "clave_proyecto": "nan",
        "impacto_notes": "30 MTPA total. Comunicación ONU AL OTH 39/2025. Conexión con Gasoducto Sierra Madre (800 km).",
        "latitud": 29.904838,
        "longitud": -112.689038
      },
      "geometry": {
        "type": "Polygon",
        "coordinates": [
          [
            [
              -112.68824936675101,
              29.904837999999998
            ],
            [
              -112.68826452011776,
              29.904971369675305
            ],
            [
              -112.6883093978826,
              29.905099614028785
            ],
            [
              -112.68838227541822,
              29.905217804701856
            ],
            [
              -112.68848035208177,
              29.90532139969323
            ],
            [
              -112.6885998588421,
              29.905406417905485
            ],
            [
              -112.68873620312141,
              29.905469592136406
            ],
            [
              -112.68888414528551,
              29.905508494635725
            ],
            [
              -112.68903800000001,
              29.90552163040221
            ],
            [
              -112.68919185471451,
              29.905508494635725
            ],
            [
              -112.68933979687861,
              29.905469592136406
            ],
            [
              -112.68947614115793,
              29.905406417905485
            ],
            [
              -112.68959564791825,
              29.90532139969323
            ],
            [
              -112.6896937245818,
              29.905217804701856
            ],
            [
              -112.68976660211742,
              29.905099614028785
            ],
            [
              -112.68981147988227,
              29.904971369675305
            ],
            [
              -112.68982663324901,
              29.904837999999998
            ],
            [
              -112.68981147988227,
              29.90470463032469
            ],
            [
              -112.68976660211742,
              29.90457638597121
            ],
            [
              -112.6896937245818,
              29.90445819529814
            ],
            [
              -112.68959564791825,
              29.904354600306768
            ],
            [
              -112.68947614115793,
              29.90426958209451
            ],
            [
              -112.68933979687861,
              29.90420640786359
            ],
            [
              -112.68919185471451,
              29.90416750536427
            ],
            [
              -112.68903800000001,
              29.904154369597787
            ],
            [
              -112.68888414528551,
              29.90416750536427
            ],
            [
              -112.68873620312141,
              29.90420640786359
            ],
            [
              -112.6885998588421,
              29.90426958209451
            ],
            [
              -112.68848035208177,
              29.904354600306768
            ],
            [
              -112.68838227541822,
              29.90445819529814
            ],
            [
              -112.6883093978826,
              29.90457638597121
            ],
            [
              -112.68826452011776,
              29.90470463032469
            ],
            [
              -112.68824936675101,
              29.904837999999998
            ]
          ]
        ]
      }
    },
    {
      "type": "Feature",
      "properties": {
        "id": "Amigo_LNG_T1",
        "nombre_feature": "Amigo LNG — Tren 1 (4.2 MTPA)",
        "terminal_grupo": "Amigo LNG",
        "promovente": "AMIGO LNG, S.A. de C.V.",
        "empresa_madre": "LNG Alliance / Epcilon LNG LLC",
        "estado": "Sonora",
        "municipio": "Guaymas",
        "localidad": "Guaymas",
        "tipo_area": "terminal_licuefaccion",
        "estatus_permiso": "Propuesto / Pre-FID",
        "status_code": "proposed",
        "color_hex": "#E53935",
        "capacidad_mtpa": 4.2,
        "superficie_ha": 30.0,
        "precision_geom": "exact_gem_wiki",
        "fuente_coordenadas": "GEM Wiki: 27.922867, -110.868082 (exact for both trains)",
        "clave_proyecto": "nan",
        "impacto_notes": "7.8 MTPA total. Contratos SPA 20 años con Sahara Group y Gunvor.",
        "latitud": 27.922867,
        "longitud": -110.868082
      },
      "geometry": {
        "type": "Polygon",
        "coordinates": [
          [
            [
              -110.86359574033276,
              27.922867
            ],
            [
              -110.86368194255431,
              27.92364033100619
            ],
            [
              -110.86393723651591,
              27.924383943335503
            ],
            [
              -110.8643518114138,
              27.92506926038314
            ],
            [
              -110.86490973536714,
              27.9256699457993
            ],
            [
              -110.8655895676713,
              27.9261629155803
            ],
            [
              -110.86636518275206,
              27.92652922517392
            ],
            [
              -110.86720677415687,
              27.926754797507904
            ],
            [
              -110.868082,
              27.926830963963965
            ],
            [
              -110.86895722584313,
              27.926754797507904
            ],
            [
              -110.86979881724794,
              27.92652922517392
            ],
            [
              -110.87057443232871,
              27.9261629155803
            ],
            [
              -110.87125426463287,
              27.9256699457993
            ],
            [
              -110.8718121885862,
              27.92506926038314
            ],
            [
              -110.8722267634841,
              27.924383943335503
            ],
            [
              -110.8724820574457,
              27.92364033100619
            ],
            [
              -110.87256825966725,
              27.922867
            ],
            [
              -110.8724820574457,
              27.92209366899381
            ],
            [
              -110.8722267634841,
              27.921350056664497
            ],
            [
              -110.8718121885862,
              27.92066473961686
            ],
            [
              -110.87125426463287,
              27.9200640542007
            ],
            [
              -110.87057443232871,
              27.9195710844197
            ],
            [
              -110.86979881724794,
              27.91920477482608
            ],
            [
              -110.86895722584313,
              27.918979202492096
            ],
            [
              -110.868082,
              27.918903036036035
            ],
            [
              -110.86720677415687,
              27.918979202492096
            ],
            [
              -110.86636518275206,
              27.91920477482608
            ],
            [
              -110.8655895676713,
              27.9195710844197
            ],
            [
              -110.86490973536714,
              27.9200640542007
            ],
            [
              -110.8643518114138,
              27.92066473961686
            ],
            [
              -110.86393723651591,
              27.921350056664497
            ],
            [
              -110.86368194255431,
              27.92209366899381
            ],
            [
              -110.86359574033276,
              27.922867
            ]
          ]
        ]
      }
    },
    {
      "type": "Feature",
      "properties": {
        "id": "Amigo_LNG_T2",
        "nombre_feature": "Amigo LNG — Tren 2 (3.6 MTPA)",
        "terminal_grupo": "Amigo LNG",
        "promovente": "AMIGO LNG, S.A. de C.V.",
        "empresa_madre": "LNG Alliance / Epcilon LNG LLC",
        "estado": "Sonora",
        "municipio": "Guaymas",
        "localidad": "Guaymas",
        "tipo_area": "terminal_licuefaccion",
        "estatus_permiso": "Propuesto / Pre-FID",
        "status_code": "proposed",
        "color_hex": "#E53935",
        "capacidad_mtpa": 3.6,
        "superficie_ha": 30.0,
        "precision_geom": "exact_gem_wiki",
        "fuente_coordenadas": "GEM Wiki: 27.922867, -110.868082 (exact for both trains)",
        "clave_proyecto": "nan",
        "impacto_notes": "7.8 MTPA total. Contratos SPA 20 años con Sahara Group y Gunvor.",
        "latitud": 27.922867,
        "longitud": -110.868082
      },
      "geometry": {
        "type": "Polygon",
        "coordinates": [
          [
            [
              -110.86359574033276,
              27.922867
            ],
            [
              -110.86368194255431,
              27.92364033100619
            ],
            [
              -110.86393723651591,
              27.924383943335503
            ],
            [
              -110.8643518114138,
              27.92506926038314
            ],
            [
              -110.86490973536714,
              27.9256699457993
            ],
            [
              -110.8655895676713,
              27.9261629155803
            ],
            [
              -110.86636518275206,
              27.92652922517392
            ],
            [
              -110.86720677415687,
              27.926754797507904
            ],
            [
              -110.868082,
              27.926830963963965
            ],
            [
              -110.86895722584313,
              27.926754797507904
            ],
            [
              -110.86979881724794,
              27.92652922517392
            ],
            [
              -110.87057443232871,
              27.9261629155803
            ],
            [
              -110.87125426463287,
              27.9256699457993
            ],
            [
              -110.8718121885862,
              27.92506926038314
            ],
            [
              -110.8722267634841,
              27.924383943335503
            ],
            [
              -110.8724820574457,
              27.92364033100619
            ],
            [
              -110.87256825966725,
              27.922867
            ],
            [
              -110.8724820574457,
              27.92209366899381
            ],
            [
              -110.8722267634841,
              27.921350056664497
            ],
            [
              -110.8718121885862,
              27.92066473961686
            ],
            [
              -110.87125426463287,
              27.9200640542007
            ],
            [
              -110.87057443232871,
              27.9195710844197
            ],
            [
              -110.86979881724794,
              27.91920477482608
            ],
            [
              -110.86895722584313,
              27.918979202492096
            ],
            [
              -110.868082,
              27.918903036036035
            ],
            [
              -110.86720677415687,
              27.918979202492096
            ],
            [
              -110.86636518275206,
              27.91920477482608
            ],
            [
              -110.8655895676713,
              27.9195710844197
            ],
            [
              -110.86490973536714,
              27.9200640542007
            ],
            [
              -110.8643518114138,
              27.92066473961686
            ],
            [
              -110.86393723651591,
              27.921350056664497
            ],
            [
              -110.86368194255431,
              27.92209366899381
            ],
            [
              -110.86359574033276,
              27.922867
            ]
          ]
        ]
      }
    },
    {
      "type": "Feature",
      "properties": {
        "id": "Vista_Pacifico_FLNG",
        "nombre_feature": "Vista Pacífico GNL — Unidad FLNG Marine (CANCELADO)",
        "terminal_grupo": "Vista Pacífico LNG",
        "promovente": "Vista Pacífico LNG, S.A.P.I. de C.V.",
        "empresa_madre": "Sempra Infrastructure",
        "estado": "Sinaloa",
        "municipio": "Ahome",
        "localidad": "Topolobampo",
        "tipo_area": "unidad_flng",
        "estatus_permiso": "CANCELADO",
        "status_code": "cancelado",
        "color_hex": "#78909C",
        "capacidad_mtpa": 5.05,
        "superficie_ha": null,
        "precision_geom": "calculated_from_text",
        "fuente_coordenadas": "ER text: 2.228 km offshore from Topolobampo; calculated 25.589131, -109.103809",
        "clave_proyecto": "nan",
        "impacto_notes": "CANCELADO Feb 2026. Afectaba Sitio Ramsar Topolobampo (21.9 ha), AICA Bahía Navachiste (21.9 ha), ANP Islas del Golfo (2.15 km W).",
        "latitud": 25.589131,
        "longitud": -109.103809
      },
      "geometry": {
        "type": "Point",
        "coordinates": [
          -109.10380904755698,
          25.58913094328486
        ]
      }
    },
    {
      "type": "Feature",
      "properties": {
        "id": "Vista_Pacifico_Marina",
        "nombre_feature": "Vista Pacífico GNL — Área Marina 22 ha (CANCELADO)",
        "terminal_grupo": "Vista Pacífico LNG",
        "promovente": "Vista Pacífico LNG, S.A.P.I. de C.V.",
        "empresa_madre": "Sempra Infrastructure",
        "estado": "Sinaloa",
        "municipio": "Ahome",
        "localidad": "Topolobampo",
        "tipo_area": "area_marina",
        "estatus_permiso": "CANCELADO",
        "status_code": "cancelado",
        "color_hex": "#78909C",
        "capacidad_mtpa": 5.05,
        "superficie_ha": 22.13,
        "precision_geom": "approximate_buffer",
        "fuente_coordenadas": "ER text: 22.13 ha area marina around FLNG",
        "clave_proyecto": "nan",
        "impacto_notes": "CANCELADO Feb 2026. Afectaba Sitio Ramsar Topolobampo (21.9 ha), AICA Bahía Navachiste (21.9 ha), ANP Islas del Golfo (2.15 km W).",
        "latitud": 25.589131,
        "longitud": -109.103809
      },
      "geometry": {
        "type": "Polygon",
        "coordinates": [
          [
            [
              -109.10115793947477,
              25.58913094328486
            ],
            [
              -109.1012088797732,
              25.589597418439567
            ],
            [
              -109.10135974306135,
              25.59004596721568
            ],
            [
              -109.1016047317477,
              25.590459352135284
            ],
            [
              -109.10193443105439,
              25.590821687047747
            ],
            [
              -109.10233617082199,
              25.59111904762558
            ],
            [
              -109.10279451241651,
              25.591340006468542
            ],
            [
              -109.10329184202752,
              25.591476072252213
            ],
            [
              -109.10380904755698,
              25.59152201604483
            ],
            [
              -109.10432625308644,
              25.591476072252213
            ],
            [
              -109.10482358269745,
              25.591340006468542
            ],
            [
              -109.10528192429197,
              25.59111904762558
            ],
            [
              -109.10568366405957,
              25.590821687047747
            ],
            [
              -109.10601336336626,
              25.590459352135284
            ],
            [
              -109.1062583520526,
              25.59004596721568
            ],
            [
              -109.10640921534076,
              25.589597418439567
            ],
            [
              -109.10646015563918,
              25.58913094328486
            ],
            [
              -109.10640921534076,
              25.588664468130155
            ],
            [
              -109.1062583520526,
              25.58821591935404
            ],
            [
              -109.10601336336626,
              25.587802534434438
            ],
            [
              -109.10568366405957,
              25.587440199521975
            ],
            [
              -109.10528192429197,
              25.587142838944143
            ],
            [
              -109.10482358269745,
              25.58692188010118
            ],
            [
              -109.10432625308644,
              25.58678581431751
            ],
            [
              -109.10380904755698,
              25.58673987052489
            ],
            [
              -109.10329184202752,
              25.58678581431751
            ],
            [
              -109.10279451241651,
              25.58692188010118
            ],
            [
              -109.10233617082199,
              25.587142838944143
            ],
            [
              -109.10193443105439,
              25.587440199521975
            ],
            [
              -109.1016047317477,
              25.587802534434438
            ],
            [
              -109.10135974306135,
              25.58821591935404
            ],
            [
              -109.1012088797732,
              25.588664468130155
            ],
            [
              -109.10115793947477,
              25.58913094328486
            ]
          ]
        ]
      }
    },
    {
      "type": "Feature",
      "properties": {
        "id": "Vista_Pacifico_Terrestre",
        "nombre_feature": "Vista Pacífico GNL — Predio ASIPONA 1 ha (CANCELADO)",
        "terminal_grupo": "Vista Pacífico LNG",
        "promovente": "Vista Pacífico LNG, S.A.P.I. de C.V.",
        "empresa_madre": "Sempra Infrastructure",
        "estado": "Sinaloa",
        "municipio": "Ahome",
        "localidad": "Topolobampo",
        "tipo_area": "area_terrestre",
        "estatus_permiso": "CANCELADO",
        "status_code": "cancelado",
        "color_hex": "#78909C",
        "capacidad_mtpa": 5.05,
        "superficie_ha": 0.97,
        "precision_geom": "approximate_buffer",
        "fuente_coordenadas": "ER text: 0.97 ha instalaciones auxiliares en ASIPONA Topolobampo",
        "clave_proyecto": "nan",
        "impacto_notes": "CANCELADO Feb 2026. Afectaba Sitio Ramsar Topolobampo (21.9 ha), AICA Bahía Navachiste (21.9 ha), ANP Islas del Golfo (2.15 km W).",
        "latitud": 25.6053,
        "longitud": -109.0861
      },
      "geometry": {
        "type": "Polygon",
        "coordinates": [
          [
            [
              -109.08554488711619,
              25.6053
            ],
            [
              -109.0855555534546,
              25.605397661564577
            ],
            [
              -109.08558714256841,
              25.605491570049995
            ],
            [
              -109.0856384405057,
              25.605578116605827
            ],
            [
              -109.08570747591553,
              25.60565397529647
            ],
            [
              -109.08579159580579,
              25.605716230914975
            ],
            [
              -109.08588756749627,
              25.605762491012847
            ],
            [
              -109.08599170284874,
              25.60579097784046
            ],
            [
              -109.0861,
              25.60580059666501
            ],
            [
              -109.08620829715126,
              25.60579097784046
            ],
            [
              -109.08631243250373,
              25.605762491012847
            ],
            [
              -109.08640840419422,
              25.605716230914975
            ],
            [
              -109.08649252408448,
              25.60565397529647
            ],
            [
              -109.0865615594943,
              25.605578116605827
            ],
            [
              -109.08661285743159,
              25.605491570049995
            ],
            [
              -109.0866444465454,
              25.605397661564577
            ],
            [
              -109.08665511288382,
              25.6053
            ],
            [
              -109.0866444465454,
              25.605202338435422
            ],
            [
              -109.08661285743159,
              25.605108429950004
            ],
            [
              -109.0865615594943,
              25.605021883394173
            ],
            [
              -109.08649252408448,
              25.60494602470353
            ],
            [
              -109.08640840419422,
              25.604883769085024
            ],
            [
              -109.08631243250373,
              25.604837508987153
            ],
            [
              -109.08620829715126,
              25.60480902215954
            ],
            [
              -109.0861,
              25.60479940333499
            ],
            [
              -109.08599170284874,
              25.60480902215954
            ],
            [
              -109.08588756749627,
              25.604837508987153
            ],
            [
              -109.08579159580579,
              25.604883769085024
            ],
            [
              -109.08570747591553,
              25.60494602470353
            ],
            [
              -109.0856384405057,
              25.605021883394173
            ],
            [
              -109.08558714256841,
              25.605108429950004
            ],
            [
              -109.0855555534546,
              25.605202338435422
            ],
            [
              -109.08554488711619,
              25.6053
            ]
          ]
        ]
      }
    },
    {
      "type": "Feature",
      "properties": {
        "id": "Vista_Pacifico_Jetty",
        "nombre_feature": "Vista Pacífico GNL — Muelle / Jetty (CANCELADO)",
        "terminal_grupo": "Vista Pacífico LNG",
        "promovente": "Vista Pacífico LNG, S.A.P.I. de C.V.",
        "empresa_madre": "Sempra Infrastructure",
        "estado": "Sinaloa",
        "municipio": "Ahome",
        "localidad": "Topolobampo",
        "tipo_area": "instalaciones_marinas",
        "estatus_permiso": "CANCELADO",
        "status_code": "cancelado",
        "color_hex": "#78909C",
        "capacidad_mtpa": 5.05,
        "superficie_ha": null,
        "precision_geom": "calculated_from_text",
        "fuente_coordenadas": "ER text: Jetty at FLNG position with Gasoducto Corredor Norte interconnection",
        "clave_proyecto": "nan",
        "impacto_notes": "CANCELADO Feb 2026. Afectaba Sitio Ramsar Topolobampo (21.9 ha), AICA Bahía Navachiste (21.9 ha), ANP Islas del Golfo (2.15 km W).",
        "latitud": 25.589131,
        "longitud": -109.103809
      },
      "geometry": {
        "type": "Point",
        "coordinates": [
          -109.10380904755698,
          25.58913094328486
        ]
      }
    },
    {
      "type": "Feature",
      "properties": {
        "id": "GNL_Cosala_Mazatlan",
        "nombre_feature": "GNL Cosalá — Estación Mazatlán (Casas Viejas 1.5 ha)",
        "terminal_grupo": "GNL Cosalá",
        "promovente": "GNL Cosalá, S.A. de C.V.",
        "empresa_madre": "GNL Cosalá, S.A. de C.V.",
        "estado": "Sinaloa",
        "municipio": "Mazatlán",
        "localidad": "El Habal / Casas Viejas",
        "tipo_area": "estacion_compresion_expendio",
        "estatus_permiso": "En evaluación ASEA",
        "status_code": "en_evaluacion",
        "color_hex": "#00ACC1",
        "capacidad_mtpa": null,
        "superficie_ha": 1.5,
        "precision_geom": "geocoded_approximate",
        "fuente_coordenadas": "Geocoded from \"Casas Viejas, El Habal, C.P. 82270, Mazatlán, Sinaloa\" (Gaceta 13-2023, 28-2025) - NEEDS MANUAL GEOCODING",
        "clave_proyecto": "25SI2023G0009 / 25SI2025G0030",
        "impacto_notes": "Trámites ASEA 25SI2023G0009, 25SI2025G0030, 14JA2025G0073. Compresión propano y tanques 800 m³.",
        "latitud": 23.25,
        "longitud": -106.42
      },
      "geometry": {
        "type": "Polygon",
        "coordinates": [
          [
            [
              -106.41823504882969,
              23.25
            ],
            [
              -106.41826896187153,
              23.25031636268435
            ],
            [
              -106.41836939773788,
              23.25062056772816
            ],
            [
              -106.4185324967347,
              23.250900924702194
            ],
            [
              -106.41875199105901,
              23.25114665964517
            ],
            [
              -106.41901944566705,
              23.25134832910103
            ],
            [
              -106.41932458242819,
              23.251498183025696
            ],
            [
              -106.41965567510785,
              23.25159046261687
            ],
            [
              -106.42,
              23.25162162162162
            ],
            [
              -106.42034432489216,
              23.25159046261687
            ],
            [
              -106.42067541757181,
              23.251498183025696
            ],
            [
              -106.42098055433296,
              23.25134832910103
            ],
            [
              -106.42124800894099,
              23.25114665964517
            ],
            [
              -106.4214675032653,
              23.250900924702194
            ],
            [
              -106.42163060226213,
              23.25062056772816
            ],
            [
              -106.42173103812847,
              23.25031636268435
            ],
            [
              -106.42176495117032,
              23.25
            ],
            [
              -106.42173103812847,
              23.24968363731565
            ],
            [
              -106.42163060226213,
              23.24937943227184
            ],
            [
              -106.4214675032653,
              23.249099075297806
            ],
            [
              -106.42124800894099,
              23.24885334035483
            ],
            [
              -106.42098055433296,
              23.24865167089897
            ],
            [
              -106.42067541757181,
              23.248501816974304
            ],
            [
              -106.42034432489216,
              23.24840953738313
            ],
            [
              -106.42,
              23.24837837837838
            ],
            [
              -106.41965567510785,
              23.24840953738313
            ],
            [
              -106.41932458242819,
              23.248501816974304
            ],
            [
              -106.41901944566705,
              23.24865167089897
            ],
            [
              -106.41875199105901,
              23.24885334035483
            ],
            [
              -106.4185324967347,
              23.249099075297806
            ],
            [
              -106.41836939773788,
              23.24937943227184
            ],
            [
              -106.41826896187153,
              23.24968363731565
            ],
            [
              -106.41823504882969,
              23.25
            ]
          ]
        ]
      }
    },
    {
      "type": "Feature",
      "properties": {
        "id": "GNL_Cosala_Zapopan",
        "nombre_feature": "GNL Cosalá — Estación Zapopan (Av. Agujas 0.3 ha)",
        "terminal_grupo": "GNL Cosalá",
        "promovente": "GNL Cosalá, S.A. de C.V.",
        "empresa_madre": "GNL Cosalá, S.A. de C.V.",
        "estado": "Jalisco",
        "municipio": "Zapopan",
        "localidad": "Santa Lucía",
        "tipo_area": "estacion_descompresion",
        "estatus_permiso": "En evaluación ASEA",
        "status_code": "en_evaluacion",
        "color_hex": "#00ACC1",
        "capacidad_mtpa": null,
        "superficie_ha": 0.3,
        "precision_geom": "geocoded_approximate",
        "fuente_coordenadas": "Geocoded from \"Av. de las Agujas 450, Santa Lucía, 45200, Zapopan, Jalisco\" (Gaceta 28-2025) - NEEDS MANUAL GEOCODING",
        "clave_proyecto": "14JA2025G0073",
        "impacto_notes": "Trámites ASEA 25SI2023G0009, 25SI2025G0030, 14JA2025G0073. Compresión propano y tanques 800 m³.",
        "latitud": 20.7,
        "longitud": -103.42
      },
      "geometry": {
        "type": "Polygon",
        "coordinates": [
          [
            [
              -103.41903692698739,
              20.7
            ],
            [
              -103.41905543216528,
              20.70017575704686
            ],
            [
              -103.41911023655534,
              20.700344759848978
            ],
            [
              -103.41919923405558,
              20.70050051372344
            ],
            [
              -103.419319004542,
              20.700637033136204
            ],
            [
              -103.41946494530197,
              20.700749071722793
            ],
            [
              -103.41963144791391,
              20.700832323903164
            ],
            [
              -103.41981211377585,
              20.700883590342706
            ],
            [
              -103.42,
              20.7009009009009
            ],
            [
              -103.42018788622416,
              20.700883590342706
            ],
            [
              -103.42036855208609,
              20.700832323903164
            ],
            [
              -103.42053505469804,
              20.700749071722793
            ],
            [
              -103.420680995458,
              20.700637033136204
            ],
            [
              -103.42080076594442,
              20.70050051372344
            ],
            [
              -103.42088976344466,
              20.700344759848978
            ],
            [
              -103.42094456783472,
              20.70017575704686
            ],
            [
              -103.42096307301262,
              20.7
            ],
            [
              -103.42094456783472,
              20.699824242953138
            ],
            [
              -103.42088976344466,
              20.69965524015102
            ],
            [
              -103.42080076594442,
              20.699499486276558
            ],
            [
              -103.420680995458,
              20.699362966863795
            ],
            [
              -103.42053505469804,
              20.699250928277205
            ],
            [
              -103.42036855208609,
              20.699167676096835
            ],
            [
              -103.42018788622416,
              20.699116409657293
            ],
            [
              -103.42,
              20.699099099099097
            ],
            [
              -103.41981211377585,
              20.699116409657293
            ],
            [
              -103.41963144791391,
              20.699167676096835
            ],
            [
              -103.41946494530197,
              20.699250928277205
            ],
            [
              -103.419319004542,
              20.699362966863795
            ],
            [
              -103.41919923405558,
              20.699499486276558
            ],
            [
              -103.41911023655534,
              20.69965524015102
            ],
            [
              -103.41905543216528,
              20.699824242953138
            ],
            [
              -103.41903692698739,
              20.7
            ]
          ]
        ]
      }
    }
  ]
}