{
"type": "FeatureCollection",
"name": "saguaro_polygons_181v",
"crs": { "type": "name", "properties": { "name": "urn:ogc:def:crs:OGC:1.3:CRS84" } },
"features": [
{ "type": "Feature", "properties": { "sitio_id": "SAGUARO_T1", "nombre": "Terminal T1 (Almacenes y Servicios)", "tipo": "Terminal Principal", "superficie_ha": 172.4, "num_vertices": 17, "estatus": "MIA Autorizado" }, "geometry": { "type": "Polygon", "coordinates": [ [ [ -111.0093739, 30.4486397 ], [ -111.0083324, 30.4486397 ], [ -111.0083323, 30.4477373 ], [ -111.0072908, 30.4477374 ], [ -111.0072907, 30.446835 ], [ -111.0062492, 30.4468351 ], [ -111.0062491, 30.4459327 ], [ -111.0052076, 30.4459327 ], [ -111.0052075, 30.4450303 ], [ -111.004166, 30.4450303 ], [ -111.004166, 30.4441279 ], [ -111.0031245, 30.444128 ], [ -111.0031245, 30.4432256 ], [ -111.002083, 30.4432256 ], [ -111.002083, 30.4423232 ], [ -111.0010415, 30.4423232 ], [ -111.0010415, 30.4414208 ], [ -111.0093739, 30.4486397 ] ] ] } },
{ "type": "Feature", "properties": { "sitio_id": "SAGUARO_T2", "nombre": "Terminal T2 (Instalaciones Complementarias)", "tipo": "Terminal Secundaria", "superficie_ha": 46.8, "num_vertices": 29, "estatus": "MIA Autorizado" }, "geometry": { "type": "Polygon", "coordinates": [ [ [ -112.2809589, 29.7168739 ], [ -112.2809704, 29.7177761 ], [ -112.2799367, 29.7177861 ], [ -112.2799482, 29.7186884 ], [ -112.2789145, 29.7186984 ], [ -112.2789259, 29.7196007 ], [ -112.2778923, 29.7196107 ], [ -112.2779037, 29.7205129 ], [ -112.27687, 29.7205229 ], [ -112.2768814, 29.7214252 ], [ -112.2758477, 29.7214351 ], [ -112.2758591, 29.7223374 ], [ -112.2748254, 29.7223474 ], [ -112.2748368, 29.7232496 ], [ -112.2738031, 29.7232596 ], [ -112.2738145, 29.7241619 ], [ -112.2727808, 29.7241718 ], [ -112.2727922, 29.7250741 ], [ -112.2717584, 29.725084 ], [ -112.2717698, 29.7259863 ], [ -112.2707361, 29.7259962 ], [ -112.2707474, 29.7268985 ], [ -112.2697137, 29.7269084 ], [ -112.269725, 29.7278107 ], [ -112.2686913, 29.7278206 ], [ -112.2687026, 29.7287229 ], [ -112.2676689, 29.7287328 ], [ -112.2676802, 29.7296351 ], [ -112.2666464, 29.729645 ], [ -112.2809589, 29.7168739 ] ] ] } },
{ "type": "Feature", "properties": { "sitio_id": "SAGUARO_RESERVA", "nombre": "Área de Reserva para Conservación (Tabla II.7)", "tipo": "Área de Conservación", "superficie_ha": 0.946, "num_vertices": 13, "estatus": "MIA Requerido" }, "geometry": { "type": "Polygon", "coordinates": [ [ [ -110.6747188, 29.9130942 ], [ -110.6738895, 29.9132727 ], [ -110.6732689, 29.9130004 ], [ -110.672856, 29.9125481 ], [ -110.6731685, 29.9120074 ], [ -110.6736873, 29.911738 ], [ -110.6743092, 29.9116493 ], [ -110.6750337, 29.9118315 ], [ -110.6756544, 29.9121038 ], [ -110.6759637, 29.9125558 ], [ -110.6758583, 29.913097 ], [ -110.6754431, 29.9133667 ], [ -110.675029, 29.9132755 ], [ -110.6747188, 29.9130942 ] ] ] } },
{ "type": "Feature", "properties": { "sitio_id": "SAGUARO_CAMPAMENTOS", "nombre": "Campamentos Habitacionales (Tabla II.8)", "tipo": "Campamentos", "superficie_ha": 20.532, "num_vertices": 13, "estatus": "MIA Requerido" }, "geometry": { "type": "Polygon", "coordinates": [ [ [ -110.6664556, 29.9058538 ], [ -110.6643824, 29.9062998 ], [ -110.6628308, 29.9056641 ], [ -110.6617989, 29.9044883 ], [ -110.662322, 29.9029554 ], [ -110.663568, 29.9020562 ], [ -110.6654333, 29.9017902 ], [ -110.6675034, 29.9022466 ], [ -110.6690541, 29.903153 ], [ -110.6697756, 29.9042378 ], [ -110.6693574, 29.9054099 ], [ -110.6683192, 29.9061293 ], [ -110.6672831, 29.9062169 ], [ -110.6664556, 29.9058538 ] ] ] } },
{ "type": "Feature", "properties": { "sitio_id": "SAGUARO_CAMINOS", "nombre": "Caminos Pavimentados de Acceso (Tabla II.9)", "tipo": "Infraestructura Vial", "superficie_ha": 1.8, "num_vertices": 155, "estatus": "MIA Requerido" }, "geometry": { "type": "LineString", "coordinates": [ [ -110.6835814, 29.8982612 ], [ -110.683031, 29.8987201 ], [ -110.6824496, 29.8991429 ], [ -110.6818477, 29.8995204 ], [ -110.6812355, 29.8998439 ], [ -110.6806236, 29.9001131 ], [ -110.6800325, 29.9003283 ], [ -110.6794622, 29.9005074 ], [ -110.6789335, 29.9006505 ], [ -110.6784463, 29.9007847 ], [ -110.6780108, 29.900919 ], [ -110.6776167, 29.9010714 ], [ -110.6772639, 29.9012511 ], [ -110.6769421, 29.9014759 ], [ -110.6766305, 29.9017459 ], [ -110.6763187, 29.90207 ], [ -110.6759964, 29.9024483 ], [ -110.6756532, 29.9028716 ], [ -110.6752788, 29.9033309 ], [ -110.6748629, 29.9038172 ], [ -110.6743952, 29.9043034 ], [ -110.6738861, 29.9047895 ], [ -110.6733356, 29.9052484 ], [ -110.6727541, 29.9056711 ], [ -110.6721418, 29.9060396 ], [ -110.6715296, 29.9063629 ], [ -110.6709175, 29.9066321 ], [ -110.6703264, 29.9068473 ], [ -110.6697664, 29.9070264 ], [ -110.6692377, 29.9071694 ], [ -110.6687607, 29.9073036 ], [ -110.6683252, 29.9074379 ], [ -110.6679311, 29.9075903 ], [ -110.6675783, 29.9077699 ], [ -110.6672564, 29.9079947 ], [ -110.6669447, 29.9082737 ], [ -110.6666329, 29.9086068 ], [ -110.6663105, 29.908985 ], [ -110.6659672, 29.9094083 ], [ -110.6655928, 29.9098676 ], [ -110.6651665, 29.9103539 ], [ -110.6646987, 29.91084 ], [ -110.6641895, 29.911317 ], [ -110.6636389, 29.9117759 ], [ -110.6630471, 29.9121895 ], [ -110.6624346, 29.912558 ], [ -110.6618224, 29.9128723 ], [ -110.6612103, 29.9131324 ], [ -110.6606191, 29.9133475 ], [ -110.6600591, 29.9135175 ], [ -110.6595407, 29.9136606 ], [ -110.6589594, 29.9139839 ], [ -110.6584092, 29.9143345 ], [ -110.6578899, 29.9147122 ], [ -110.6574121, 29.915099 ], [ -110.6569756, 29.9154949 ], [ -110.656591, 29.915891 ], [ -110.6562478, 29.9162872 ], [ -110.655946, 29.9166655 ], [ -110.6556755, 29.9170167 ], [ -110.6554361, 29.917341 ], [ -110.6552071, 29.9176382 ], [ -110.6549783, 29.9178993 ], [ -110.6547496, 29.9181243 ], [ -110.6545003, 29.9183222 ], [ -110.65422, 29.9184929 ], [ -110.6539087, 29.9186455 ], [ -110.6535456, 29.91878 ], [ -110.6531412, 29.9189143 ], [ -110.6526952, 29.9190485 ], [ -110.6521974, 29.9191915 ], [ -110.6516685, 29.9193526 ], [ -110.6511084, 29.9195406 ], [ -110.6505275, 29.9197557 ], [ -110.6499361, 29.9200068 ], [ -110.6493446, 29.920294 ], [ -110.6487634, 29.9206083 ], [ -110.6482027, 29.9209588 ], [ -110.647673, 29.9213274 ], [ -110.6471848, 29.9217142 ], [ -110.6467379, 29.92211 ], [ -110.6463428, 29.9225061 ], [ -110.6459891, 29.9229022 ], [ -110.645677, 29.9232804 ], [ -110.6454063, 29.9236407 ], [ -110.6451565, 29.9239739 ], [ -110.6449275, 29.9242711 ], [ -110.6446987, 29.9245322 ], [ -110.6444699, 29.9247662 ], [ -110.6442206, 29.9249641 ], [ -110.6439506, 29.9251348 ], [ -110.6436392, 29.9252874 ], [ -110.6432865, 29.9254218 ], [ -110.6428923, 29.9255561 ], [ -110.6424463, 29.9256903 ], [ -110.6419589, 29.9258333 ], [ -110.6414299, 29.9259943 ], [ -110.6408698, 29.9261823 ], [ -110.6402888, 29.9263973 ], [ -110.6396974, 29.9266484 ], [ -110.6391058, 29.9269266 ], [ -110.6385245, 29.9272408 ], [ -110.6379638, 29.9275822 ], [ -110.6374859, 29.9279329 ], [ -110.6370185, 29.9282565 ], [ -110.6365719, 29.9285621 ], [ -110.636146, 29.9288497 ], [ -110.6357409, 29.9291283 ], [ -110.6353566, 29.929398 ], [ -110.6350033, 29.9296678 ], [ -110.6346708, 29.9299376 ], [ -110.634359, 29.9302165 ], [ -110.6340678, 29.9305045 ], [ -110.6337973, 29.9308106 ], [ -110.6335474, 29.9311438 ], [ -110.6333078, 29.9314951 ], [ -110.6330681, 29.9318734 ], [ -110.6328283, 29.9322789 ], [ -110.6325884, 29.9327114 ], [ -110.6323381, 29.933171 ], [ -110.6320773, 29.9336485 ], [ -110.631806, 29.9341531 ], [ -110.631514, 29.9346667 ], [ -110.6311909, 29.9351983 ], [ -110.630847, 29.9357298 ], [ -110.6304824, 29.9362612 ], [ -110.6300866, 29.9367925 ], [ -110.6296702, 29.9373148 ], [ -110.6292332, 29.937819 ], [ -110.6287755, 29.938305 ], [ -110.6283074, 29.938773 ], [ -110.6278292, 29.9392138 ], [ -110.627351, 29.9396276 ], [ -110.6268729, 29.9400143 ], [ -110.6263949, 29.9403739 ], [ -110.6259273, 29.9407065 ], [ -110.6254702, 29.9410211 ], [ -110.6250339, 29.9413176 ], [ -110.6246184, 29.9415962 ], [ -110.6242236, 29.9418658 ], [ -110.6238599, 29.9421355 ], [ -110.623517, 29.9424053 ], [ -110.6231947, 29.9426751 ], [ -110.6229035, 29.9429631 ], [ -110.6226226, 29.9432601 ], [ -110.6223623, 29.9435752 ], [ -110.6221123, 29.9439174 ], [ -110.6218726, 29.9442867 ], [ -110.6216328, 29.9446831 ], [ -110.6213928, 29.9451066 ], [ -110.6211528, 29.9455571 ], [ -110.6209023, 29.9460257 ], [ -110.620631, 29.9465213 ], [ -110.6203389, 29.9470348 ], [ -110.620026, 29.9475573 ] ] } }
]
}
