{
"type": "FeatureCollection",
"name": "ductos_cnih",
"crs": { "type": "name", "properties": { "name": "urn:ogc:def:crs:OGC:1.3:CRS84" } },
"features": [
{ "type": "Feature", "properties": { "nombre": "Gasoducto Corredor Norte (GCN ~75 km)", "proyecto": null, "tipo": null, "longitud_km": 72.809200185963704, "tramo": null, "permiso": null, "inicio_de_": null, "zona_tarifaria": null, "integrado_sistrangas": null, "notas": null, "Chihuahua": null, "IDD": null, "OBJECTID": null, "GlobalID": null, "Shape__Length": null, "source_dataset": "capas_contextuales", "capacidad": null, "inversin_m": null, "empresa": "Gasoducto Corredor Norte, S.A.P.I.", "fecha_de_i": null, "observacio": null, "Id": null, "regin": null, "servicio": null, "capacida_1": null, "id": "gasoducto_corredor_norte", "tipo_capa": "Gasoducto", "estatus": "Asociado a proyecto Vista Pacífico (CANCELADO)", "color": "#78909C", "fill_color": null, "fill_opacity": null, "line_weight": 2.5, "dash_array": "8, 4", "descripcion": "Gasoducto proyectado para alimentar Vista Pacífico LNG en Topolobampo." }, "geometry": { "type": "LineString", "coordinates": [ [ -108.85, 26.15 ], [ -108.98, 25.8 ], [ -109.0881, 25.6033 ] ] } },
{ "type": "Feature", "properties": { "nombre": "Gasoducto Sierra Madre (~800 km)", "proyecto": null, "tipo": null, "longitud_km": 536.34954514050696, "tramo": null, "permiso": null, "inicio_de_": null, "zona_tarifaria": null, "integrado_sistrangas": null, "notas": null, "Chihuahua": null, "IDD": null, "OBJECTID": null, "GlobalID": null, "Shape__Length": null, "source_dataset": "capas_contextuales", "capacidad": null, "inversin_m": null, "empresa": "Mexico Pacific Limited", "fecha_de_i": null, "observacio": null, "Id": null, "regin": null, "servicio": null, "capacida_1": null, "id": "gasoducto_sierra_madre", "tipo_capa": "Gasoducto", "estatus": "Propuesto / Permiso en trámite", "color": "#FF9800", "fill_color": null, "fill_opacity": null, "line_weight": 3.0, "dash_array": "5, 5", "descripcion": "Conecta el Hub Permian (EEUU) a través de Chihuahua/Sonora con la Terminal Saguaro Energía en Puerto Libertad (30 MTPA)." }, "geometry": { "type": "LineString", "coordinates": [ [ -108.2, 31.3 ], [ -109.5, 30.8 ], [ -110.8, 30.2 ], [ -112.688, 29.9058 ] ] } },
{ "type": "Feature", "properties": { "nombre": "SISTRANGAS", "proyecto": " ", "tipo": "Gasoductos existentes operados por CENAGAS", "longitud_km": 341.73771, "tramo": "JUAREZ-CHIHUAUA", "permiso": "G/061/TRA/1999", "inicio_de_": "1962", "zona_tarifaria": "Zona Norte", "integrado_sistrangas": "Si", "notas": "La longitud y el tramo expresados son estimados, para fines informativos y no corresponden a la ubicación exacta del gasoducto", "Chihuahua": "Chihuahua", "IDD": "1", "OBJECTID": 1.0, "GlobalID": "eab84dd4-0a7f-46b2-84f8-b8521932024f", "Shape__Length": 3.0886097146983911, "source_dataset": "integrados_sistrangas", "capacidad": null, "inversin_m": null, "empresa": null, "fecha_de_i": null, "observacio": null, "Id": null, "regin": null, "servicio": null, "capacida_1": null, "id": null, "tipo_capa": null, "estatus": null, "color": null, "fill_color": null, "fill_opacity": null, "line_weight": null, "dash_array": null, "descripcion": null }, "geometry": { "type": "LineString", "coordinates": [ [ -106.385396085061004, 31.7344709192976 ], [ -106.539120000188007, 30.452615999628701 ], [ -106.024147999630003, 28.730389999698801 ] ] } },
{ "type": "Feature", "properties": { "nombre": "SISTRANGAS", "proyecto": " ", "tipo": "Gasoductos existentes operados por CENAGAS", "longitud_km": 434.3739, "tramo": "EL ENCINO-LA LAGUNA", "permiso": "G/061/TRA/1999", "inicio_de_": "1962", "zona_tarifaria": "Zona Norte", "integrado_sistrangas": "Si", "notas": "La longitud y el tramo expresados son estimados, para fines informativos y no corresponden a la ubicación exacta del gasoducto", "Chihuahua": "Chihuahua", "IDD": " ", "OBJECTID": 2.0, "GlobalID": "f7f68aa7-c95d-477c-99e6-5b315cd250f6", "Shape__Length": 2.7060016112063208, "source_dataset": "integrados_sistrangas", "capacidad": null, "inversin_m": null, "empresa": null, "fecha_de_i": null, "observacio": null, "Id": null, "regin": null, "servicio": null, "capacida_1": null, "id": null, "tipo_capa": null, "estatus": null, "color": null, "fill_color": null, "fill_opacity": null, "line_weight": null, "dash_array": null, "descripcion": null }, "geometry": { "type": "LineString", "coordinates": [ [ -106.024147999630003, 28.730389999698801 ], [ -105.664726000204993, 28.037220000402701 ], [ -104.928277999830001, 27.163287000095 ], [ -104.327175691204999, 26.662563453340699 ] ] } },
{ "type": "Feature", "properties": { "nombre": "SISTRANGAS", "proyecto": " ", "tipo": "Gasoductos existentes operados por CENAGAS", "longitud_km": 55.84603, "tramo": "RAMAL A DELICIAS", "permiso": "G/061/TRA/1999", "inicio_de_": "1962", "zona_tarifaria": "Zona Norte", "integrado_sistrangas": "Si", "notas": "La longitud y el tramo expresados son estimados, para fines informativos y no corresponden a la ubicación exacta del gasoducto", "Chihuahua": "Chihuahua", "IDD": "3", "OBJECTID": 3.0, "GlobalID": "e6f9ce53-a54f-425a-a121-ef4702565992", "Shape__Length": 0.22420478528650198, "source_dataset": "integrados_sistrangas", "capacidad": null, "inversin_m": null, "empresa": null, "fecha_de_i": null, "observacio": null, "Id": null, "regin": null, "servicio": null, "capacida_1": null, "id": null, "tipo_capa": null, "estatus": null, "color": null, "fill_color": null, "fill_opacity": null, "line_weight": null, "dash_array": null, "descripcion": null }, "geometry": { "type": "LineString", "coordinates": [ [ -105.664726000204993, 28.037220000402701 ], [ -105.483078761475994, 28.1686432342979 ] ] } },
{ "type": "Feature", "properties": { "nombre": "SISTRANGAS", "proyecto": " ", "tipo": "Gasoductos existentes operados por CENAGAS", "longitud_km": 13.74282, "tramo": "RAMAL A CAMARGO", "permiso": "G/061/TRA/1999", "inicio_de_": "1962", "zona_tarifaria": "Zona Norte", "integrado_sistrangas": "Si", "notas": "La longitud y el tramo expresados son estimados, para fines informativos y no corresponden a la ubicación exacta del gasoducto", "Chihuahua": "Chihuahua", "IDD": "4", "OBJECTID": 4.0, "GlobalID": "49883660-2761-4430-9157-6210f1c45c52", "Shape__Length": 0.15969150042485486, "source_dataset": "integrados_sistrangas", "capacidad": null, "inversin_m": null, "empresa": null, "fecha_de_i": null, "observacio": null, "Id": null, "regin": null, "servicio": null, "capacida_1": null, "id": null, "tipo_capa": null, "estatus": null, "color": null, "fill_color": null, "fill_opacity": null, "line_weight": null, "dash_array": null, "descripcion": null }, "geometry": { "type": "LineString", "coordinates": [ [ -105.291734646636996, 27.594596145395801 ], [ -105.147021000419002, 27.662119000091799 ] ] } },
{ "type": "Feature", "properties": { "nombre": "SISTRANGAS", "proyecto": " ", "tipo": "Gasoductos existentes operados por CENAGAS", "longitud_km": 96.389765, "tramo": "RAMAL A ANAHUAC", "permiso": "G/061/TRA/1999", "inicio_de_": "1962", "zona_tarifaria": "Zona Norte", "integrado_sistrangas": "Si", "notas": "La longitud y el tramo expresados son estimados, para fines informativos y no corresponden a la ubicación exacta del gasoducto", "Chihuahua": "Chihuahua", "IDD": "5", "OBJECTID": 5.0, "GlobalID": "54116f78-6040-420c-9ccc-034f4594cade", "Shape__Length": 0.93641249588500575, "source_dataset": "integrados_sistrangas", "capacidad": null, "inversin_m": null, "empresa": null, "fecha_de_i": null, "observacio": null, "Id": null, "regin": null, "servicio": null, "capacida_1": null, "id": null, "tipo_capa": null, "estatus": null, "color": null, "fill_color": null, "fill_opacity": null, "line_weight": null, "dash_array": null, "descripcion": null }, "geometry": { "type": "LineString", "coordinates": [ [ -105.991420961708002, 28.667273661150599 ], [ -106.298002000192, 28.345111000372398 ], [ -106.521618999816994, 28.3091030000035 ], [ -106.724155000352994, 28.480289000037398 ] ] } },
{ "type": "Feature", "properties": { "nombre": "SISTRANGAS", "proyecto": " ", "tipo": "Gasoductos existentes operados por CENAGAS", "longitud_km": 109.4757, "tramo": "RAMAL A LAGUNA DEL REY", "permiso": "G/061/TRA/1999", "inicio_de_": "1962", "zona_tarifaria": "Zona Norte", "integrado_sistrangas": "Si", "notas": "La longitud y el tramo expresados son estimados, para fines informativos y no corresponden a la ubicación exacta del gasoducto", "Chihuahua": "Chihuahua", "IDD": "6", "OBJECTID": 6.0, "GlobalID": "033339c5-1892-425a-ba22-bc0c48a29420", "Shape__Length": 1.0865878986021256, "source_dataset": "integrados_sistrangas", "capacidad": null, "inversin_m": null, "empresa": null, "fecha_de_i": null, "observacio": null, "Id": null, "regin": null, "servicio": null, "capacida_1": null, "id": null, "tipo_capa": null, "estatus": null, "color": null, "fill_color": null, "fill_opacity": null, "line_weight": null, "dash_array": null, "descripcion": null }, "geometry": { "type": "LineString", "coordinates": [ [ -104.393131867541996, 26.717394666131 ], [ -104.084946999704002, 26.880875999727699 ], [ -103.454453000306003, 26.9669490002962 ], [ -103.375298000401997, 27.030299999845202 ] ] } },
{ "type": "Feature", "properties": { "nombre": "SISTRANGAS", "proyecto": " ", "tipo": "Gasoductos existentes operados por CENAGAS", "longitud_km": 76.458818, "tramo": "RAMAL A SANTA RITA DE CASIA", "permiso": "G/061/TRA/1999", "inicio_de_": "1962", "zona_tarifaria": "Zona Norte", "integrado_sistrangas": "Si", "notas": "La longitud y el tramo expresados son estimados, para fines informativos y no corresponden a la ubicación exacta del gasoducto", "Chihuahua": "Chihuahua", "IDD": "7", "OBJECTID": 7.0, "GlobalID": "1502c63f-44a8-4a4c-9903-9959869bf05e", "Shape__Length": 0.770846058618052, "source_dataset": "integrados_sistrangas", "capacidad": null, "inversin_m": null, "empresa": null, "fecha_de_i": null, "observacio": null, "Id": null, "regin": null, "servicio": null, "capacida_1": null, "id": null, "tipo_capa": null, "estatus": null, "color": null, "fill_color": null, "fill_opacity": null, "line_weight": null, "dash_array": null, "descripcion": null }, "geometry": { "type": "LineString", "coordinates": [ [ -105.833150960148998, 28.365641139527 ], [ -105.626039870043996, 28.450019731925099 ], [ -105.099312902069002, 28.598321499537601 ] ] } },
{ "type": "Feature", "properties": { "nombre": "SISTRANGAS", "proyecto": " ", "tipo": "Gasoductos existentes operados por CENAGAS", "longitud_km": 75.36861, "tramo": "RAMAL A SAN DIEGO DE ALCALA", "permiso": "G/061/TRA/1999", "inicio_de_": "1962", "zona_tarifaria": "Zona Norte", "integrado_sistrangas": "Si", "notas": "La longitud y el tramo expresados son estimados, para fines informativos y no corresponden a la ubicación exacta del gasoducto", "Chihuahua": "Chihuahua", "IDD": "8", "OBJECTID": 8.0, "GlobalID": "e86d364d-c23c-4198-b20c-b8eb41f8efc0", "Shape__Length": 0.74898467947716685, "source_dataset": "integrados_sistrangas", "capacidad": null, "inversin_m": null, "empresa": null, "fecha_de_i": null, "observacio": null, "Id": null, "regin": null, "servicio": null, "capacida_1": null, "id": null, "tipo_capa": null, "estatus": null, "color": null, "fill_color": null, "fill_opacity": null, "line_weight": null, "dash_array": null, "descripcion": null }, "geometry": { "type": "LineString", "coordinates": [ [ -105.833150960148998, 28.365641139527 ], [ -105.510978154119002, 28.595764572277201 ], [ -105.168148114044001, 28.680160714045801 ] ] } },
{ "type": "Feature", "properties": { "nombre": "SISTRANGAS", "proyecto": " ", "tipo": "Gasoductos existentes operados por CENAGAS", "longitud_km": 60.423844, "tramo": "RAMAL A SAUCILLO", "permiso": "G/061/TRA/1999", "inicio_de_": "1962", "zona_tarifaria": "Zona Norte", "integrado_sistrangas": "Si", "notas": "La longitud y el tramo expresados son estimados, para fines informativos y no corresponden a la ubicación exacta del gasoducto", "Chihuahua": "Chihuahua", "IDD": "9", "OBJECTID": 9.0, "GlobalID": "e8cadb2a-c8aa-4994-8646-4c78fb815cb1", "Shape__Length": 0.36131865708164279, "source_dataset": "integrados_sistrangas", "capacidad": null, "inversin_m": null, "empresa": null, "fecha_de_i": null, "observacio": null, "Id": null, "regin": null, "servicio": null, "capacida_1": null, "id": null, "tipo_capa": null, "estatus": null, "color": null, "fill_color": null, "fill_opacity": null, "line_weight": null, "dash_array": null, "descripcion": null }, "geometry": { "type": "LineString", "coordinates": [ [ -105.657457999586995, 28.029928999623699 ], [ -105.423287445859003, 28.042221506217601 ], [ -105.296523836906005, 28.038253909590299 ] ] } },
{ "type": "Feature", "properties": { "nombre": "SISTRANGAS", "proyecto": " ", "tipo": "Gasoductos existentes operados por CENAGAS", "longitud_km": 434.3739, "tramo": "EL ENCINO-LA LAGUNA", "permiso": "G/061/TRA/1999", "inicio_de_": "1962", "zona_tarifaria": "Zona Norte", "integrado_sistrangas": "Si", "notas": "La longitud y el tramo expresados son estimados, para fines informativos y no corresponden a la ubicación exacta del gasoducto", "Chihuahua": " ", "IDD": "2", "OBJECTID": 10.0, "GlobalID": "4eb7248b-26be-4962-b6ac-b6799cd53837", "Shape__Length": 1.4079377370978103, "source_dataset": "integrados_sistrangas", "capacidad": null, "inversin_m": null, "empresa": null, "fecha_de_i": null, "observacio": null, "Id": null, "regin": null, "servicio": null, "capacida_1": null, "id": null, "tipo_capa": null, "estatus": null, "color": null, "fill_color": null, "fill_opacity": null, "line_weight": null, "dash_array": null, "descripcion": null }, "geometry": { "type": "LineString", "coordinates": [ [ -104.327175628253002, 26.662563401180101 ], [ -103.245395288961006, 25.761430797693201 ] ] } },
{ "type": "Feature", "properties": { "nombre": "EL ENCINO - LA LAGUNA", "proyecto": " ", "tipo": "Gasoductos en construcción", "longitud_km": 423.0, "tramo": "El Encino - La Laguna", "permiso": "G/13687/TRA2017", "inicio_de_": null, "zona_tarifaria": "No Aplica", "integrado_sistrangas": "No", "notas": null, "Chihuahua": "Chihuahua", "IDD": "14", "OBJECTID": 5.0, "GlobalID": "a29683e0-8029-4c2f-b754-ac5e3b57eb2c", "Shape__Length": 4.0599202152463079, "source_dataset": "no_integrados_sistrangas", "capacidad": 1500.0, "inversin_m": 1291.0, "empresa": "Fermaca", "fecha_de_i": "Marzo 2017", "observacio": "La longitud y el tramo expresados son estimados, para fines informativos y no corresponden a la ubicación exacta del gasoducto", "Id": null, "regin": null, "servicio": null, "capacida_1": null, "id": null, "tipo_capa": null, "estatus": null, "color": null, "fill_color": null, "fill_opacity": null, "line_weight": null, "dash_array": null, "descripcion": null }, "geometry": { "type": "LineString", "coordinates": [ [ -106.016930999566, 28.642104999646101 ], [ -106.003290668229994, 28.550512093458401 ], [ -105.937459330384002, 28.435888400429398 ], [ -105.868162769796001, 28.3087832973114 ], [ -105.762223177756994, 28.0953477294142 ], [ -105.742154063458997, 28.069969828944501 ], [ -105.723686650717994, 28.0466173222317 ], [ -105.476291864877993, 27.825325705916701 ], [ -105.261588648596998, 27.561075593363999 ], [ -105.118953644995003, 27.376400799557299 ], [ -105.046885433216005, 27.277307007012801 ], [ -104.908504472903005, 27.107291348716799 ], [ -104.623484684969995, 26.886937523847699 ], [ -104.384758731429997, 26.7292883090083 ], [ -104.312016067686997, 26.691526889654298 ], [ -104.147993817061007, 26.452444644504801 ], [ -103.99172345897, 26.277421842544101 ], [ -103.725634871352, 26.0701644489302 ], [ -103.576994183435005, 25.987586289375798 ], [ -103.260299999645, 25.773500999971201 ] ] } },
{ "type": "Feature", "properties": { "nombre": "EL ENCINO - TOPOLOBAMPO", "proyecto": "PROYECTO NOROESTE", "tipo": "Gasoducto privado", "longitud_km": 488.44531340999998, "tramo": "El Encino - Topolobampo", "permiso": "G/337/TRA/2014\n", "inicio_de_": null, "zona_tarifaria": "No Aplica", "integrado_sistrangas": "No", "notas": null, "Chihuahua": "Chihuahua", "IDD": "10", "OBJECTID": 1.0, "GlobalID": "793c0799-d9e3-47ca-af6e-e989c85365c2", "Shape__Length": 4.622423642806484, "source_dataset": "no_integrados_sistrangas", "capacidad": 670.0, "inversin_m": 1008.0, "empresa": "TransCanada", "fecha_de_i": "Agosto 2018", "observacio": "La longitud y el tramo expresados son estimados, para fines informativos y no corresponden a la ubicación exacta del gasoducto", "Id": null, "regin": null, "servicio": null, "capacida_1": null, "id": null, "tipo_capa": null, "estatus": null, "color": null, "fill_color": null, "fill_opacity": null, "line_weight": null, "dash_array": null, "descripcion": null }, "geometry": { "type": "LineString", "coordinates": [ [ -106.017006692804998, 28.642277047148099 ], [ -106.22665197261, 28.4123159995838 ], [ -106.263383903844002, 28.333064000603201 ], [ -106.413570764678994, 28.2917626140534 ], [ -106.614445691316007, 28.282375935700902 ], [ -106.804995271314993, 28.240135880866301 ], [ -106.979587497664994, 28.152839767241499 ], [ -107.141977040808001, 28.035506281989399 ], [ -107.268697205311994, 27.8975221034623 ], [ -107.386030690563999, 27.799900644099498 ], [ -107.525892204761007, 27.598087049178002 ], [ -107.676937847104, 27.409394833604701 ], [ -107.842462940412005, 27.255692960861499 ], [ -108.031634475749996, 27.125637530148001 ], [ -108.238207074296994, 27.0389136200675 ], [ -108.329904525773003, 26.972347336460501 ], [ -108.426074703284996, 26.902534149531402 ], [ -108.466437421549998, 26.819931375532601 ], [ -108.455164750652997, 26.581111110988999 ], [ -108.469093651950004, 26.357128166431799 ], [ -108.563679420068993, 26.274365619777601 ], [ -108.740126823693998, 26.113057908895399 ], [ -108.803131544685002, 26.0374522435263 ], [ -108.868656454732005, 25.9064024234331 ], [ -108.929140987566001, 25.77535260334 ], [ -109.012307219202995, 25.641782594191401 ], [ -109.058011579471, 25.587896993351599 ] ] } },
{ "type": "Feature", "properties": { "nombre": "OJINAGA - EL ENCINO", "proyecto": " ", "tipo": "Gasoducto privado", "longitud_km": 220.0, "tramo": " ", "permiso": "G/13309/TRA2016", "inicio_de_": null, "zona_tarifaria": "No Aplica", "integrado_sistrangas": "No", "notas": null, "Chihuahua": "Chihuahua", "IDD": "15", "OBJECTID": 6.0, "GlobalID": "6e0f7e50-bbd1-4dd1-9ee5-1fd63774a31b", "Shape__Length": 1.8581065641543228, "source_dataset": "no_integrados_sistrangas", "capacidad": 1350.0, "inversin_m": 509.0, "empresa": "IENova", "fecha_de_i": "Marzo 2017", "observacio": "La longitud y el tramo expresados son estimados, para fines informativos y no corresponden a la ubicación exacta del gasoducto", "Id": null, "regin": null, "servicio": null, "capacida_1": null, "id": null, "tipo_capa": null, "estatus": null, "color": null, "fill_color": null, "fill_opacity": null, "line_weight": null, "dash_array": null, "descripcion": null }, "geometry": { "type": "LineString", "coordinates": [ [ -104.535315014876005, 29.673012516414499 ], [ -104.536600932987, 29.671950283079099 ], [ -104.744892072111, 29.419342399831901 ], [ -105.016826154103995, 29.2301708644939 ], [ -105.265113794965998, 29.052822549720901 ], [ -105.607987203047003, 28.875474234948101 ], [ -105.926515161146, 28.7958272663153 ], [ -106.017106999587995, 28.6422910001296 ], [ -106.017119719598995, 28.642277047148099 ] ] } },
{ "type": "Feature", "properties": { "nombre": "SAMALAYUCA - SASABE", "proyecto": " ", "tipo": "Gasoductos en construcción", "longitud_km": 650.0, "tramo": " ", "permiso": "G/20379/TRA2017", "inicio_de_": null, "zona_tarifaria": "No Aplica", "integrado_sistrangas": "No", "notas": null, "Chihuahua": "Chihuahua", "IDD": "11", "OBJECTID": 2.0, "GlobalID": "15b7e3eb-3ad9-4773-8f04-cf363dcc685f", "Shape__Length": 5.4103742250170024, "source_dataset": "no_integrados_sistrangas", "capacidad": 472.0, "inversin_m": 1269.0, "empresa": "Carso Gasoducto Norte", "fecha_de_i": "Noviembre 2017", "observacio": "La longitud y el tramo expresados son estimados, para fines informativos y no corresponden a la ubicación exacta del gasoducto", "Id": null, "regin": null, "servicio": null, "capacida_1": null, "id": null, "tipo_capa": null, "estatus": null, "color": null, "fill_color": null, "fill_opacity": null, "line_weight": null, "dash_array": null, "descripcion": null }, "geometry": { "type": "LineString", "coordinates": [ [ -111.544142412442, 31.471853712079199 ], [ -111.494892765488999, 31.2889434852537 ], [ -111.306561864239001, 31.1712366716351 ], [ -111.118702940687996, 31.093407029610798 ], [ -111.003927366555004, 31.0422233276445 ], [ -110.751110899948003, 30.919692647697602 ], [ -110.619274091226004, 30.9088354986594 ], [ -110.526875132580997, 30.9199845757277 ], [ -110.425396432398998, 30.9615702217883 ], [ -110.352498432356995, 31.0096518814292 ], [ -110.251682049587004, 31.082549881471898 ], [ -110.195773230450001, 31.1178346110785 ], [ -110.114473000328999, 31.1329030001734 ], [ -109.737137686555002, 31.0613769797638 ], [ -109.030896806642005, 31.084918342307699 ], [ -108.434515619500004, 31.0221413755241 ], [ -108.010771091012998, 31.084918342307699 ], [ -107.398695662175001, 31.0927654631557 ], [ -107.245715426125997, 31.099321759191898 ], [ -107.102571091483, 31.1417810246746 ], [ -107.052851908489004, 31.143911846854301 ], [ -106.959097221858997, 31.167783128388699 ], [ -106.908133141530996, 31.176425417199301 ], [ -106.780997360740002, 31.223188003423701 ], [ -106.698880126217006, 31.241981275615402 ], [ -106.586640362362999, 31.287486559257299 ], [ -106.541339107013997, 31.307945190618099 ], [ -106.478333330219002, 31.3413888901852 ] ] } },
{ "type": "Feature", "properties": { "nombre": "SAN ISIDRO - EL ENCINO", "proyecto": "Tarahumara Pipeline", "tipo": "Gasoducto privado", "longitud_km": 381.0, "tramo": " ", "permiso": "G/213/TRA/2008", "inicio_de_": null, "zona_tarifaria": "No Aplica", "integrado_sistrangas": "No", "notas": null, "Chihuahua": "Chihuahua", "IDD": "13", "OBJECTID": 4.0, "GlobalID": "31431421-a592-4a11-bcec-253cedf064b0", "Shape__Length": 3.0101048924667406, "source_dataset": "no_integrados_sistrangas", "capacidad": 850.0, "inversin_m": 369.0, "empresa": "Fermaca", "fecha_de_i": "Enero 2017", "observacio": "La longitud y el tramo expresados son estimados, para fines informativos y no corresponden a la ubicación exacta del gasoducto", "Id": null, "regin": null, "servicio": null, "capacida_1": null, "id": null, "tipo_capa": null, "estatus": null, "color": null, "fill_color": null, "fill_opacity": null, "line_weight": null, "dash_array": null, "descripcion": null }, "geometry": { "type": "LineString", "coordinates": [ [ -106.247619211957002, 31.542578187433399 ], [ -106.247424246131999, 31.507192245425799 ], [ -106.244802350048005, 31.491086312983001 ], [ -106.235438436235, 31.429284481094001 ], [ -106.225325408741, 31.3244086440437 ], [ -106.254769917597997, 31.166590142621001 ], [ -106.334406030514003, 30.953560321851398 ], [ -106.346098379037002, 30.902440130907401 ], [ -106.420975172666004, 30.591380598136102 ], [ -106.417805550785005, 30.315900495611501 ], [ -106.310521743883001, 30.128760691552699 ], [ -106.300137203868999, 29.952971153695799 ], [ -106.260863132927, 29.805837637796799 ], [ -106.213780407840005, 29.5625768897117 ], [ -106.143156320208007, 29.2957747799821 ], [ -106.033296627436997, 29.0368197902012 ], [ -105.978611107516997, 28.806111112837598 ], [ -106.016930999566, 28.642104999646101 ] ] } },
{ "type": "Feature", "properties": { "nombre": "SAN ISIDRO - SAMALAYUCA", "proyecto": " ", "tipo": "Gasoducto privado", "longitud_km": 23.0, "tramo": " ", "permiso": "G/13491/TRA2016", "inicio_de_": null, "zona_tarifaria": "No Aplica", "integrado_sistrangas": "No", "notas": null, "Chihuahua": "Chihuahua", "IDD": "12", "OBJECTID": 3.0, "GlobalID": "4b48bae4-ad64-4720-a07e-1b459b66c9c8", "Shape__Length": 0.30907038055689606, "source_dataset": "no_integrados_sistrangas", "capacidad": 1135.0, "inversin_m": 200.0, "empresa": "IENova", "fecha_de_i": "Enero 2017", "observacio": "La longitud y el tramo expresados son estimados, para fines informativos y no corresponden a la ubicación exacta del gasoducto", "Id": null, "regin": null, "servicio": null, "capacida_1": null, "id": null, "tipo_capa": null, "estatus": null, "color": null, "fill_color": null, "fill_opacity": null, "line_weight": null, "dash_array": null, "descripcion": null }, "geometry": { "type": "LineString", "coordinates": [ [ -106.478333330219002, 31.3413888901852 ], [ -106.377155272498001, 31.401855415894801 ], [ -106.274847409979998, 31.523998951190698 ], [ -106.268013580461997, 31.555128973923001 ] ] } },
{ "type": "Feature", "properties": { "nombre": null, "proyecto": null, "tipo": null, "longitud_km": 629.48426427486913, "tramo": null, "permiso": null, "inicio_de_": null, "zona_tarifaria": null, "integrado_sistrangas": null, "notas": null, "Chihuahua": null, "IDD": null, "OBJECTID": 1.0, "GlobalID": "75db55bf-c0a5-4086-9c13-be3b061c232c", "Shape__Length": 5.5721766956072747, "source_dataset": "pacific_limited", "capacidad": null, "inversin_m": null, "empresa": null, "fecha_de_i": null, "observacio": null, "Id": 0.0, "regin": null, "servicio": null, "capacida_1": null, "id": null, "tipo_capa": null, "estatus": null, "color": null, "fill_color": null, "fill_opacity": null, "line_weight": null, "dash_array": null, "descripcion": null }, "geometry": { "type": "LineString", "coordinates": [ [ -105.526876020312002, 30.978211580899799 ], [ -105.564049026741003, 30.940747477414199 ], [ -105.613146293466997, 30.903924526695601 ], [ -105.654060682853995, 30.863010137307999 ], [ -105.703157950478996, 30.8343700648267 ], [ -105.761314939832999, 30.793491580871802 ], [ -105.862724068461006, 30.768907041626701 ], [ -105.936369969897996, 30.752541286051599 ], [ -105.965010042380001, 30.703444019326099 ], [ -106.026381626011002, 30.625706679219899 ], [ -106.075478892736996, 30.605249484975801 ], [ -106.161399111080001, 30.576609411595101 ], [ -106.304599473487002, 30.556152217350999 ], [ -106.378245374024999, 30.539786461775901 ], [ -106.472348469706006, 30.531603583538601 ], [ -106.541902931574995, 30.515237827963499 ], [ -106.656463221500005, 30.511146389294499 ], [ -106.726017683368994, 30.486597755482101 ], [ -106.811937900813007, 30.478414877244902 ], [ -106.963321141457001, 30.441591927425598 ], [ -107.020601286420003, 30.404768976707 ], [ -107.208807476884004, 30.302483003687701 ], [ -107.245630427601995, 30.2779343698753 ], [ -107.315184889470999, 30.269751492537399 ], [ -107.507482519503, 30.2656600529691 ], [ -107.581128420040002, 30.2656600529691 ], [ -107.650682881909006, 30.249294297394002 ], [ -107.822523316797998, 30.249294297394002 ], [ -108.055735336216998, 30.224745663581601 ], [ -108.133472676322995, 30.2083799080064 ], [ -108.243941526680004, 30.179739835525002 ], [ -108.354410377937, 30.1633740799499 ], [ -108.40759908423, 30.1510997630437 ], [ -108.468970668761003, 30.1510997630437 ], [ -108.546708007967993, 30.1429168848064 ], [ -108.615087338310005, 30.096990543079102 ], [ -108.815599120502995, 30.017269004460999 ], [ -109.077339831367993, 29.910193259311502 ], [ -109.327183236417, 29.8745013436621 ], [ -109.648410472764994, 29.850706733828801 ], [ -109.862561963063996, 29.826912123995399 ], [ -110.148097283762993, 29.803117513262698 ], [ -110.516913739776996, 29.7793229034293 ], [ -110.826243670308997, 29.767425598512599 ] ] } },
{ "type": "Feature", "properties": { "nombre": "Bidireccional Cd. Juárez-Chihuahua", "proyecto": null, "tipo": null, "longitud_km": 349.1, "tramo": null, "permiso": null, "inicio_de_": null, "zona_tarifaria": null, "integrado_sistrangas": null, "notas": null, "Chihuahua": "Chihuahua", "IDD": "A", "OBJECTID": 1.0, "GlobalID": "0ad73299-5b1b-4496-b9c9-c1b5c0d792e0", "Shape__Length": 3.0994169634827182, "source_dataset": "poliductos_petroliferos", "capacidad": 25000.0, "inversin_m": null, "empresa": null, "fecha_de_i": null, "observacio": null, "Id": null, "regin": "Norte", "servicio": "Poliducto", "capacida_1": 25000.0, "id": null, "tipo_capa": null, "estatus": null, "color": null, "fill_color": null, "fill_opacity": null, "line_weight": null, "dash_array": null, "descripcion": null }, "geometry": { "type": "LineString", "coordinates": [ [ -106.478967050088997, 31.605175994876301 ], [ -106.473389952085, 31.571223211582002 ], [ -106.559650823726002, 30.449831871243902 ], [ -106.340740411640994, 29.719337342344499 ], [ -106.043307786024997, 28.7247226421363 ], [ -105.984992098706002, 28.597908898676799 ] ] } },
{ "type": "Feature", "properties": { "nombre": "Bidireccional Gómez Palacio-Chihuahua", "proyecto": null, "tipo": null, "longitud_km": 433.5, "tramo": null, "permiso": null, "inicio_de_": null, "zona_tarifaria": null, "integrado_sistrangas": null, "notas": null, "Chihuahua": "Chihuahua", "IDD": "C", "OBJECTID": 5.0, "GlobalID": "98d34cc0-3aee-49d2-9e08-9cfe1b55fd61", "Shape__Length": 4.0470210847626662, "source_dataset": "poliductos_petroliferos", "capacidad": 23000.0, "inversin_m": null, "empresa": null, "fecha_de_i": null, "observacio": null, "Id": null, "regin": "Norte", "servicio": "Poliducto", "capacida_1": 22000.0, "id": null, "tipo_capa": null, "estatus": null, "color": null, "fill_color": null, "fill_opacity": null, "line_weight": null, "dash_array": null, "descripcion": null }, "geometry": { "type": "LineString", "coordinates": [ [ -103.468209723699999, 25.562891049782198 ], [ -103.525449532270002, 25.622200701101502 ], [ -103.598808977152999, 25.757756195691901 ], [ -103.763476536312993, 26.036194067702102 ], [ -104.023950674383997, 26.2667286507067 ], [ -104.311370412914002, 26.575106078682602 ], [ -104.449092370716002, 26.712828037384 ], [ -104.958064825731, 27.1020422667373 ], [ -105.260454342694004, 27.491256496989799 ], [ -105.47302519086, 27.754724590567399 ], [ -105.607753194054993, 27.883464681849699 ], [ -105.748469108262995, 28.009210817625199 ], [ -105.802360309180997, 28.0750778405699 ], [ -106.029900934880004, 28.4822558047616 ], [ -105.984992098706002, 28.597908898676799 ] ] } },
{ "type": "Feature", "properties": { "nombre": "Poliducto El Paso-Cd. Juárez", "proyecto": null, "tipo": null, "longitud_km": 28.7, "tramo": null, "permiso": null, "inicio_de_": null, "zona_tarifaria": null, "integrado_sistrangas": null, "notas": null, "Chihuahua": " ", "IDD": " ", "OBJECTID": 2.0, "GlobalID": "4e5a7148-9bd5-4d1e-b940-77b570bd5721", "Shape__Length": 0.30216055634136407, "source_dataset": "poliductos_petroliferos", "capacidad": 31000.0, "inversin_m": null, "empresa": null, "fecha_de_i": null, "observacio": null, "Id": null, "regin": "Norte", "servicio": "Poliducto", "capacida_1": 31000.0, "id": null, "tipo_capa": null, "estatus": null, "color": null, "fill_color": null, "fill_opacity": null, "line_weight": null, "dash_array": null, "descripcion": null }, "geometry": { "type": "LineString", "coordinates": [ [ -106.478967050088997, 31.605175994876301 ], [ -106.506778548390997, 31.906053914256798 ] ] } },
{ "type": "Feature", "properties": { "nombre": "Poliducto Frontera-Cd. Juárez", "proyecto": null, "tipo": null, "longitud_km": 32.0, "tramo": null, "permiso": null, "inicio_de_": null, "zona_tarifaria": null, "integrado_sistrangas": null, "notas": null, "Chihuahua": " ", "IDD": " ", "OBJECTID": 3.0, "GlobalID": "5ac4a93c-fdf6-40ea-8d06-d00b07e3b142", "Shape__Length": 0.3098067956410675, "source_dataset": "poliductos_petroliferos", "capacidad": 45000.0, "inversin_m": null, "empresa": null, "fecha_de_i": null, "observacio": null, "Id": null, "regin": "Norte", "servicio": "Poliducto", "capacida_1": 0.0, "id": null, "tipo_capa": null, "estatus": null, "color": null, "fill_color": null, "fill_opacity": null, "line_weight": null, "dash_array": null, "descripcion": null }, "geometry": { "type": "LineString", "coordinates": [ [ -106.478967050088997, 31.605175994876301 ], [ -106.398926851092995, 31.904464847274902 ] ] } },
{ "type": "Feature", "properties": { "nombre": "Poliducto Gómez Palacio-Chihuahua", "proyecto": null, "tipo": null, "longitud_km": 433.7, "tramo": null, "permiso": null, "inicio_de_": null, "zona_tarifaria": null, "integrado_sistrangas": null, "notas": null, "Chihuahua": "Chihuahua", "IDD": "B", "OBJECTID": 4.0, "GlobalID": "3435f66d-654b-4369-94e1-c2d72435dbda", "Shape__Length": 4.0254831719389328, "source_dataset": "poliductos_petroliferos", "capacidad": 17000.0, "inversin_m": null, "empresa": null, "fecha_de_i": null, "observacio": null, "Id": null, "regin": "Norte", "servicio": "Poliducto", "capacida_1": 17000.0, "id": null, "tipo_capa": null, "estatus": null, "color": null, "fill_color": null, "fill_opacity": null, "line_weight": null, "dash_array": null, "descripcion": null }, "geometry": { "type": "LineString", "coordinates": [ [ -105.984992098706002, 28.597908898676799 ], [ -106.002955335319996, 28.4762678937483 ], [ -105.781402618835997, 28.0810657533818 ], [ -105.745475151856994, 28.0331624625776 ], [ -105.613741105068002, 27.919392148828599 ], [ -105.476019147266001, 27.790652058445801 ], [ -105.146684028945003, 27.377486183240801 ], [ -104.946089002804996, 27.117012045169801 ], [ -104.760463755098002, 26.9673142644418 ], [ -104.440110505096001, 26.727797814917299 ], [ -104.206581966583997, 26.497263232811999 ], [ -104.026944629891005, 26.287686340152501 ], [ -103.817367737230995, 26.1140369135728 ], [ -103.758601208079, 26.057229268815799 ], [ -103.468209723699999, 25.562891049782198 ] ] } }
]
}
