{"type": "FeatureCollection", "name": "fish_zones_sample", "features": [{"type": "Feature", "properties": {"sitio": "SFE", "total_records": 634, "critical_species": 8, "all_species": 20, "habitat": "arena"}, "geometry": {"type": "MultiPolygon", "coordinates": [[[[-114.816137893, 31.1805631605], [-114.8280747158, 31.1765446944], [-114.8378698399, 31.1766743738], [-114.8455242405, 31.1809525677], [-114.8482552834, 31.1873812248], [-114.8527025229, 31.1954476945], [-114.8557039407, 31.2093796071], [-114.8562434019, 31.2243863914], [-114.8543200225, 31.2404679486], [-114.8513281533, 31.2561886979], [-114.8468481289, 31.2724660459], [-114.8402368522, 31.2831540749], [-114.8347451795, 31.2897726014], [-114.8274900614, 31.2943140756], [-114.8213484976, 31.2996544268], [-114.8140007067, 31.3033172706], [-114.8038673501, 31.3049814045], [-114.7934593497, 31.3040110941], [-114.7852421766, 31.2993321243], [-114.7781939255, 31.2910231288], [-114.7729174183, 31.2799228335], [-114.7701061633, 31.2677480554], [-114.7718949687, 31.2552200933], [-114.7733549393, 31.244487103], [-114.7764477474, 31.2296454053], [-114.782048576, 31.2141678399], [-114.7903391065, 31.1998104505], [-114.8005713463, 31.1892861718], [-114.816137893, 31.1805631605]]]]}}, {"type": "Feature", "properties": {"sitio": "BKI", "total_records": 801, "critical_species": 6, "all_species": 23, "habitat": "arena"}, "geometry": {"type": "MultiPolygon", "coordinates": [[[[-112.555785594, 28.8888689666], [-112.5563265793, 28.8885023105], [-112.5571327017, 28.8881951917], [-112.5584122539, 28.8879412511], [-112.5588131194, 28.8876410662], [-112.5591472265, 28.8873980546], [-112.5599542408, 28.8871518229], [-112.5609663619, 28.8870791856], [-112.5619832905, 28.8873065455], [-112.5621226261, 28.8876027334], [-112.5623343079, 28.8881936312], [-112.5626826613, 28.8889025147], [-112.5626969177, 28.8898544193], [-112.5634470205, 28.890321751], [-112.5636468348, 28.8901412013], [-112.5639074357, 28.8894839107], [-112.5642981298, 28.8885273053], [-112.5642767595, 28.8871017053], [-112.5643354325, 28.8865054168], [-112.5648029609, 28.8861435259], [-112.5652010941, 28.885662866], [-112.5660685365, 28.8849398632], [-112.5668043266, 28.8844552741], [-112.5677515268, 28.8845638287], [-112.5685622736, 28.8844437688], [-112.5702356094, 28.8852350509], [-112.5719665254, 28.8877917424], [-112.5726023175, 28.8917541719], [-112.5710151687, 28.8945264699], [-112.5681322222, 28.8963152681], [-112.564663126, 28.8965405982], [-112.5606525098, 28.8957333601], [-112.5574579339, 28.8938054174], [-112.5562860433, 28.8906785088], [-112.555785594, 28.8888689666]]]]}}, {"type": "Feature", "properties": {"sitio": "GSC", "total_records": 740, "critical_species": 4, "all_species": 11, "habitat": "arena"}, "geometry": {"type": "MultiPolygon", "coordinates": [[[[-114.3653985618, 31.5673233186], [-114.3892236096, 31.5573813819], [-114.4045533629, 31.5578793237], [-114.4216124571, 31.5691501815], [-114.4225170193, 31.5843464363], [-114.410779699, 31.6004812422], [-114.4031395382, 31.6005032691], [-114.390855546, 31.5986889401], [-114.370385395, 31.5914838931], [-114.3631359724, 31.5827537711], [-114.3653985618, 31.5673233186]]]]}}, {"type": "Feature", "properties": {"sitio": "PLI", "total_records": 342, "critical_species": 4, "all_species": 17, "habitat": "arrecife"}, "geometry": {"type": "MultiPolygon", "coordinates": [[[[-113.3616991248, 29.3656001013], [-113.363872851, 29.3654489238], [-113.3644178944, 29.3656666536], [-113.3639332597, 29.3664078012], [-113.362315194, 29.3713691931], [-113.3597783941, 29.3740702065], [-113.3564016158, 29.3779243493], [-113.3538470332, 29.3798666947], [-113.3536023163, 29.380932219], [-113.3512923512, 29.381808997], [-113.3505134615, 29.3856171365], [-113.3584225942, 29.3904100719], [-113.3588725118, 29.3906357784], [-113.3626913167, 29.3969722404], [-113.3620802651, 29.3986928987], [-113.3622478439, 29.3989721069], [-113.3606214415, 29.3989665211], [-113.3554704593, 29.3964505022], [-113.3491810657, 29.3904208701], [-113.3439577726, 29.3840774587], [-113.341853418, 29.3789544193], [-113.3404219009, 29.3752216648], [-113.3408925916, 29.3713568572], [-113.3496226556, 29.3681160469], [-113.3616991248, 29.3656001013]]]]}}, {"type": "Feature", "properties": {"sitio": "DDS", "total_records": 136, "critical_species": 3, "all_species": 14, "habitat": "arena (corrida)"}, "geometry": {"type": "MultiPolygon", "coordinates": [[[[-112.4573899101, 29.2605364258], [-112.459381998, 29.2604088162], [-112.4624729833, 29.2619759755], [-112.464900363, 29.2641047909], [-112.4650376661, 29.26453919], [-112.4655581959, 29.2648933082], [-112.4657326387, 29.2653580621], [-112.465895453, 29.2657918307], [-112.4668911085, 29.2666768985], [-112.4671064122, 29.2692589667], [-112.466976948, 29.2719669572], [-112.4659712125, 29.2741081005], [-112.4639052367, 29.2763171725], [-112.4603308696, 29.2774806799], [-112.4579231914, 29.2770119012], [-112.4577138984, 29.2768195514], [-112.4576703773, 29.2768204273], [-112.4576141476, 29.2767925218], [-112.4571088066, 29.2765417283], [-112.4558173141, 29.2759007683], [-112.4536684668, 29.2742731954], [-112.4535164282, 29.273848265], [-112.451628873, 29.2725347659], [-112.4503451215, 29.2699172668], [-112.4501387591, 29.2674384641], [-112.4512539027, 29.2651865669], [-112.4531677275, 29.2625720105], [-112.4557736313, 29.2611591217], [-112.456157028, 29.2610106262], [-112.4573796308, 29.2605370842], [-112.4573899101, 29.2605364258]]]]}}, {"type": "Feature", "properties": {"sitio": "SLG", "total_records": 113, "critical_species": 3, "all_species": 10, "habitat": "arena"}, "geometry": {"type": "MultiPolygon", "coordinates": [[[[-114.8478702721, 31.2787698285], [-114.8557710773, 31.2781601183], [-114.8587834821, 31.2815758069], [-114.8614114039, 31.2863891984], [-114.8607368023, 31.2900894732], [-114.8612578303, 31.2950654426], [-114.8552677669, 31.2987199235], [-114.8489460729, 31.2992076766], [-114.8472710039, 31.2984248666], [-114.8428673289, 31.2969404208], [-114.8414826498, 31.2938551113], [-114.8409151352, 31.2884266967], [-114.8441294649, 31.2836186389], [-114.8478702721, 31.2787698285]]]]}}, {"type": "Feature", "properties": {"sitio": "PPE", "total_records": 636, "critical_species": 2, "all_species": 20, "habitat": "arena"}, "geometry": {"type": "MultiPolygon", "coordinates": [[[[-114.4200317275, 31.1971364307], [-114.4118172817, 31.1818246393], [-114.4070977603, 31.1350360989], [-114.4018175069, 31.0532394114], [-114.4006169205, 31.0119087801], [-114.4033676994, 30.9951340551], [-114.4244389333, 30.983999207], [-114.44917695, 30.9725861889], [-114.4782848695, 30.9678515043], [-114.4910845006, 30.9700757863], [-114.5057174626, 30.997655056], [-114.5141051298, 31.0365360122], [-114.5140484397, 31.1015367094], [-114.5076355573, 31.118585232], [-114.4917064062, 31.1586456553], [-114.4832445389, 31.1847625279], [-114.4730475606, 31.1938083152], [-114.4446538499, 31.2061257027], [-114.4260104256, 31.2049707764], [-114.4200317275, 31.1971364307]]]]}}, {"type": "Feature", "properties": {"sitio": "PLO", "total_records": 170, "critical_species": 2, "all_species": 15, "habitat": "arrecife"}, "geometry": {"type": "MultiPolygon", "coordinates": [[[[-112.9170446985, 30.4559081126], [-112.902055549, 30.4442925336], [-112.8944580547, 30.4306754387], [-112.9014616294, 30.4110520191], [-112.9190887943, 30.3998021122], [-112.9437339405, 30.4022048444], [-112.9702882621, 30.4196053738], [-112.9769120581, 30.4418567442], [-112.9702755676, 30.458937169], [-112.9532233386, 30.470152634], [-112.9327037327, 30.4684862876], [-112.9170446985, 30.4559081126]]]]}}, {"type": "Feature", "properties": {"sitio": "DDC", "total_records": 160, "critical_species": 2, "all_species": 11, "habitat": "arena"}, "geometry": {"type": "MultiPolygon", "coordinates": [[[[-113.0675850224, 30.5587590955], [-113.0582301332, 30.5717980856], [-113.045213806, 30.5759778371], [-113.0274412653, 30.5697158448], [-113.0215897172, 30.557692781], [-113.0223928712, 30.5452258302], [-113.0326266687, 30.531301921], [-113.0555092699, 30.5306011148], [-113.069040033, 30.5429376306], [-113.0675850224, 30.5587590955]]]]}}, {"type": "Feature", "properties": {"sitio": "EBA", "total_records": 56, "critical_species": 2, "all_species": 8, "habitat": "varios"}, "geometry": {"type": "MultiPolygon", "coordinates": [[[[-112.2915306379, 28.3904507837], [-112.286058241, 28.3857354158], [-112.2879530565, 28.3777389331], [-112.2873619321, 28.370462903], [-112.2888965144, 28.3658646473], [-112.2949967147, 28.3626637883], [-112.3044424402, 28.3615001107], [-112.3124911152, 28.366613503], [-112.3185508503, 28.3707281034], [-112.3233909974, 28.3754828478], [-112.3257458193, 28.3809585707], [-112.3261566102, 28.3859956471], [-112.3209626941, 28.3925152268], [-112.3148617145, 28.3957169056], [-112.3059553385, 28.3957214987], [-112.2969123976, 28.3940465843], [-112.2915306379, 28.3904507837]], [[-112.3068555801, 28.3862393903], [-112.3069251582, 28.3858437756], [-112.3073725111, 28.38590531], [-112.3076653611, 28.3855075482], [-112.3076613202, 28.3851784619], [-112.3076596334, 28.3850411061], [-112.3081078601, 28.3851741788], [-112.3087768624, 28.3851019262], [-112.3091441239, 28.3847034512], [-112.3091384651, 28.3842427292], [-112.3095089608, 28.3841075203], [-112.3098891633, 28.3847621121], [-112.3103357013, 28.3847578183], [-112.3110030794, 28.3845539251], [-112.3110734521, 28.3842241244], [-112.3112190571, 28.3839594241], [-112.3120377022, 28.3839515437], [-112.3121096928, 28.3837533737], [-112.3124842371, 28.3839472413], [-112.3125635237, 28.3843414245], [-112.3127156118, 28.3846032604], [-112.3127965226, 28.3851290788], [-112.3128013851, 28.3855239807], [-112.3130990817, 28.3855211107], [-112.3133935273, 28.3852549737], [-112.3135383199, 28.3849244559], [-112.3140584654, 28.3848536132], [-112.3143529126, 28.3845874747], [-112.3144240857, 28.3843234875], [-112.314492825, 28.3838620537], [-112.3144135316, 28.3834678702], [-112.3141853977, 28.3830751202], [-112.3141052927, 28.3826151203], [-112.3148495087, 28.3826079429], [-112.3152952238, 28.3825378125], [-112.3155912796, 28.3824033067], [-112.3158104829, 28.3820720648], [-112.3157319977, 28.3817437014], [-112.3157303718, 28.3816120659], [-112.316025615, 28.3814117421], [-112.3165424924, 28.3810776233], [-112.316842616, 28.3812721991], [-112.3171346022, 28.3808086054], [-112.3167584344, 28.3804831153], [-112.3166815785, 28.3802863835], [-112.3167503025, 28.3798249487], [-112.3171968183, 28.37982063], [-112.317276118, 28.3802148135], [-112.3175762403, 28.3804093837], [-112.3179458955, 28.3802083354], [-112.3179410133, 28.3798134341], [-112.3183147383, 28.3799414699], [-112.3184692765, 28.3804007468], [-112.3186213705, 28.3806625726], [-112.3189942872, 28.3807247895], [-112.3192870769, 28.3803270077], [-112.3195847557, 28.3803241225], [-112.3198031243, 28.379927062], [-112.3194277693, 28.3796673973], [-112.3188316006, 28.3796073432], [-112.3185322946, 28.3794785911], [-112.3183761299, 28.3788876801], [-112.317999968, 28.3785621953], [-112.3174078749, 28.3788312207], [-112.3170349687, 28.3787689996], [-112.3171813626, 28.3785701119], [-112.317551014, 28.3783690629], [-112.3175461322, 28.3779741614], [-112.317690086, 28.3775778227], [-112.3176745033, 28.3775126186], [-112.3177407815, 28.3774593536], [-112.3179341629, 28.3774311248], [-112.3179769119, 28.3772725505], [-112.3179294407, 28.3770489486], [-112.3179877386, 28.3769429403], [-112.3182112462, 28.3769407813], [-112.3184491673, 28.3768989397], [-112.3185366137, 28.3767399314], [-112.3185056734, 28.3766479696], [-112.318548744, 28.3765157506], [-112.3185330266, 28.3764500031], [-112.3187118339, 28.3764482736], [-112.3188305491, 28.3764075857], [-112.3188140169, 28.3762759419], [-112.3188692159, 28.3759195454], [-112.3190776596, 28.3759043482], [-112.3190916425, 28.374625745], [-112.318882874, 28.3746145831], [-112.3185552334, 28.374630934], [-112.3183616929, 28.3746459892], [-112.3182424885, 28.3746471397], [-112.3182146447, 28.3748055704], [-112.3182028416, 28.3750561072], [-112.3182365543, 28.3753721027], [-112.3182688, 28.3755694946], [-112.318239978, 28.3756488543], [-112.3180912975, 28.3756766527], [-112.3178974314, 28.3756653453], [-112.3177184604, 28.3756538959], [-112.3176744127, 28.3757070449], [-112.3176473807, 28.3759313672], [-112.3176797893, 28.3761419362], [-112.3176828837, 28.3763923249], [-112.3176897284, 28.3769458225], [-112.31742184, 28.3769747746], [-112.3173777904, 28.3770279199], [-112.317272123, 28.3772527406], [-112.3167185928, 28.3772580895], [-112.3159, 28.3772659958], [-112.3156015168, 28.3772030542], [-112.3152269921, 28.377009195], [-112.3144820081, 28.376950558], [-112.314035502, 28.3769548656], [-112.3139554058, 28.3764948653], [-112.3137281002, 28.3761679328], [-112.313131145, 28.3760420369], [-112.3128359096, 28.3762423563], [-112.312611847, 28.3761786897], [-112.3125293258, 28.3755212335], [-112.3125236509, 28.3750605158], [-112.3123740105, 28.3749961337], [-112.3119267031, 28.3749346151], [-112.3113305681, 28.3748745288], [-112.3108832607, 28.3748130074], [-112.31036073, 28.3746863825], [-112.3099118093, 28.3744932245], [-112.309610913, 28.3742328163], [-112.3093844301, 28.3739716944], [-112.3091579519, 28.3737105682], [-112.3091571445, 28.3736447503], [-112.3086330073, 28.3733864855], [-112.3082609323, 28.3733900605], [-112.3075895804, 28.3732648527], [-112.306993455, 28.3732047467], [-112.3066925677, 28.3729443325], [-112.3064709346, 28.3730781053], [-112.3061012818, 28.3732791262], [-112.3059492253, 28.3730172826], [-112.3064652869, 28.3726173852], [-112.3060131576, 28.3721609463], [-112.3057146942, 28.3720979785], [-112.305415427, 28.3719691965], [-112.3051954051, 28.3722346057], [-112.30504819, 28.3723676632], [-112.3048265565, 28.3725014375], [-112.3043072634, 28.3726380573], [-112.3040079964, 28.3725092728], [-112.3036335109, 28.3723153776], [-112.3033342412, 28.3721865921], [-112.3031077828, 28.3719254564], [-112.3028069065, 28.3716650344], [-112.3025828607, 28.3716013496], [-112.3022099868, 28.3715390898], [-112.3019083145, 28.3712128449], [-112.3016826594, 28.371017528], [-112.3016050332, 28.3707549684], [-112.3014513874, 28.3703614835], [-112.3012265417, 28.3702319829], [-112.3010777156, 28.3702334036], [-112.300783273, 28.3704995135], [-112.3007358078, 28.3706755006], [-112.3005640506, 28.3708307314], [-112.3003979094, 28.3708568524], [-112.300422937, 28.37069545], [-112.2991080603, 28.3706920581], [-112.2989820924, 28.3707012249], [-112.2989563413, 28.3708050181], [-112.2989853927, 28.3709720157], [-112.2987059572, 28.3709507828], [-112.298736269, 28.3712213178], [-112.2991767503, 28.3712343008], [-112.2992350297, 28.3716991339], [-112.2991630221, 28.371897295], [-112.298943792, 28.3722285091], [-112.2991718468, 28.3726212857], [-112.2993230815, 28.3728173191], [-112.2994023088, 28.373211513], [-112.2988822058, 28.3732822955], [-112.2987397886, 28.3738102542], [-112.2988198208, 28.3742702654], [-112.2993407302, 28.3742653012], [-112.2997192305, 28.3747882937], [-112.2997312677, 28.3757755518], [-112.2997368833, 28.3762362747], [-112.2994432265, 28.3765681998], [-112.2991487672, 28.3768343084], [-112.2989279204, 28.3770338867], [-112.2985606401, 28.377432336], [-112.2983389909, 28.3775661003], [-112.2981181388, 28.3777656811], [-112.2979701042, 28.3778329148], [-112.297601217, 28.3780997291], [-112.2973043422, 28.3781683798], [-112.2967858148, 28.3783707919], [-112.2965657626, 28.3786361857], [-112.2959007931, 28.379037461], [-112.296057633, 28.3796942185], [-112.2959127934, 28.3800247202], [-112.2957695573, 28.3804868587], [-112.2958487789, 28.3808810566], [-112.2959288005, 28.3813410715], [-112.2964521486, 28.3815335647], [-112.2963857353, 28.3821924463], [-112.2963953468, 28.3829822554], [-112.2961016579, 28.3833141758], [-112.2962577088, 28.3839051158], [-112.2965578045, 28.3840997348], [-112.2966378309, 28.3845597495], [-112.296719464, 28.3851513962], [-112.2972412317, 28.3852122538], [-112.2982087386, 28.3852030372], [-112.2991786514, 28.3853912667], [-112.2994763446, 28.3853884291], [-112.2999269012, 28.3857132543], [-112.300302236, 28.3859729723], [-112.3006759619, 28.3861010538], [-112.3011225053, 28.3860967899], [-112.3015698565, 28.3861583438], [-112.3016491037, 28.386552535], [-112.3025421966, 28.3865439996], [-112.3032888575, 28.3867343324], [-112.303367306, 28.3870627069], [-112.3034489805, 28.3876543499], [-112.3038979467, 28.3878475282], [-112.304197258, 28.3879763101], [-112.3044237571, 28.388237444], [-112.3047991113, 28.3884971467], [-112.3051720446, 28.3885593982], [-112.3054713591, 28.3886881812], [-112.306072415, 28.3891431935], [-112.3063668929, 28.3888770703], [-112.3066605594, 28.3885451312], [-112.3068798007, 28.3882139045], [-112.3066524874, 28.3878869587], [-112.3064979863, 28.3874276678], [-112.306416298, 28.3868360297], [-112.306487493, 28.3865720467], [-112.3068555801, 28.3862393903]], [[-112.2962835928, 28.3852073343], [-112.2956901129, 28.3851891324], [-112.2957466499, 28.3854032242], [-112.2953969989, 28.3854780925], [-112.2953819217, 28.3864559985], [-112.2958675527, 28.3864752266], [-112.2959962808, 28.3859732004], [-112.2959959908, 28.3859493557], [-112.2963459326, 28.3858983272], [-112.2962835928, 28.3852073343]], [[-112.2978173895, 28.3704574271], [-112.297814386, 28.3702105308], [-112.2978684142, 28.370210014], [-112.2980124853, 28.3702086431], [-112.2980750365, 28.3701682213], [-112.2980922694, 28.3701043327], [-112.298089261, 28.369857433], [-112.2980880974, 28.3697618617], [-112.2980692168, 28.3696903523], [-112.2980421077, 28.3696826435], [-112.2979431534, 28.3696915529], [-112.2978080844, 28.3696928387], [-112.2977987888, 28.3696690325], [-112.2977979144, 28.3695973527], [-112.2977874562, 28.3694779706], [-112.2977689613, 28.3694383189], [-112.2976426082, 28.3694156278], [-112.2975618576, 28.3694402926], [-112.2975075394, 28.3694169133], [-112.2974971779, 28.3693054965], [-112.2974955307, 28.3691700983], [-112.2972073871, 28.3691728429], [-112.2972375998, 28.3694354136], [-112.2969316379, 28.3694542562], [-112.296946551, 28.3699400022], [-112.2972351834, 28.3699770837], [-112.2972500012, 28.3704548639], [-112.2978173895, 28.3704574271]], [[-112.2995014859, 28.3658006583], [-112.2995016876, 28.3655504083], [-112.2997942198, 28.3655389895], [-112.2997879439, 28.3650241763], [-112.2989197934, 28.3650324509], [-112.2989196623, 28.3655559576], [-112.299212338, 28.3655560435], [-112.2992121699, 28.3658091691], [-112.2995014859, 28.3658006583]]]]}}, {"type": "Feature", "properties": {"sitio": "BDA", "total_records": 173, "critical_species": 1, "all_species": 8, "habitat": "arrecife y arena"}, "geometry": {"type": "MultiPolygon", "coordinates": [[[[-113.5192225988, 29.0474818392], [-113.5275431413, 29.046523675], [-113.5353848458, 29.0540959179], [-113.5384839068, 29.0649591608], [-113.5436858818, 29.0712401562], [-113.5453774016, 29.0759227023], [-113.5466716681, 29.0854356972], [-113.5427629616, 29.0886679319], [-113.5364953034, 29.0891118554], [-113.5340019512, 29.0848555187], [-113.5286652626, 29.0771062587], [-113.5238956591, 29.0663613075], [-113.5183922591, 29.0567762252], [-113.5192225988, 29.0474818392]]]]}}, {"type": "Feature", "properties": {"sitio": "SJO", "total_records": 171, "critical_species": 1, "all_species": 3, "habitat": "arena"}, "geometry": {"type": "MultiPolygon", "coordinates": [[[[-113.100167855, 30.8991926564], [-113.1001708413, 30.8989117873], [-113.1002320059, 30.8983632576], [-113.1003885961, 30.897946735], [-113.1006064786, 30.8969697497], [-113.1007072097, 30.8966025397], [-113.1007964156, 30.8960184199], [-113.100860744, 30.8951715471], [-113.1009839509, 30.8939909547], [-113.1010307731, 30.893490051], [-113.1011619754, 30.8928585125], [-113.1013053562, 30.8923822189], [-113.1014242456, 30.8916073699], [-113.1014236118, 30.891600276], [-113.101583103, 30.8909092765], [-113.1017158198, 30.8901345341], [-113.1018754374, 30.8894316012], [-113.1020515415, 30.8884781651], [-113.1022131814, 30.8875842952], [-113.1023867455, 30.8868695359], [-113.1025455931, 30.886238205], [-113.1026048298, 30.8858696781], [-113.1026508802, 30.8854403805], [-113.1026957916, 30.8851184832], [-113.102840043, 30.8845586529], [-113.102997874, 30.8840227929], [-113.1032406919, 30.8832976217], [-113.103371743, 30.8826780144], [-113.1035314659, 30.8819631465], [-113.1036041569, 30.8816295282], [-113.1037192224, 30.881212689], [-113.1038622008, 30.8807721895], [-113.1039221766, 30.880333061], [-113.1040967328, 30.8795228291], [-113.1042561944, 30.8788318282], [-113.1043614721, 30.8780330061], [-113.1044794387, 30.8773416873], [-113.104637755, 30.8767580926], [-113.1047963221, 30.8761506282], [-113.104941186, 30.8755311217], [-113.1049994303, 30.8750193706], [-113.1050596763, 30.8745543768], [-113.105103564, 30.8743279513], [-113.1052738024, 30.8739234626], [-113.1053604392, 30.8735780153], [-113.1055474114, 30.8728991591], [-113.1057209136, 30.8721863918], [-113.105853453, 30.8714235786], [-113.1059705214, 30.8708157948], [-113.1060738851, 30.8701959762], [-113.1061494668, 30.8695878799], [-113.1063224762, 30.8689208496], [-113.1064815269, 30.8682656471], [-113.106628874, 30.8674094668], [-113.1067466895, 30.8667300821], [-113.1068792177, 30.8659672678], [-113.1070229217, 30.8654551655], [-113.1072812769, 30.8645620236], [-113.1075386207, 30.8637643483], [-113.107699041, 30.8629778732], [-113.1076916128, 30.862971885], [-113.1078648544, 30.8622809863], [-113.1079959804, 30.8616494415], [-113.1081401747, 30.8610896036], [-113.1082849992, 30.860470097], [-113.1084868936, 30.8596839354], [-113.1086164978, 30.8591955958], [-113.1087765327, 30.8584449198], [-113.1089068916, 30.857884978], [-113.1090406533, 30.8570028242], [-113.1091266411, 30.8564803451], [-113.1093022553, 30.8555627028], [-113.1095195943, 30.8546215081], [-113.1096496977, 30.8540854311], [-113.1096659165, 30.8538587969], [-113.1098770765, 30.8535023517], [-113.1098632516, 30.8535022491], [-113.1100078071, 30.8529066076], [-113.1102240001, 30.8520728155], [-113.11043793, 30.8514538278], [-113.1105400961, 30.8509434059], [-113.1106427894, 30.8503832527], [-113.1107473689, 30.8496440947], [-113.1108509407, 30.8490004033], [-113.1110260253, 30.8481304943], [-113.1111744677, 30.8471649033], [-113.1112623212, 30.8467001161], [-113.1113760408, 30.8464046051], [-113.111378938, 30.8461301298], [-113.1113720301, 30.8454736693], [-113.1113762402, 30.8453892218], [-113.1132999187, 30.8451645188], [-113.1458508225, 30.8442049597], [-113.1668475957, 30.8449354946], [-113.1722521176, 30.8497752188], [-113.1731550317, 30.859754179], [-113.1739809954, 30.86888106], [-113.1750549306, 30.8807456953], [-113.1747954074, 30.889639144], [-113.173805279, 30.9022236551], [-113.1746315745, 30.9113495801], [-113.1749949681, 30.9192822993], [-113.1760913012, 30.9353060145], [-113.1766699685, 30.941693657], [-113.1763055424, 30.953346991], [-113.1773804345, 30.965209134], [-113.1781247116, 30.9734211796], [-113.1755262814, 30.9878554272], [-113.175139349, 31.0031806806], [-113.1748297318, 31.0154404594], [-113.1781065666, 31.0280706082], [-113.1796237301, 31.0408798844], [-113.1801754852, 31.0469617379], [-113.1814613011, 31.0533000734], [-113.1858547626, 31.0664657502], [-113.1887750493, 31.0751412074], [-113.190558808, 31.0869521093], [-113.1932094807, 31.0965629626], [-113.200338637, 31.1085028403], [-113.2013280647, 31.115471899], [-113.2022020805, 31.125079268], [-113.2055613555, 31.1346414045], [-113.2120257369, 31.1470528402], [-113.2153929793, 31.1605900528], [-113.2202792434, 31.1712716933], [-113.2184485421, 31.1824057477], [-113.214406192, 31.1887949903], [-113.2137062872, 31.1910136034], [-113.2107133471, 31.1912151633], [-113.1993704994, 31.1916727159], [-113.1894638554, 31.1883629393], [-113.1817013545, 31.1812384947], [-113.1741723305, 31.1649224479], [-113.1698897153, 31.15300619], [-113.1658759095, 31.1401232804], [-113.1613165965, 31.1251353303], [-113.1582773175, 31.1072917572], [-113.149663926, 31.0867620722], [-113.1453655373, 31.0706837091], [-113.1432056084, 31.0585914226], [-113.136395524, 31.0422212474], [-113.1334207852, 31.0289588495], [-113.131235298, 31.0165610213], [-113.1232637943, 31.0030203872], [-113.1217894444, 30.9945518286], [-113.1144716015, 30.9803544614], [-113.1137041036, 30.9718381133], [-113.1108600266, 30.9639195168], [-113.108434581, 30.9527596854], [-113.107202098, 30.9390716296], [-113.1059151292, 30.924774708], [-113.1049021932, 30.9135193244], [-113.1039715494, 30.9031762548], [-113.100167855, 30.8991926564]]]]}}, {"type": "Feature", "properties": {"sitio": "PCH", "total_records": 53, "critical_species": 1, "all_species": 7, "habitat": "arena"}, "geometry": {"type": "MultiPolygon", "coordinates": [[[[-112.2255527122, 29.2512310879], [-112.2245768789, 29.2434638683], [-112.2297245787, 29.2350117996], [-112.2371889638, 29.2255107911], [-112.2512383007, 29.2168001608], [-112.2658719952, 29.2110624742], [-112.2795798274, 29.210801832], [-112.280856568, 29.2119561763], [-112.2807406414, 29.2122244259], [-112.2812880106, 29.2130449296], [-112.281365434, 29.2138676775], [-112.2805720736, 29.214876996], [-112.2798612441, 29.2171218817], [-112.2794790049, 29.2187770269], [-112.2805161085, 29.2211811638], [-112.2807359856, 29.2226523128], [-112.2814243539, 29.2239993974], [-112.282497937, 29.2239304495], [-112.2832341322, 29.2237474111], [-112.2834342232, 29.2236281725], [-112.283553149, 29.2223884164], [-112.284769162, 29.2229655925], [-112.2848334176, 29.2227303379], [-112.2853055799, 29.2229017801], [-112.2857748141, 29.2228386107], [-112.2863658985, 29.221772548], [-112.2868365921, 29.2218266805], [-112.2871112211, 29.2222955683], [-112.2869834818, 29.2228269881], [-112.2862499394, 29.2232469146], [-112.2865260354, 29.2238331084], [-112.2863266799, 29.2240110038], [-112.2864669429, 29.2244811853], [-112.2870055959, 29.2245955782], [-112.2867486168, 29.2255388555], [-112.2856012132, 29.2250783577], [-112.283467277, 29.2262788064], [-112.2804699877, 29.22825006], [-112.2796677325, 29.2285532908], [-112.2780759402, 29.2301590829], [-112.2777517051, 29.231105243], [-112.2768912844, 29.2321129251], [-112.2761554519, 29.2323568425], [-112.2748140608, 29.2324869542], [-112.2736892468, 29.2338536054], [-112.2739751784, 29.2352632193], [-112.2737826926, 29.2359734777], [-112.2715066978, 29.2365839867], [-112.2709059021, 29.2368829947], [-112.2707773393, 29.2373557479], [-112.2709175521, 29.2378259465], [-112.2718656313, 29.2384644417], [-112.27307449, 29.2384529387], [-112.2740861499, 29.2387975155], [-112.274092717, 29.2393276432], [-112.2719532174, 29.2401128392], [-112.2711566702, 29.2408874978], [-112.269556538, 29.2418435053], [-112.2683694495, 29.2436235769], [-112.2663533509, 29.2435253678], [-112.2660220149, 29.243880462], [-112.2660299849, 29.2445278964], [-112.2663758234, 29.2453503644], [-112.2669839078, 29.2456379003], [-112.269727305, 29.2447883884], [-112.2706681674, 29.2448381093], [-112.2715385287, 29.2445951974], [-112.2724005254, 29.2437025957], [-112.2734699376, 29.243279543], [-112.2756459934, 29.2400190021], [-112.2782477795, 29.2385818211], [-112.2787112293, 29.2380472009], [-112.2807804881, 29.2370256776], [-112.2812402371, 29.2361955313], [-112.2812358262, 29.2358413618], [-112.2822221094, 29.2341240218], [-112.2836883504, 29.2332278103], [-112.2848772812, 29.2316258245], [-112.2864689854, 29.2300199557], [-112.2882703075, 29.2290595563], [-112.2894669104, 29.2281049657], [-112.2897969387, 29.2276302538], [-112.2914586621, 29.2262605448], [-112.2914853995, 29.2262459131], [-112.2919081103, 29.2314039949], [-112.2909614907, 29.2407979766], [-112.2871103309, 29.2482671337], [-112.2752075989, 29.25804954], [-112.2618618714, 29.2628030271], [-112.2489782945, 29.2648165672], [-112.2412915448, 29.2631912926], [-112.2316772021, 29.2589767142], [-112.2255527122, 29.2512310879]]]]}}, {"type": "Feature", "properties": {"sitio": "LAN", "total_records": 31, "critical_species": 1, "all_species": 3, "habitat": "varios"}, "geometry": {"type": "MultiPolygon", "coordinates": [[[[-113.6392803571, 29.19823988], [-113.6392803167, 29.1982701781], [-113.6393890018, 29.1984728487], [-113.6397291164, 29.1987592938], [-113.6399060761, 29.198831059], [-113.6402465441, 29.1988554613], [-113.6403826458, 29.1989271578], [-113.6408179751, 29.1993090496], [-113.640967587, 29.1994641432], [-113.6410082755, 29.1995952323], [-113.6409672235, 29.1997380942], [-113.640749084, 29.199904479], [-113.64061274, 29.2000114436], [-113.6405989922, 29.20010671], [-113.6406261387, 29.2001782216], [-113.6407078285, 29.2002021819], [-113.6408440103, 29.2002143235], [-113.6410074683, 29.2002026895], [-113.6412401795, 29.2001673492], [-113.6414308628, 29.2001676747], [-113.6416214822, 29.200215638], [-113.6418529278, 29.2002874942], [-113.6419891111, 29.2002996385], [-113.6421934915, 29.2002404284], [-113.6425203896, 29.2002290666], [-113.6428063605, 29.2002652797], [-113.642996948, 29.2003370677], [-113.6433778296, 29.2007069447], [-113.6437452017, 29.2009934198], [-113.6440174642, 29.2011010752], [-113.6445484965, 29.2012210704], [-113.6448615929, 29.201352612], [-113.6451201603, 29.2015197968], [-113.6454601748, 29.2019015112], [-113.6456096149, 29.2021995311], [-113.6456637448, 29.2024735692], [-113.6456362174, 29.2026998313], [-113.6455678087, 29.2029379368], [-113.6453633044, 29.2030924361], [-113.6451997657, 29.2031636294], [-113.6450089887, 29.2032347792], [-113.6449952785, 29.2033062227], [-113.6450225186, 29.2033062658], [-113.6451995685, 29.2033184731], [-113.6453903008, 29.2032830553], [-113.6456765443, 29.2031167776], [-113.645840019, 29.203093229], [-113.646534661, 29.2030943784], [-113.6473518956, 29.2030838133], [-113.6479920719, 29.2030729549], [-113.6484551495, 29.2030856266], [-113.6488364453, 29.2031458038], [-113.6492176978, 29.2032417125], [-113.6497758526, 29.2034689277], [-113.6508376147, 29.2039828189], [-113.651749577, 29.2044845472], [-113.6517571854, 29.2044938629], [-113.6526149152, 29.2047930151], [-113.653091538, 29.2048771555], [-113.6534318906, 29.205008718], [-113.6537858568, 29.2051522149], [-113.6539763603, 29.205307359], [-113.6541395218, 29.2055458364], [-113.6548605244, 29.2062973641], [-113.6555133803, 29.2070964226], [-113.6555812, 29.2073347456], [-113.6559344605, 29.2080856838], [-113.6563825759, 29.2092611402], [-113.6564909725, 29.2097496513], [-113.6566670048, 29.2106432381], [-113.656829055, 29.2118502277], [-113.6569370833, 29.2126603308], [-113.657018118, 29.2132559985], [-113.6570174436, 29.2138396232], [-113.6569484752, 29.214577983], [-113.6568114926, 29.2152328643], [-113.656701826, 29.2158282286], [-113.6564557614, 29.2165738045], [-113.6563462676, 29.2170143315], [-113.6561682764, 29.2177882504], [-113.656017862, 29.2182763563], [-113.655566995, 29.2194109177], [-113.6552800935, 29.2201132006], [-113.6550069713, 29.2206844897], [-113.654870141, 29.2211964356], [-113.6546652131, 29.2216963674], [-113.6544742228, 29.221922368], [-113.6541193144, 29.2225292575], [-113.6541283797, 29.2225188659], [-113.6536782708, 29.223222894], [-113.653240768, 29.2235914317], [-113.6530770083, 29.2238293913], [-113.6524902261, 29.2246540439], [-113.6520232617, 29.225157609], [-113.6497016434, 29.2253234133], [-113.6478386849, 29.2246661043], [-113.6476444143, 29.222572425], [-113.6477727742, 29.2207191455], [-113.650086624, 29.2197635777], [-113.6511342325, 29.2181080779], [-113.6505930119, 29.2155122587], [-113.6503987092, 29.2134185424], [-113.6485116406, 29.2124995169], [-113.6459065747, 29.2103144819], [-113.6445191136, 29.2083059298], [-113.6431317013, 29.2062973625], [-113.6420669007, 29.2045292013], [-113.6401314977, 29.2030866196], [-113.6385429539, 29.202146171], [-113.6369059238, 29.2006822573], [-113.638227575, 29.1987437715], [-113.6392803571, 29.19823988]]]]}}, {"type": "Feature", "properties": {"sitio": "STO", "total_records": 19, "critical_species": 0, "all_species": 3, "habitat": "arrecife"}, "geometry": {"type": "MultiPolygon", "coordinates": [[[[-113.1130673361, 30.6919503211], [-113.1128873967, 30.6919494212], [-113.1125275894, 30.6919422191], [-113.112167998, 30.6919278185], [-113.1118087664, 30.6919062252], [-113.1114500394, 30.6918774475], [-113.1110919602, 30.6918414976], [-113.1107346711, 30.6917983892], [-113.1103783158, 30.6917481399], [-113.1100230381, 30.6916907698], [-113.1096689791, 30.6916263019], [-113.10931628, 30.6915547619], [-113.1089650834, 30.6914761783], [-113.10861553, 30.6913905822], [-113.1082677577, 30.6912980095], [-113.1079219088, 30.6911984958], [-113.1075781185, 30.6910920807], [-113.1072365274, 30.6909788081], [-113.1068972692, 30.6908587223], [-113.1065604831, 30.6907318726], [-113.1062263019, 30.6905983079], [-113.105894859, 30.6904580833], [-113.105566289, 30.6903112539], [-113.1052407215, 30.6901578797], [-113.1049182885, 30.6899980212], [-113.1045991177, 30.6898317422], [-113.1042833386, 30.6896591097], [-113.1039710754, 30.6894801931], [-113.1036624545, 30.6892950633], [-113.1033575997, 30.6891037951], [-113.1030566318, 30.6889064652], [-113.1027596725, 30.6887031513], [-113.1024668411, 30.6884939364], [-113.1021782538, 30.688278904], [-113.1018940256, 30.6880581394], [-113.1016142712, 30.6878317305], [-113.1013391032, 30.68759977], [-113.1010686311, 30.6873623489], [-113.1008029629, 30.6871195638], [-113.1005422051, 30.6868715105], [-113.100286463, 30.6866182892], [-113.1000358375, 30.6863600008], [-113.0997904297, 30.6860967494], [-113.099550339, 30.6858286393], [-113.0993156594, 30.6855557781], [-113.0990864856, 30.6852782766], [-113.0988629107, 30.6849962434], [-113.0986450225, 30.6847097943], [-113.0984329092, 30.6844190408], [-113.0982266546, 30.6841241019], [-113.0980263434, 30.6838250946], [-113.0978320541, 30.6835221391], [-113.0976438644, 30.6832153566], [-113.09746185, 30.6829048692], [-113.0972860847, 30.6825908012], [-113.0971166373, 30.6822732797], [-113.0969535775, 30.6819524308], [-113.096796969, 30.681628383], [-113.0966468746, 30.6813012666], [-113.0965033551, 30.680971212], [-113.0963664682, 30.6806383507], [-113.0962362678, 30.680302818], [-113.0961128063, 30.6799647468], [-113.0959961336, 30.6796242728], [-113.0958862963, 30.6792815317], [-113.0957833379, 30.6789366616], [-113.0956873, 30.6785898003], [-113.0955982213, 30.678241087], [-113.0955161358, 30.6778906602], [-113.0954410794, 30.6775386611], [-113.0953730791, 30.6771852312], [-113.0953121643, 30.6768305114], [-113.0952583579, 30.6764746425], [-113.0952116824, 30.6761177694], [-113.0951721566, 30.6757600333], [-113.0951397954, 30.6754015778], [-113.0951146116, 30.6750425462], [-113.0950966169, 30.6746830823], [-113.0950858171, 30.674323331], [-113.0950822174, 30.6739634353], [-113.0950858184, 30.6736035398], [-113.0950966204, 30.6732437887], [-113.0951146163, 30.6728843252], [-113.0951398002, 30.6725252939], [-113.095172163, 30.6721668383], [-113.0952116903, 30.6718091017], [-113.0952583679, 30.6714522287], [-113.095312175, 30.6710963605], [-113.095373092, 30.6707416402], [-113.0954410929, 30.6703882102], [-113.0955161518, 30.6700362123], [-113.0955982374, 30.6696857856], [-113.0956873182, 30.6693370722], [-113.0957833569, 30.6689902117], [-113.0958863175, 30.668645342], [-113.0959961562, 30.6683026013], [-113.0961128297, 30.6679621271], [-113.096236293, 30.6676240567], [-113.0963664944, 30.6672885237], [-113.0965033832, 30.666955664], [-113.0966469035, 30.6666256096], [-113.0967969981, 30.6662984934], [-113.0969536088, 30.6659744456], [-113.0971166702, 30.6656535978], [-113.0972861182, 30.6653360763], [-113.097461885, 30.665022009], [-113.0976439004, 30.6647115227], [-113.0978320909, 30.6644047395], [-113.098026381, 30.6641017846], [-113.0982266948, 30.6638027784], [-113.0984329499, 30.6635078395], [-113.0986450643, 30.6632170878], [-113.0988629531, 30.6629306382], [-113.0990865297, 30.6626486067], [-113.0993157038, 30.6623711049], [-113.0995503843, 30.6620982454], [-113.0997904774, 30.6618301356], [-113.1000358853, 30.6615668849], [-113.100286512, 30.6613085971], [-113.100542255, 30.6610553767], [-113.1008030139, 30.6608073242], [-113.1010686827, 30.6605645397], [-113.1013391562, 30.6603271196], [-113.1016143251, 30.6600951596], [-113.1018940808, 30.6598687518], [-113.1021783094, 30.6596479888], [-113.1024668975, 30.6594329565], [-113.1027597297, 30.6592237423], [-113.1030566905, 30.6590204296], [-113.1033576587, 30.6588231006], [-113.103662514, 30.6586318328], [-113.1039711361, 30.6584467047], [-113.1042833989, 30.6582677888], [-113.1045991794, 30.6580951574], [-113.1049183504, 30.6579288795], [-113.105240785, 30.6577690215], [-113.1055663526, 30.6576156479], [-113.1058949238, 30.6574688199], [-113.1062263661, 30.6573285959], [-113.106560548, 30.6571950327], [-113.1068973354, 30.6570681833], [-113.1072365929, 30.6569480985], [-113.1075781852, 30.656834827], [-113.1079219752, 30.6567284132], [-113.108267826, 30.6566289005], [-113.1086155972, 30.6565363282], [-113.1089651522, 30.6564507344], [-113.109316349, 30.6563721519], [-113.1096690474, 30.6563006129], [-113.1100231071, 30.6562361456], [-113.1103783854, 30.6561787768], [-113.1107347402, 30.6561285286], [-113.1110920294, 30.6560854205], [-113.1114501095, 30.6560494721], [-113.1118088366, 30.6560206958], [-113.1121680678, 30.6559991028], [-113.1125276589, 30.655984704], [-113.1128874673, 30.6559775023], [-113.1132473463, 30.6559775033], [-113.1136071538, 30.6559847048], [-113.1139667456, 30.6559991055], [-113.1143259761, 30.656020699], [-113.1146847038, 30.6560494767], [-113.1150427834, 30.6560854269], [-113.1154000717, 30.6561285346], [-113.1157564265, 30.6561787843], [-113.116111705, 30.6562361547], [-113.1164657641, 30.6563006222], [-113.1168184629, 30.6563721627], [-113.1171696599, 30.6564507462], [-113.1175192135, 30.6565363415], [-113.1178669849, 30.6566289145], [-113.1182128353, 30.6567284287], [-113.1185566241, 30.6568348428], [-113.1188982162, 30.6569481155], [-113.1192374739, 30.657068201], [-113.1195742603, 30.6571950515], [-113.1199084414, 30.6573286156], [-113.1202398841, 30.6574688401], [-113.1205684539, 30.6576156698], [-113.1208940212, 30.657769044], [-113.1212164544, 30.657928903], [-113.1215356254, 30.6580951813], [-113.1218514053, 30.6582678136], [-113.1221636677, 30.6584467308], [-113.1224722892, 30.6586318599], [-113.1227771443, 30.6588231282], [-113.1230781113, 30.659020459], [-113.1233750702, 30.659223772], [-113.1236679021, 30.6594329875], [-113.1239564898, 30.6596480197], [-113.1242407182, 30.659868785], [-113.1245204716, 30.660095193], [-113.1247956397, 30.6603271534], [-113.1250661128, 30.6605645746], [-113.1253317801, 30.66080736], [-113.1255925378, 30.6610554129], [-113.1258482811, 30.6613086348], [-113.1260989055, 30.6615669226], [-113.1263443133, 30.6618301745], [-113.1265844051, 30.6620982844], [-113.1268190846, 30.6623711451], [-113.1270482573, 30.6626486474], [-113.127271833, 30.66293068], [-113.1274897209, 30.6632171299], [-113.1277018345, 30.6635078821], [-113.1279080883, 30.6638028212], [-113.1281084005, 30.6641018283], [-113.1283026893, 30.6644047843], [-113.1284908792, 30.664711567], [-113.1286728931, 30.6650220544], [-113.1288486585, 30.6653361223], [-113.1290181052, 30.6656536435], [-113.1291811656, 30.6659744928], [-113.1293377748, 30.66629854], [-113.1294878679, 30.6666256567], [-113.1296313881, 30.6669557115], [-113.1297682755, 30.667288572], [-113.1298984752, 30.6676241057], [-113.1300219364, 30.667962177], [-113.1301386093, 30.6683026512], [-113.1302484472, 30.6686453915], [-113.1303514053, 30.6689902618], [-113.130447443, 30.6693371233], [-113.1305365226, 30.6696858368], [-113.1306186074, 30.6700362631], [-113.130693664, 30.6703882617], [-113.1307616639, 30.670741692], [-113.1308225798, 30.6710964124], [-113.1308763851, 30.6714522801], [-113.1309230608, 30.671809154], [-113.1309625867, 30.6721668899], [-113.1309949487, 30.6725253454], [-113.1310201307, 30.6728843771], [-113.1310381261, 30.6732438402], [-113.1310489259, 30.6736035917], [-113.1310525256, 30.6739634875], [-113.1310489245, 30.6743233833], [-113.1310381233, 30.6746831347], [-113.1310201268, 30.6750425985], [-113.1309949426, 30.6754016292], [-113.1309625798, 30.6757600851], [-113.1309230526, 30.676117821], [-113.1308763752, 30.6764746942], [-113.130822568, 30.6768305625], [-113.1307616517, 30.6771852828], [-113.1306936508, 30.6775387126], [-113.1306185914, 30.6778907113], [-113.1305365055, 30.6782411376], [-113.1304474255, 30.6785898512], [-113.1303513855, 30.6789367118], [-113.1302484265, 30.6792815813], [-113.130138587, 30.6796243225], [-113.1300219132, 30.679964796], [-113.1298984501, 30.680302867], [-113.1297682492, 30.6806383994], [-113.12963136, 30.6809712599], [-113.1294878394, 30.6813013137], [-113.1293377444, 30.6816284298], [-113.1291811343, 30.6819524778], [-113.1290180734, 30.6822733261], [-113.1288486253, 30.6825908468], [-113.128672858, 30.6829049143], [-113.1284908427, 30.6832154011], [-113.1283026526, 30.6835221832], [-113.1281083614, 30.6838251391], [-113.1279080489, 30.6841241452], [-113.1277017931, 30.6844190835], [-113.1274896794, 30.6847098362], [-113.1272717892, 30.6849962852], [-113.1270482135, 30.6852783167], [-113.1268190393, 30.6855558186], [-113.1265843588, 30.6858286781], [-113.1263442657, 30.6860967877], [-113.1260988578, 30.6863600389], [-113.125848231, 30.6866183261], [-113.125592488, 30.6868715474], [-113.1253317291, 30.6871195996], [-113.1250660604, 30.6873623844], [-113.1247955868, 30.6875998044], [-113.1245204179, 30.6878317639], [-113.1242406624, 30.6880581715], [-113.1239564342, 30.6882789357], [-113.1236678455, 30.6884939678], [-113.1233750129, 30.6887031813], [-113.1230780531, 30.6889064944], [-113.1227770852, 30.6891038232], [-113.1224722285, 30.6892950912], [-113.1221636076, 30.6894802196], [-113.1218513434, 30.6896591352], [-113.1215355632, 30.6898317673], [-113.1212163923, 30.6899980451], [-113.1208939584, 30.6901579022], [-113.1205683907, 30.6903112759], [-113.1202398192, 30.6904581042], [-113.1199083767, 30.6905983276], [-113.119574195, 30.6907318911], [-113.1192374072, 30.6908587408], [-113.1188981496, 30.6909788251], [-113.118556558, 30.6910920969], [-113.1182127682, 30.6911985101], [-113.1178669176, 30.691298023], [-113.1175191457, 30.6913905956], [-113.1171695911, 30.6914761895], [-113.1168183939, 30.6915547721], [-113.1164656956, 30.6916263112], [-113.1161116356, 30.6916907784], [-113.1157563578, 30.691748148], [-113.1154000023, 30.691798396], [-113.1150427134, 30.6918415028], [-113.1146846341, 30.6918774526], [-113.1143259068, 30.6919062285], [-113.113966675, 30.6919278209], [-113.1136070841, 30.6919422201], [-113.1132472767, 30.691949421], [-113.1130673361, 30.6919503211]]]]}}, {"type": "Feature", "properties": {"sitio": "LDV", "total_records": 3, "critical_species": 0, "all_species": 1, "habitat": "arrecife"}, "geometry": {"type": "MultiPolygon", "coordinates": [[[[-113.1131314982, 30.7009211773], [-113.1129515447, 30.7009202767], [-113.1125917113, 30.7009130749], [-113.112232094, 30.7008986748], [-113.1118728374, 30.700877082], [-113.1115140833, 30.7008483052], [-113.1111559782, 30.7008123561], [-113.1107986632, 30.7007692488], [-113.1104422831, 30.7007190006], [-113.1100869786, 30.700661632], [-113.1097328939, 30.7005971656], [-113.1093801703, 30.7005256273], [-113.1090289483, 30.7004470455], [-113.1086793685, 30.7003614523], [-113.1083315721, 30.7002688808], [-113.107985697, 30.7001693694], [-113.1076418818, 30.7000629576], [-113.1073002659, 30.6999496867], [-113.1069609842, 30.6998296044], [-113.1066241725, 30.6997027567], [-113.106289967, 30.699569195], [-113.1059585011, 30.6994289735], [-113.1056299063, 30.6992821484], [-113.1053043161, 30.6991287766], [-113.1049818586, 30.6989689218], [-113.1046626657, 30.6988026463], [-113.1043468626, 30.6986300177], [-113.1040345767, 30.6984511051], [-113.1037259335, 30.6982659803], [-113.1034210565, 30.6980747154], [-113.1031200676, 30.6978773899], [-113.1028230868, 30.6976740813], [-113.102530233, 30.6974648702], [-113.1022416247, 30.6972498426], [-113.1019573759, 30.6970290828], [-113.1016776022, 30.6968026797], [-113.1014024131, 30.6965707234], [-113.1011319214, 30.6963333084], [-113.1008662337, 30.6960905278], [-113.1006054569, 30.6958424799], [-113.1003496962, 30.6955892642], [-113.1000990523, 30.6953309814], [-113.0998536278, 30.6950677356], [-113.0996135184, 30.6947996315], [-113.0993788218, 30.6945267771], [-113.0991496322, 30.6942492807], [-113.0989260401, 30.6939672546], [-113.0987081359, 30.6936808108], [-113.0984960072, 30.6933900646], [-113.0982897385, 30.693095132], [-113.0980894116, 30.6927961312], [-113.097895108, 30.6924931814], [-113.0977069045, 30.6921864056], [-113.0975248779, 30.6918759249], [-113.0973490986, 30.6915618638], [-113.0971796398, 30.691244349], [-113.097016567, 30.6909235072], [-113.096859947, 30.6905994664], [-113.0967098427, 30.690272357], [-113.0965663126, 30.6899423095], [-113.0964294147, 30.6896094563], [-113.0962992056, 30.68927393], [-113.096175735, 30.6889358661], [-113.0960590537, 30.6885953994], [-113.0959492072, 30.6882526658], [-113.0958462412, 30.6879078031], [-113.0957501962, 30.6875609493], [-113.0956611108, 30.6872122435], [-113.0955790203, 30.6868618242], [-113.0955039573, 30.6865098336], [-113.0954359518, 30.6861564105], [-113.0953750324, 30.6858016983], [-113.0953212221, 30.685445838], [-113.0952745429, 30.6850889716], [-113.0952350141, 30.6847312432], [-113.0952026503, 30.6843727954], [-113.0951774655, 30.6840137715], [-113.0951594684, 30.6836543162], [-113.0951486686, 30.6832945716], [-113.0951450675, 30.6829346838], [-113.0951486696, 30.6825747959], [-113.0951594711, 30.6822150526], [-113.0951774681, 30.6818555967], [-113.0952026547, 30.6814965731], [-113.0952350186, 30.6811381252], [-113.0952745497, 30.6807803971], [-113.0953212294, 30.6804235309], [-113.0953750402, 30.6800676704], [-113.0954359615, 30.6797129585], [-113.0955039671, 30.6793595352], [-113.0955790313, 30.6790075448], [-113.0956611225, 30.6786571256], [-113.0957502097, 30.6783084196], [-113.0958462561, 30.6779615664], [-113.095949223, 30.6776167041], [-113.0960590694, 30.6772739708], [-113.0961757524, 30.6769335046], [-113.0962992234, 30.6765954406], [-113.0964294339, 30.6762599147], [-113.0965663325, 30.6759270621], [-113.096709863, 30.6755970147], [-113.0968599694, 30.6752699054], [-113.0970165903, 30.6749458654], [-113.0971796632, 30.6746250236], [-113.0973491233, 30.6743075087], [-113.0975249026, 30.6739934482], [-113.0977069311, 30.6736829684], [-113.0978951352, 30.6733761926], [-113.0980894401, 30.6730732431], [-113.0982897672, 30.6727742434], [-113.0984960371, 30.6724793106], [-113.0987081667, 30.6721885651], [-113.0989260711, 30.6719021216], [-113.0991496638, 30.671620096], [-113.0993788554, 30.6713426009], [-113.0996135527, 30.6710697463], [-113.099853662, 30.6708016431], [-113.1000990885, 30.6705383969], [-113.1003497322, 30.6702801147], [-113.1006054946, 30.6700268995], [-113.1008662712, 30.6697788523], [-113.1011319601, 30.6695360728], [-113.1014024521, 30.6692986577], [-113.1016776418, 30.6690667025], [-113.1019574167, 30.6688403004], [-113.1022416656, 30.6686195411], [-113.1025302745, 30.6684045134], [-113.1028231289, 30.6681953035], [-113.10312011, 30.6679919951], [-113.1034210999, 30.6677946702], [-113.1037259771, 30.6676034063], [-113.1040346214, 30.6674182821], [-113.1043469078, 30.6672393698], [-113.1046627111, 30.667066742], [-113.104981905, 30.6669004676], [-113.1053043619, 30.6667406129], [-113.105629953, 30.6665872425], [-113.1059585479, 30.6664404175], [-113.1062900141, 30.6663001964], [-113.1066242201, 30.6661666358], [-113.1069610318, 30.6660397891], [-113.1073003139, 30.6659197076], [-113.1076419307, 30.6658064375], [-113.1079857457, 30.6657000267], [-113.1083316214, 30.6656005151], [-113.1086794188, 30.6655079455], [-113.1090289979, 30.6654223525], [-113.1093802201, 30.6653437716], [-113.109732944, 30.665272234], [-113.1100870293, 30.6652077679], [-113.1104423333, 30.6651504002], [-113.1107987139, 30.6651001529], [-113.1111560289, 30.6650570465], [-113.1115141348, 30.6650210979], [-113.1118728879, 30.664992322], [-113.1122321451, 30.6649707303], [-113.1125917632, 30.6649563306], [-113.1129515967, 30.66494913], [-113.1133115017, 30.6649491299], [-113.1136713352, 30.664956332], [-113.114030953, 30.6649707313], [-113.1143902106, 30.6649923242], [-113.1147489632, 30.6650211013], [-113.1151070687, 30.6650570505], [-113.1154643841, 30.665100158], [-113.1158207646, 30.6651504055], [-113.1161760678, 30.6652077747], [-113.1165301525, 30.6652722406], [-113.1168828769, 30.6653437795], [-113.1172340993, 30.6654223612], [-113.1175836783, 30.6655079544], [-113.1179314749, 30.6656005254], [-113.1182773504, 30.6657000373], [-113.1186211652, 30.6658064489], [-113.1189627811, 30.66591972], [-113.1193020634, 30.6660398028], [-113.1196388742, 30.6661666496], [-113.1199730795, 30.6663002108], [-113.1203045463, 30.666440433], [-113.1206331409, 30.6665872585], [-113.1209587309, 30.6667406294], [-113.1212811885, 30.6669004847], [-113.1216003817, 30.6670667603], [-113.1219161845, 30.6672393887], [-113.1222284706, 30.667418301], [-113.1225371136, 30.667603427], [-113.1228419908, 30.6677946902], [-113.1231429796, 30.6679920167], [-113.1234399601, 30.6681953252], [-113.1237328144, 30.6684045361], [-113.1240214221, 30.6686195645], [-113.1243056711, 30.6688403241], [-113.1245854449, 30.6690667271], [-113.124860634, 30.6692986824], [-113.1251311258, 30.6695360984], [-113.1253968135, 30.6697788785], [-113.1256575892, 30.6700269261], [-113.1259133511, 30.6702801425], [-113.1261639938, 30.6705384246], [-113.1264094195, 30.6708016708], [-113.1266495288, 30.6710697748], [-113.1268842254, 30.6713426296], [-113.1271134149, 30.6716201258], [-113.1273370069, 30.6719021523], [-113.1275549107, 30.6721885961], [-113.1277670398, 30.6724793419], [-113.1279733087, 30.6727742746], [-113.1281736355, 30.6730732752], [-113.1283679396, 30.6733762246], [-113.1285561422, 30.6736830007], [-113.1287381695, 30.6739934814], [-113.1289139488, 30.6743075424], [-113.129083408, 30.6746250577], [-113.1292464804, 30.6749458991], [-113.1294031001, 30.6752699403], [-113.1295532052, 30.6755970499], [-113.1296967349, 30.6759270967], [-113.1298336323, 30.6762599501], [-113.1299638416, 30.6765954765], [-113.130087312, 30.6769335406], [-113.1302039935, 30.6772740074], [-113.1303138395, 30.6776167402], [-113.1304168053, 30.6779616032], [-113.1305128511, 30.6783084572], [-113.1306019363, 30.6786571632], [-113.1306840273, 30.6790075819], [-113.1307590905, 30.6793595729], [-113.1308270945, 30.6797129957], [-113.1308880149, 30.6800677084], [-113.1309418255, 30.6804235694], [-113.1309885036, 30.6807804347], [-113.1310280336, 30.6811381638], [-113.1310603971, 30.6814966116], [-113.1310855822, 30.6818556347], [-113.1311035781, 30.682215091], [-113.1311143789, 30.6825748348], [-113.1311179789, 30.682934722], [-113.1311143778, 30.6832946101], [-113.1311035761, 30.6836543546], [-113.1310855794, 30.6840138098], [-113.1310603926, 30.6843728337], [-113.1310280276, 30.6847312811], [-113.1309884977, 30.6850890094], [-113.1309418182, 30.6854458757], [-113.1308880062, 30.6858017356], [-113.1308270856, 30.6861564483], [-113.1307590801, 30.6865098706], [-113.1306840164, 30.6868618617], [-113.1306019238, 30.6872122805], [-113.1305128375, 30.6875609867], [-113.1304167918, 30.6879078399], [-113.1303138245, 30.6882527029], [-113.1302039772, 30.6885954359], [-113.1300872951, 30.6889359021], [-113.1299638243, 30.6892739659], [-113.1298336131, 30.6896094912], [-113.1296967153, 30.6899423445], [-113.1295531845, 30.6902723923], [-113.1294030778, 30.6905995015], [-113.1292464575, 30.6909235416], [-113.1290833838, 30.6912443832], [-113.1289139237, 30.691561898], [-113.1287381439, 30.6918759579], [-113.1285561155, 30.6921864382], [-113.1283679121, 30.6924932146], [-113.1281736069, 30.6927961632], [-113.12797328, 30.693095163], [-113.1277670105, 30.6933900958], [-113.1275548806, 30.6936808416], [-113.1273369758, 30.6939672844], [-113.127113383, 30.69424931], [-113.1268841924, 30.694526806], [-113.1266494951, 30.6947996606], [-113.1264093847, 30.6950677637], [-113.1261639591, 30.6953310094], [-113.1259133144, 30.6955892911], [-113.125657553, 30.6958425071], [-113.1253967753, 30.696090554], [-113.1251310875, 30.6963333337], [-113.1248605945, 30.6965707487], [-113.1245854059, 30.6968027042], [-113.1243056312, 30.6970291061], [-113.1240213815, 30.6972498658], [-113.1237327721, 30.6974648934], [-113.1234399184, 30.6976741034], [-113.1231429372, 30.6978774113], [-113.1228419476, 30.6980747369], [-113.1225370699, 30.698266], [-113.1222284258, 30.6984511246], [-113.1219161401, 30.6986300364], [-113.1216003361, 30.6988026649], [-113.1212811422, 30.6989689393], [-113.1209586851, 30.699128794], [-113.1206330938, 30.6992821637], [-113.1203044997, 30.6994289888], [-113.1199730323, 30.6995692103], [-113.1196388264, 30.6997027702], [-113.1193020153, 30.6998296173], [-113.1189627332, 30.6999496991], [-113.1186211159, 30.7000629687], [-113.1182773014, 30.7001693806], [-113.1179314257, 30.7002688906], [-113.1175836286, 30.7003614613], [-113.1172340489, 30.7004470545], [-113.1168828274, 30.7005256354], [-113.1165301025, 30.7005971731], [-113.1161760179, 30.7006616382], [-113.1158207134, 30.7007190067], [-113.1154643331, 30.7007692537], [-113.1151070185, 30.7008123607], [-113.1147489121, 30.700848309], [-113.1143901589, 30.7008770844], [-113.1140309012, 30.7008986765], [-113.1136712843, 30.7009130764], [-113.1133114508, 30.7009202773], [-113.1131314982, 30.7009211773]]]]}}, {"type": "Feature", "properties": {"sitio": "PJA", "total_records": 3, "critical_species": 0, "all_species": 1, "habitat": "arena"}, "geometry": {"type": "MultiPolygon", "coordinates": [[[[-113.1380258936, 30.7856904395], [-113.1369396759, 30.7875325363], [-113.1335127198, 30.7888766003], [-113.1297623735, 30.7889482278], [-113.1269379751, 30.7885362241], [-113.1213007795, 30.785371772], [-113.1163340349, 30.7812001938], [-113.1123706769, 30.7742583244], [-113.1082993405, 30.7633287447], [-113.107552643, 30.7619086045], [-113.1072875643, 30.7589587555], [-113.1052552591, 30.7554543405], [-113.1044203112, 30.7484824746], [-113.1039215437, 30.7429296019], [-113.1024950711, 30.7340148831], [-113.1018051739, 30.7286548375], [-113.1011153353, 30.723294721], [-113.1027300901, 30.718393369], [-113.1027384715, 30.7181399686], [-113.10380558, 30.716086079], [-113.108683255, 30.7123349434], [-113.1148709512, 30.7115594467], [-113.1186189637, 30.7114881413], [-113.1229588597, 30.7133594224], [-113.1243639859, 30.7150672562], [-113.1254521164, 30.7162224645], [-113.128515111, 30.7194741084], [-113.1306883292, 30.721401345], [-113.1359314215, 30.7346544009], [-113.1413749908, 30.7533904475], [-113.142723749, 30.7614088446], [-113.1432674801, 30.7735979864], [-113.1432157187, 30.7738093834], [-113.142277954, 30.7772961032], [-113.1407339567, 30.7810037187], [-113.1380258936, 30.7856904395]]]]}}]}