{
"type": "FeatureCollection",
"name": "proyectos_gnl_consolidados",
"crs": { "type": "name", "properties": { "name": "urn:ogc:def:crs:OGC:1.3:CRS84" } },
"features": [
{ "type": "Feature", "properties": { "nombre_proyecto": "Terminal de Licuefacción y Almacenamiento LNG Amigo", "estado": "Sonora", "municipio": "Guaymas", "tipo_infraestructura": "Terminal GNL", "empresa_promovente": "Amigo LNG, S.A. de C.V.", "estatus_permiso": "En evaluación", "fuente_oficial": "ASEA", "capacidad_mtpa": 7.8, "latitud": 27.9189, "longitud": -110.9161 }, "geometry": { "type": "Polygon", "coordinates": [ [ [ -110.922, 27.915 ], [ -110.91, 27.915 ], [ -110.91, 27.923 ], [ -110.922, 27.923 ], [ -110.922, 27.915 ] ] ] } },
{ "type": "Feature", "properties": { "nombre_proyecto": "Sistema de Distribución de Gas Natural por Medio de Ductos en Los Cabos", "estado": "Baja California Sur", "municipio": "Los Cabos", "tipo_infraestructura": "Gasoducto distribución", "empresa_promovente": "Gas Natural del Noroeste, S.A. de C.V.", "estatus_permiso": "En evaluación", "fuente_oficial": "ASEA", "capacidad_mtpa": null, "latitud": 22.8905, "longitud": -109.9167 }, "geometry": { "type": "Point", "coordinates": [ -109.9167, 22.8905 ] } },
{ "type": "Feature", "properties": { "nombre_proyecto": "Vista Pacífico LNG", "estado": "Sinaloa", "municipio": "Topolobampo / Ahome", "tipo_infraestructura": "Terminal GNL", "empresa_promovente": "Vista Pacífico LNG, S.A.P.I. de C.V.", "estatus_permiso": "En evaluación", "fuente_oficial": "ASEA", "capacidad_mtpa": 4.0, "latitud": 24.895, "longitud": -108.012 }, "geometry": { "type": "Polygon", "coordinates": [ [ [ -108.02, 24.89 ], [ -108.005, 24.89 ], [ -108.005, 24.9 ], [ -108.02, 24.9 ], [ -108.02, 24.89 ] ] ] } },
{ "type": "Feature", "properties": { "nombre_proyecto": "Gasoducto Corredor Norte", "estado": "Sinaloa", "municipio": "Guasave/Ahome", "tipo_infraestructura": "Gasoducto", "empresa_promovente": "Gasoducto Corredor Norte, S.A.P.I. de C.V.", "estatus_permiso": "En evaluación", "fuente_oficial": "ASEA", "capacidad_mtpa": null, "latitud": 25.4, "longitud": -108.25 }, "geometry": { "type": "Point", "coordinates": [ -108.25, 25.4 ] } },
{ "type": "Feature", "properties": { "nombre_proyecto": "Construcción y Operación de Planta de Licuefacción GNL Cosalá", "estado": "Sinaloa", "municipio": "Cosalá", "tipo_infraestructura": "Planta Licuefacción GNL", "empresa_promovente": "GNL Cosalá, S.A. de C.V.", "estatus_permiso": "En evaluación", "fuente_oficial": "ASEA", "capacidad_mtpa": 1.2, "latitud": 24.4133, "longitud": -106.6908 }, "geometry": { "type": "Point", "coordinates": [ -106.6908, 24.4133 ] } },
{ "type": "Feature", "properties": { "nombre_proyecto": "Sistema de Transporte de Gas Natural Los Ramones Fase II Sur", "estado": "Sonora/Baja California", "municipio": "San Luis Río Colorado / Mexicali", "tipo_infraestructura": "Gasoducto transporte", "empresa_promovente": "CENAGAS", "estatus_permiso": "En operación/Planificación", "fuente_oficial": "ASEA Transparencia/CENAGAS", "capacidad_mtpa": null, "latitud": 32.45, "longitud": -114.8 }, "geometry": { "type": "Point", "coordinates": [ -114.8, 32.45 ] } },
{ "type": "Feature", "properties": { "nombre_proyecto": "STGN Sierra Madre (Frontera-Puerto Libertad)", "estado": "Sonora", "municipio": "Pitiquito / Caborca", "tipo_infraestructura": "Gasoducto transporte", "empresa_promovente": "CENAGAS", "estatus_permiso": "En operación/Planificación", "fuente_oficial": "ASEA Transparencia/CENAGAS", "capacidad_mtpa": null, "latitud": 29.9, "longitud": -112.5 }, "geometry": { "type": "Point", "coordinates": [ -112.5, 29.9 ] } },
{ "type": "Feature", "properties": { "nombre_proyecto": "Terminal de Licuefacción LNG (proyecto Puerto Libertad)", "estado": "Sonora", "municipio": "Pitiquito", "tipo_infraestructura": "Terminal GNL", "empresa_promovente": "México Pacific Limited / MPL", "estatus_permiso": "En evaluación", "fuente_oficial": "SENER/Plan Quinquenal CENAGAS", "capacidad_mtpa": 14.1, "latitud": 29.8972, "longitud": -112.6869 }, "geometry": { "type": "Polygon", "coordinates": [ [ [ -112.695, 29.89 ], [ -112.68, 29.89 ], [ -112.68, 29.905 ], [ -112.695, 29.905 ], [ -112.695, 29.89 ] ] ] } },
{ "type": "Feature", "properties": { "nombre_proyecto": "Reconfiguración Estación de Compresión Cempoala", "estado": "Veracruz", "municipio": "Úrsulo Galván", "tipo_infraestructura": "Estación compresión", "empresa_promovente": "CENAGAS", "estatus_permiso": "En ejecución", "fuente_oficial": "Plan Quinquenal CENAGAS 2025-2029", "capacidad_mtpa": null, "latitud": 19.45, "longitud": -96.4 }, "geometry": { "type": "Point", "coordinates": [ -96.4, 19.45 ] } },
{ "type": "Feature", "properties": { "nombre_proyecto": "Gasoducto Naco-Hermosillo", "estado": "Sonora", "municipio": "Naco / Hermosillo", "tipo_infraestructura": "Gasoducto transporte", "empresa_promovente": "CENAGAS", "estatus_permiso": "Planificado", "fuente_oficial": "Plan Quinquenal CENAGAS 2025-2029", "capacidad_mtpa": null, "latitud": 30.5, "longitud": -110.5 }, "geometry": { "type": "Point", "coordinates": [ -110.5, 30.5 ] } },
{ "type": "Feature", "properties": { "nombre_proyecto": "Gasoducto Puerto Libertad-Guaymas", "estado": "Sonora", "municipio": "Hermosillo / Guaymas", "tipo_infraestructura": "Gasoducto transporte", "empresa_promovente": "CENAGAS", "estatus_permiso": "Planificado", "fuente_oficial": "Plan Quinquenal CENAGAS 2025-2029", "capacidad_mtpa": null, "latitud": 28.9, "longitud": -111.8 }, "geometry": { "type": "Point", "coordinates": [ -111.8, 28.9 ] } }
]
}
