{
"type": "FeatureCollection",
"name": "terminales_gnl_v3",
"crs": { "type": "name", "properties": { "name": "urn:ogc:def:crs:OGC:1.3:CRS84" } },
"features": [
{ "type": "Feature", "properties": { "id": "saguaro_t1", "proyecto": "Saguaro Energía GNL", "componente": "Saguaro T1", "promovente": "Mexico Pacific Limited", "empresa_madre": "Mexico Pacific Limited", "estado": "Sonora", "municipio": "Pitiquito", "localidad": "Puerto Libertad", "tipo_area": "temporal_almacenamiento", "capacidad_mtpa": 15.0, "fase": "Fase 1 (Trenes 1-3)", "superficie_ha": 172.417, "status": "Proposed / Pre-FID", "status_code": "proposed", "precision_level": "approximate_centroid", "precision_label": "[APROXIMADO]", "clave_asea": "02BC2006G0008 / M-09-MGA0107-08-23", "fuente_coordenadas": "Centroide GEM Wiki / MIA-R Tablas II.5-II.9 (UTM reservadas)" }, "geometry": { "type": "Polygon", "coordinates": [ [ [ -112.676338409263323, 29.909838 ], [ -112.676486354740334, 29.911140050571653 ], [ -112.676924505709664, 29.912392064070037 ], [ -112.677636024275287, 29.913545926318545 ], [ -112.678593567177728, 29.914557295038062 ], [ -112.679760336580273, 29.915387303895873 ], [ -112.681091494189076, 29.916004056117053 ], [ -112.682535884363787, 29.916383850259621 ], [ -112.684038, 29.916512091047665 ], [ -112.685540115636215, 29.916383850259621 ], [ -112.686984505810926, 29.916004056117053 ], [ -112.688315663419729, 29.915387303895873 ], [ -112.689482432822274, 29.914557295038062 ], [ -112.690439975724715, 29.913545926318545 ], [ -112.691151494290338, 29.912392064070037 ], [ -112.691589645259668, 29.911140050571653 ], [ -112.691737590736679, 29.909838 ], [ -112.691589645259668, 29.908535949428348 ], [ -112.691151494290338, 29.907283935929964 ], [ -112.690439975724715, 29.906130073681457 ], [ -112.689482432822274, 29.905118704961939 ], [ -112.688315663419729, 29.904288696104128 ], [ -112.686984505810926, 29.903671943882948 ], [ -112.685540115636215, 29.903292149740381 ], [ -112.684038, 29.903163908952337 ], [ -112.682535884363787, 29.903292149740381 ], [ -112.681091494189076, 29.903671943882948 ], [ -112.679760336580273, 29.904288696104128 ], [ -112.678593567177728, 29.905118704961939 ], [ -112.677636024275287, 29.906130073681457 ], [ -112.676924505709664, 29.907283935929964 ], [ -112.676486354740334, 29.908535949428348 ], [ -112.676338409263323, 29.909838 ] ] ] } },
{ "type": "Feature", "properties": { "id": "saguaro_t2", "proyecto": "Saguaro Energía GNL", "componente": "Saguaro T2", "promovente": "Mexico Pacific Limited", "empresa_madre": "Mexico Pacific Limited", "estado": "Sonora", "municipio": "Pitiquito", "localidad": "Puerto Libertad", "tipo_area": "temporal_almacenamiento", "capacidad_mtpa": 15.0, "fase": "Fase 1 (Trenes 1-3)", "superficie_ha": 46.824, "status": "Proposed / Pre-FID", "status_code": "proposed", "precision_level": "approximate_centroid", "precision_label": "[APROXIMADO]", "clave_asea": "02BC2006G0008 / M-09-MGA0107-08-23", "fuente_coordenadas": "Centroide GEM Wiki / MIA-R Tablas II.5-II.9 (UTM reservadas)" }, "geometry": { "type": "Polygon", "coordinates": [ [ [ -112.688025851697731, 29.901838 ], [ -112.688102944002338, 29.902516534705903 ], [ -112.688331258302128, 29.903168993703588 ], [ -112.688702020606613, 29.903770303359675 ], [ -112.689200982728337, 29.904297355681294 ], [ -112.689808969832796, 29.904729896343305 ], [ -112.69050261731654, 29.905051303050637 ], [ -112.691255268695741, 29.905249224323775 ], [ -112.692038, 29.905316054159186 ], [ -112.69282073130428, 29.905249224323775 ], [ -112.693573382683482, 29.905051303050637 ], [ -112.694267030167225, 29.904729896343305 ], [ -112.694875017271684, 29.904297355681294 ], [ -112.695373979393409, 29.903770303359675 ], [ -112.695744741697894, 29.903168993703588 ], [ -112.695973055997683, 29.902516534705903 ], [ -112.696050148302291, 29.901838 ], [ -112.695973055997683, 29.901159465294093 ], [ -112.695744741697894, 29.900507006296408 ], [ -112.695373979393409, 29.899905696640321 ], [ -112.694875017271684, 29.899378644318702 ], [ -112.694267030167225, 29.898946103656691 ], [ -112.693573382683482, 29.898624696949359 ], [ -112.69282073130428, 29.898426775676221 ], [ -112.692038, 29.898359945840809 ], [ -112.691255268695741, 29.898426775676221 ], [ -112.69050261731654, 29.898624696949359 ], [ -112.689808969832796, 29.898946103656691 ], [ -112.689200982728337, 29.899378644318702 ], [ -112.688702020606613, 29.899905696640321 ], [ -112.688331258302128, 29.900507006296408 ], [ -112.688102944002338, 29.901159465294093 ], [ -112.688025851697731, 29.901838 ] ] ] } },
{ "type": "Feature", "properties": { "id": "saguaro_reserva", "proyecto": "Saguaro Energía GNL", "componente": "Saguaro Reserva", "promovente": "Mexico Pacific Limited", "empresa_madre": "Mexico Pacific Limited", "estado": "Sonora", "municipio": "Pitiquito", "localidad": "Puerto Libertad", "tipo_area": "conservacion", "capacidad_mtpa": null, "fase": "Fase 1 (Trenes 1-3)", "superficie_ha": 0.946, "status": "Proposed / Pre-FID", "status_code": "proposed", "precision_level": "approximate_centroid", "precision_label": "[APROXIMADO]", "clave_asea": "02BC2006G0008 / M-09-MGA0107-08-23", "fuente_coordenadas": "Centroide GEM Wiki / MIA-R Tablas II.5-II.9 (UTM reservadas)" }, "geometry": { "type": "Polygon", "coordinates": [ [ [ -112.686467691181278, 29.906838 ], [ -112.686478649505318, 29.906934445813061 ], [ -112.686511103355173, 29.907027185267612 ], [ -112.686563805547607, 29.907112654438425 ], [ -112.686634730766912, 29.907187568793198 ], [ -112.686721153396689, 29.907249049415288 ], [ -112.686819752263744, 29.907294733638867 ], [ -112.686926738268909, 29.907322865844847 ], [ -112.687038, 29.907332364928322 ], [ -112.687149261731093, 29.907322865844847 ], [ -112.687256247736258, 29.907294733638867 ], [ -112.687354846603313, 29.907249049415288 ], [ -112.687441269233091, 29.907187568793198 ], [ -112.687512194452395, 29.907112654438425 ], [ -112.68756489664483, 29.907027185267612 ], [ -112.687597350494684, 29.906934445813061 ], [ -112.687608308818724, 29.906838 ], [ -112.687597350494684, 29.90674155418694 ], [ -112.68756489664483, 29.906648814732389 ], [ -112.687512194452395, 29.906563345561576 ], [ -112.687441269233091, 29.906488431206803 ], [ -112.687354846603313, 29.906426950584713 ], [ -112.687256247736258, 29.906381266361134 ], [ -112.687149261731093, 29.906353134155154 ], [ -112.687038, 29.906343635071678 ], [ -112.686926738268909, 29.906353134155154 ], [ -112.686819752263744, 29.906381266361134 ], [ -112.686721153396689, 29.906426950584713 ], [ -112.686634730766912, 29.906488431206803 ], [ -112.686563805547607, 29.906563345561576 ], [ -112.686511103355173, 29.906648814732389 ], [ -112.686478649505318, 29.90674155418694 ], [ -112.686467691181278, 29.906838 ] ] ] } },
{ "type": "Feature", "properties": { "id": "saguaro_campamentos", "proyecto": "Saguaro Energía GNL", "componente": "Saguaro Campamentos", "promovente": "Mexico Pacific Limited", "empresa_madre": "Mexico Pacific Limited", "estado": "Sonora", "municipio": "Pitiquito", "localidad": "Puerto Libertad", "tipo_area": "permanente_campamentos", "capacidad_mtpa": null, "fase": "Fase 1 (Trenes 1-3)", "superficie_ha": 20.532, "status": "Proposed / Pre-FID", "status_code": "proposed", "precision_level": "approximate_centroid", "precision_label": "[APROXIMADO]", "clave_asea": "02BC2006G0008 / M-09-MGA0107-08-23", "fuente_coordenadas": "Centroide GEM Wiki / MIA-R Tablas II.5-II.9 (UTM reservadas)" }, "geometry": { "type": "Polygon", "coordinates": [ [ [ -112.683381043117549, 29.907838 ], [ -112.68343209579902, 29.908287317608039 ], [ -112.683583291917529, 29.908719368192383 ], [ -112.683828821091041, 29.909117548291373 ], [ -112.684159247771092, 29.909466556067102 ], [ -112.684561873845695, 29.909752979346475 ], [ -112.685021226620577, 29.909965811043499 ], [ -112.685519653426226, 29.91009687215541 ], [ -112.686038, 29.910141126077182 ], [ -112.686556346573795, 29.91009687215541 ], [ -112.687054773379444, 29.909965811043499 ], [ -112.687514126154326, 29.909752979346475 ], [ -112.687916752228929, 29.909466556067102 ], [ -112.688247178908981, 29.909117548291373 ], [ -112.688492708082492, 29.908719368192383 ], [ -112.688643904201001, 29.908287317608039 ], [ -112.688694956882472, 29.907838 ], [ -112.688643904201001, 29.907388682391957 ], [ -112.688492708082492, 29.906956631807613 ], [ -112.688247178908981, 29.906558451708623 ], [ -112.687916752228929, 29.906209443932894 ], [ -112.687514126154326, 29.905923020653521 ], [ -112.687054773379444, 29.905710188956498 ], [ -112.686556346573795, 29.905579127844586 ], [ -112.686038, 29.905534873922814 ], [ -112.685519653426226, 29.905579127844586 ], [ -112.685021226620577, 29.905710188956498 ], [ -112.684561873845695, 29.905923020653521 ], [ -112.684159247771092, 29.906209443932894 ], [ -112.683828821091041, 29.906558451708623 ], [ -112.683583291917529, 29.906956631807613 ], [ -112.68343209579902, 29.907388682391957 ], [ -112.683381043117549, 29.907838 ] ] ] } },
{ "type": "Feature", "properties": { "id": "saguaro_caminos", "proyecto": "Saguaro Energía GNL", "componente": "Saguaro Caminos", "promovente": "Mexico Pacific Limited", "empresa_madre": "Mexico Pacific Limited", "estado": "Sonora", "municipio": "Pitiquito", "localidad": "Puerto Libertad", "tipo_area": "permanente_caminos", "capacidad_mtpa": null, "fase": "Fase 1 (Trenes 1-3)", "superficie_ha": 1.809, "status": "Proposed / Pre-FID", "status_code": "proposed", "precision_level": "approximate_centroid", "precision_label": "[APROXIMADO]", "clave_asea": "02BC2006G0008 / M-09-MGA0107-08-23", "fuente_coordenadas": "Centroide GEM Wiki / MIA-R Tablas II.5-II.9 (UTM reservadas)" }, "geometry": { "type": "Polygon", "coordinates": [ [ [ -112.688249366751009, 29.904838 ], [ -112.688264520117755, 29.904971369675305 ], [ -112.688309397882605, 29.905099614028785 ], [ -112.688382275418221, 29.905217804701856 ], [ -112.688480352081768, 29.905321399693229 ], [ -112.688599858842096, 29.905406417905485 ], [ -112.688736203121408, 29.905469592136406 ], [ -112.688884145285513, 29.905508494635725 ], [ -112.689038, 29.905521630402209 ], [ -112.689191854714508, 29.905508494635725 ], [ -112.689339796878613, 29.905469592136406 ], [ -112.689476141157925, 29.905406417905485 ], [ -112.689595647918253, 29.905321399693229 ], [ -112.689693724581801, 29.905217804701856 ], [ -112.689766602117416, 29.905099614028785 ], [ -112.689811479882266, 29.904971369675305 ], [ -112.689826633249012, 29.904838 ], [ -112.689811479882266, 29.904704630324691 ], [ -112.689766602117416, 29.904576385971211 ], [ -112.689693724581801, 29.90445819529814 ], [ -112.689595647918253, 29.904354600306768 ], [ -112.689476141157925, 29.904269582094511 ], [ -112.689339796878613, 29.90420640786359 ], [ -112.689191854714508, 29.904167505364271 ], [ -112.689038, 29.904154369597787 ], [ -112.688884145285513, 29.904167505364271 ], [ -112.688736203121408, 29.90420640786359 ], [ -112.688599858842096, 29.904269582094511 ], [ -112.688480352081768, 29.904354600306768 ], [ -112.688382275418221, 29.90445819529814 ], [ -112.688309397882605, 29.904576385971211 ], [ -112.688264520117755, 29.904704630324691 ], [ -112.688249366751009, 29.904838 ] ] ] } },
{ "type": "Feature", "properties": { "id": "amigo_lng_t1", "proyecto": "Amigo LNG", "componente": "Amigo LNG - Tren 1", "promovente": "AMIGO LNG, S.A. de C.V.", "empresa_madre": "LNG Alliance / Epcilon LNG LLC", "estado": "Sonora", "municipio": "Guaymas", "localidad": "Guaymas", "tipo_area": "terminal_licuefaccion", "capacidad_mtpa": 4.2, "fase": "Tren 1", "superficie_ha": 30.0, "status": "Proposed / Pre-FID", "status_code": "proposed", "precision_level": "exact_gem_wiki", "precision_label": "[EXACTO]", "clave_asea": "26SO2025G0143", "fuente_coordenadas": "GEM Wiki Coordenadas Exactas (27.922867, -110.868082)" }, "geometry": { "type": "Polygon", "coordinates": [ [ [ -110.863595740332755, 27.922867 ], [ -110.863681942554308, 27.92364033100619 ], [ -110.863937236515909, 27.924383943335503 ], [ -110.864351811413798, 27.92506926038314 ], [ -110.864909735367135, 27.925669945799299 ], [ -110.865589567671293, 27.926162915580299 ], [ -110.866365182752062, 27.926529225173919 ], [ -110.86720677415687, 27.926754797507904 ], [ -110.868082, 27.926830963963965 ], [ -110.868957225843133, 27.926754797507904 ], [ -110.86979881724794, 27.926529225173919 ], [ -110.870574432328709, 27.926162915580299 ], [ -110.871254264632867, 27.925669945799299 ], [ -110.871812188586205, 27.92506926038314 ], [ -110.872226763484093, 27.924383943335503 ], [ -110.872482057445694, 27.92364033100619 ], [ -110.872568259667247, 27.922867 ], [ -110.872482057445694, 27.92209366899381 ], [ -110.872226763484093, 27.921350056664497 ], [ -110.871812188586205, 27.920664739616861 ], [ -110.871254264632867, 27.920064054200701 ], [ -110.870574432328709, 27.919571084419701 ], [ -110.86979881724794, 27.919204774826081 ], [ -110.868957225843133, 27.918979202492096 ], [ -110.868082, 27.918903036036035 ], [ -110.86720677415687, 27.918979202492096 ], [ -110.866365182752062, 27.919204774826081 ], [ -110.865589567671293, 27.919571084419701 ], [ -110.864909735367135, 27.920064054200701 ], [ -110.864351811413798, 27.920664739616861 ], [ -110.863937236515909, 27.921350056664497 ], [ -110.863681942554308, 27.92209366899381 ], [ -110.863595740332755, 27.922867 ] ] ] } },
{ "type": "Feature", "properties": { "id": "amigo_lng_t2", "proyecto": "Amigo LNG", "componente": "Amigo LNG - Tren 2", "promovente": "AMIGO LNG, S.A. de C.V.", "empresa_madre": "LNG Alliance / Epcilon LNG LLC", "estado": "Sonora", "municipio": "Guaymas", "localidad": "Guaymas", "tipo_area": "terminal_licuefaccion", "capacidad_mtpa": 3.6, "fase": "Tren 2", "superficie_ha": 30.0, "status": "Proposed / Pre-FID", "status_code": "proposed", "precision_level": "exact_gem_wiki", "precision_label": "[EXACTO]", "clave_asea": "26SO2025G0143", "fuente_coordenadas": "GEM Wiki Coordenadas Exactas (27.922867, -110.868082)" }, "geometry": { "type": "Polygon", "coordinates": [ [ [ -110.863595740332755, 27.922867 ], [ -110.863681942554308, 27.92364033100619 ], [ -110.863937236515909, 27.924383943335503 ], [ -110.864351811413798, 27.92506926038314 ], [ -110.864909735367135, 27.925669945799299 ], [ -110.865589567671293, 27.926162915580299 ], [ -110.866365182752062, 27.926529225173919 ], [ -110.86720677415687, 27.926754797507904 ], [ -110.868082, 27.926830963963965 ], [ -110.868957225843133, 27.926754797507904 ], [ -110.86979881724794, 27.926529225173919 ], [ -110.870574432328709, 27.926162915580299 ], [ -110.871254264632867, 27.925669945799299 ], [ -110.871812188586205, 27.92506926038314 ], [ -110.872226763484093, 27.924383943335503 ], [ -110.872482057445694, 27.92364033100619 ], [ -110.872568259667247, 27.922867 ], [ -110.872482057445694, 27.92209366899381 ], [ -110.872226763484093, 27.921350056664497 ], [ -110.871812188586205, 27.920664739616861 ], [ -110.871254264632867, 27.920064054200701 ], [ -110.870574432328709, 27.919571084419701 ], [ -110.86979881724794, 27.919204774826081 ], [ -110.868957225843133, 27.918979202492096 ], [ -110.868082, 27.918903036036035 ], [ -110.86720677415687, 27.918979202492096 ], [ -110.866365182752062, 27.919204774826081 ], [ -110.865589567671293, 27.919571084419701 ], [ -110.864909735367135, 27.920064054200701 ], [ -110.864351811413798, 27.920664739616861 ], [ -110.863937236515909, 27.921350056664497 ], [ -110.863681942554308, 27.92209366899381 ], [ -110.863595740332755, 27.922867 ] ] ] } },
{ "type": "Feature", "properties": { "id": "vista_pacifico_flng", "proyecto": "Vista Pacífico LNG", "componente": "Vista Pacífico - Unidad FLNG", "promovente": "Vista Pacífico LNG, S.A.P.I. de C.V.", "empresa_madre": "Sempra Infrastructure", "estado": "Sinaloa", "municipio": "Ahome", "localidad": "Topolobampo", "tipo_area": "unidad_flng", "capacidad_mtpa": 5.05, "fase": "FLNG Offshore", "superficie_ha": 22.13, "status": "CANCELADO (Feb 2026)", "status_code": "cancelled", "precision_level": "calculated_from_text", "precision_label": "[CALCULADO]", "clave_asea": "25SI2024G0038", "fuente_coordenadas": "Estudio de Riesgo ASEA: 2.228 km offshore SW Topolobampo" }, "geometry": { "type": "Polygon", "coordinates": [ [ [ -109.101157939474774, 25.589130943284861 ], [ -109.101208879773196, 25.589597418439567 ], [ -109.101359743061352, 25.59004596721568 ], [ -109.101604731747699, 25.590459352135284 ], [ -109.101934431054389, 25.590821687047747 ], [ -109.102336170821985, 25.591119047625579 ], [ -109.102794512416509, 25.591340006468542 ], [ -109.103291842027517, 25.591476072252213 ], [ -109.103809047556979, 25.591522016044831 ], [ -109.104326253086441, 25.591476072252213 ], [ -109.104823582697449, 25.591340006468542 ], [ -109.105281924291972, 25.591119047625579 ], [ -109.105683664059569, 25.590821687047747 ], [ -109.106013363366259, 25.590459352135284 ], [ -109.106258352052606, 25.59004596721568 ], [ -109.106409215340761, 25.589597418439567 ], [ -109.106460155639184, 25.589130943284861 ], [ -109.106409215340761, 25.588664468130155 ], [ -109.106258352052606, 25.588215919354042 ], [ -109.106013363366259, 25.587802534434438 ], [ -109.105683664059569, 25.587440199521975 ], [ -109.105281924291972, 25.587142838944143 ], [ -109.104823582697449, 25.58692188010118 ], [ -109.104326253086441, 25.586785814317508 ], [ -109.103809047556979, 25.586739870524891 ], [ -109.103291842027517, 25.586785814317508 ], [ -109.102794512416509, 25.58692188010118 ], [ -109.102336170821985, 25.587142838944143 ], [ -109.101934431054389, 25.587440199521975 ], [ -109.101604731747699, 25.587802534434438 ], [ -109.101359743061352, 25.588215919354042 ], [ -109.101208879773196, 25.588664468130155 ], [ -109.101157939474774, 25.589130943284861 ] ] ] } },
{ "type": "Feature", "properties": { "id": "vista_pacifico_terrestre", "proyecto": "Vista Pacífico LNG", "componente": "Vista Pacífico - Instalaciones Terrestres", "promovente": "Vista Pacífico LNG, S.A.P.I. de C.V.", "empresa_madre": "Sempra Infrastructure", "estado": "Sinaloa", "municipio": "Ahome", "localidad": "Topolobampo", "tipo_area": "area_terrestre", "capacidad_mtpa": 5.05, "fase": "ASIPONA Topolobampo", "superficie_ha": 0.97, "status": "CANCELADO (Feb 2026)", "status_code": "cancelled", "precision_level": "calculated_from_text", "precision_label": "[CALCULADO]", "clave_asea": "25SI2024G0038", "fuente_coordenadas": "Estudio de Riesgo ASEA: 0.97 ha en ASIPONA Topolobampo" }, "geometry": { "type": "Polygon", "coordinates": [ [ [ -109.085544887116185, 25.6053 ], [ -109.085555553454597, 25.605397661564577 ], [ -109.085587142568414, 25.605491570049995 ], [ -109.085638440505704, 25.605578116605827 ], [ -109.085707475915527, 25.60565397529647 ], [ -109.085791595805787, 25.605716230914975 ], [ -109.085887567496272, 25.605762491012847 ], [ -109.085991702848744, 25.60579097784046 ], [ -109.0861, 25.605800596665009 ], [ -109.086208297151259, 25.60579097784046 ], [ -109.086312432503732, 25.605762491012847 ], [ -109.086408404194216, 25.605716230914975 ], [ -109.086492524084477, 25.60565397529647 ], [ -109.086561559494299, 25.605578116605827 ], [ -109.086612857431589, 25.605491570049995 ], [ -109.086644446545407, 25.605397661564577 ], [ -109.086655112883818, 25.6053 ], [ -109.086644446545407, 25.605202338435422 ], [ -109.086612857431589, 25.605108429950004 ], [ -109.086561559494299, 25.605021883394173 ], [ -109.086492524084477, 25.60494602470353 ], [ -109.086408404194216, 25.604883769085024 ], [ -109.086312432503732, 25.604837508987153 ], [ -109.086208297151259, 25.604809022159539 ], [ -109.0861, 25.60479940333499 ], [ -109.085991702848744, 25.604809022159539 ], [ -109.085887567496272, 25.604837508987153 ], [ -109.085791595805787, 25.604883769085024 ], [ -109.085707475915527, 25.60494602470353 ], [ -109.085638440505704, 25.605021883394173 ], [ -109.085587142568414, 25.605108429950004 ], [ -109.085555553454597, 25.605202338435422 ], [ -109.085544887116185, 25.6053 ] ] ] } },
{ "type": "Feature", "properties": { "id": "gnl_cosala_mazatlan", "proyecto": "GNL Cosalá", "componente": "GNL Cosalá - Planta Mazatlán", "promovente": "GNL Cosalá, S.A. de C.V.", "empresa_madre": "GNL Cosalá, S.A. de C.V.", "estado": "Sinaloa", "municipio": "Mazatlán", "localidad": "El Habal / Casas Viejas", "tipo_area": "estacion_compresion_expendio", "capacidad_mtpa": 0.5, "fase": "MIA-P (En Evaluación)", "superficie_ha": 1.5, "status": "En Evaluación ASEA", "status_code": "under_review", "precision_level": "geocoded_approximate", "precision_label": "[APROXIMADO]", "clave_asea": "25SI2023G0009 / 25SI2025G0030", "fuente_coordenadas": "Geocodificación dirección: Casas Viejas, El Habal, Mazatlán" }, "geometry": { "type": "Polygon", "coordinates": [ [ [ -106.418235048829686, 23.25 ], [ -106.418268961871533, 23.250316362684352 ], [ -106.418369397737877, 23.250620567728159 ], [ -106.418532496734699, 23.250900924702194 ], [ -106.418751991059011, 23.251146659645169 ], [ -106.419019445667047, 23.251348329101031 ], [ -106.419324582428189, 23.251498183025696 ], [ -106.419655675107848, 23.251590462616871 ], [ -106.42, 23.25162162162162 ], [ -106.420344324892156, 23.251590462616871 ], [ -106.420675417571815, 23.251498183025696 ], [ -106.420980554332957, 23.251348329101031 ], [ -106.421248008940992, 23.251146659645169 ], [ -106.421467503265305, 23.250900924702194 ], [ -106.421630602262127, 23.250620567728159 ], [ -106.42173103812847, 23.250316362684352 ], [ -106.421764951170317, 23.25 ], [ -106.42173103812847, 23.249683637315648 ], [ -106.421630602262127, 23.249379432271841 ], [ -106.421467503265305, 23.249099075297806 ], [ -106.421248008940992, 23.248853340354831 ], [ -106.420980554332957, 23.248651670898969 ], [ -106.420675417571815, 23.248501816974304 ], [ -106.420344324892156, 23.248409537383129 ], [ -106.42, 23.24837837837838 ], [ -106.419655675107848, 23.248409537383129 ], [ -106.419324582428189, 23.248501816974304 ], [ -106.419019445667047, 23.248651670898969 ], [ -106.418751991059011, 23.248853340354831 ], [ -106.418532496734699, 23.249099075297806 ], [ -106.418369397737877, 23.249379432271841 ], [ -106.418268961871533, 23.249683637315648 ], [ -106.418235048829686, 23.25 ] ] ] } },
{ "type": "Feature", "properties": { "id": "gnl_cosala_zapopan", "proyecto": "GNL Cosalá", "componente": "GNL Cosalá - Estación Zapopan", "promovente": "GNL Cosalá, S.A. de C.V.", "empresa_madre": "GNL Cosalá, S.A. de C.V.", "estado": "Jalisco", "municipio": "Zapopan", "localidad": "Santa Lucía", "tipo_area": "estacion_descompresion", "capacidad_mtpa": 0.2, "fase": "MIA-P (En Evaluación)", "superficie_ha": 0.3, "status": "En Evaluación ASEA", "status_code": "under_review", "precision_level": "geocoded_approximate", "precision_label": "[APROXIMADO]", "clave_asea": "14JA2025G0073", "fuente_coordenadas": "Geocodificación dirección: Av. de las Agujas 450, Zapopan" }, "geometry": { "type": "Polygon", "coordinates": [ [ [ -103.419036926987388, 20.7 ], [ -103.41905543216528, 20.700175757046861 ], [ -103.419110236555341, 20.700344759848978 ], [ -103.419199234055583, 20.700500513723441 ], [ -103.419319004542004, 20.700637033136204 ], [ -103.419464945301968, 20.700749071722793 ], [ -103.419631447913915, 20.700832323903164 ], [ -103.419812113775848, 20.700883590342706 ], [ -103.42, 20.700900900900901 ], [ -103.420187886224156, 20.700883590342706 ], [ -103.420368552086089, 20.700832323903164 ], [ -103.420535054698036, 20.700749071722793 ], [ -103.420680995458, 20.700637033136204 ], [ -103.420800765944421, 20.700500513723441 ], [ -103.420889763444663, 20.700344759848978 ], [ -103.420944567834724, 20.700175757046861 ], [ -103.420963073012615, 20.7 ], [ -103.420944567834724, 20.699824242953138 ], [ -103.420889763444663, 20.699655240151021 ], [ -103.420800765944421, 20.699499486276558 ], [ -103.420680995458, 20.699362966863795 ], [ -103.420535054698036, 20.699250928277205 ], [ -103.420368552086089, 20.699167676096835 ], [ -103.420187886224156, 20.699116409657293 ], [ -103.42, 20.699099099099097 ], [ -103.419812113775848, 20.699116409657293 ], [ -103.419631447913915, 20.699167676096835 ], [ -103.419464945301968, 20.699250928277205 ], [ -103.419319004542004, 20.699362966863795 ], [ -103.419199234055583, 20.699499486276558 ], [ -103.419110236555341, 20.699655240151021 ], [ -103.41905543216528, 20.699824242953138 ], [ -103.419036926987388, 20.7 ] ] ] } }
]
}
