{"type":"FeatureCollection","features":[{"type":"Feature","id":1,"geometry":{"type":"LineString","coordinates":[[-106.017006692805,28.6422770471481],[-106.22665197261,28.4123159995838],[-106.263383903844,28.3330640006032],[-106.413570764679,28.2917626140534],[-106.614445691316,28.2823759357009],[-106.804995271315,28.2401358808663],[-106.979587497665,28.1528397672415],[-107.141977040808,28.0355062819894],[-107.268697205312,27.8975221034623],[-107.386030690564,27.7999006440995],[-107.525892204761,27.598087049178],[-107.676937847104,27.4093948336047],[-107.842462940412,27.2556929608615],[-108.03163447575,27.125637530148],[-108.238207074297,27.0389136200675],[-108.329904525773,26.9723473364605],[-108.426074703285,26.9025341495314],[-108.46643742155,26.8199313755326],[-108.455164750653,26.581111110989],[-108.46909365195,26.3571281664318],[-108.563679420069,26.2743656197776],[-108.740126823694,26.1130579088954],[-108.803131544685,26.0374522435263],[-108.868656454732,25.9064024234331],[-108.929140987566,25.77535260334],[-109.012307219203,25.6417825941914],[-109.058011579471,25.5878969933516]]},"properties":{"nombre":"EL ENCINO - TOPOLOBAMPO","proyecto":"PROYECTO NOROESTE","tipo":"Gasoducto privado","capacidad_":670,"inversin_m":1008,"desarrolla":"TransCanada","promotor":"CFE","longitud_k":488.44531341,"tramo":"El Encino - Topolobampo","permiso_cr":"G/337/TRA/2014\n","fecha_de_i":"Agosto 2018","zona_tarif":"No Aplica","integrado_":"No","observacio":"La longitud y el tramo expresados son estimados, para fines informativos y no corresponden a la ubicación exacta del gasoducto","Chihuahua":"Chihuahua","IDD":"10","OBJECTID":1,"GlobalID":"793c0799-d9e3-47ca-af6e-e989c85365c2","Shape__Length":4.622423642806484}},{"type":"Feature","id":2,"geometry":{"type":"LineString","coordinates":[[-111.544142412442,31.4718537120792],[-111.494892765489,31.2889434852537],[-111.306561864239,31.1712366716351],[-111.118702940688,31.0934070296108],[-111.003927366555,31.0422233276445],[-110.751110899948,30.9196926476976],[-110.619274091226,30.9088354986594],[-110.526875132581,30.9199845757277],[-110.425396432399,30.9615702217883],[-110.352498432357,31.0096518814292],[-110.251682049587,31.0825498814719],[-110.19577323045,31.1178346110785],[-110.114473000329,31.1329030001734],[-109.737137686555,31.0613769797638],[-109.030896806642,31.0849183423077],[-108.4345156195,31.0221413755241],[-108.010771091013,31.0849183423077],[-107.398695662175,31.0927654631557],[-107.245715426126,31.0993217591919],[-107.102571091483,31.1417810246746],[-107.052851908489,31.1439118468543],[-106.959097221859,31.1677831283887],[-106.908133141531,31.1764254171993],[-106.78099736074,31.2231880034237],[-106.698880126217,31.2419812756154],[-106.586640362363,31.2874865592573],[-106.541339107014,31.3079451906181],[-106.478333330219,31.3413888901852]]},"properties":{"nombre":"SAMALAYUCA - SASABE","proyecto":" ","tipo":"Gasoductos en construcción","capacidad_":472,"inversin_m":1269,"desarrolla":"Carso Gasoducto Norte","promotor":"CFE","longitud_k":650,"tramo":" ","permiso_cr":"G/20379/TRA2017","fecha_de_i":"Noviembre 2017","zona_tarif":"No Aplica","integrado_":"No","observacio":"La longitud y el tramo expresados son estimados, para fines informativos y no corresponden a la ubicación exacta del gasoducto","Chihuahua":"Chihuahua","IDD":"11","OBJECTID":2,"GlobalID":"15b7e3eb-3ad9-4773-8f04-cf363dcc685f","Shape__Length":5.4103742250170024}},{"type":"Feature","id":3,"geometry":{"type":"LineString","coordinates":[[-106.478333330219,31.3413888901852],[-106.377155272498,31.4018554158948],[-106.27484740998,31.5239989511907],[-106.268013580462,31.555128973923]]},"properties":{"nombre":"SAN ISIDRO - SAMALAYUCA","proyecto":" ","tipo":"Gasoducto privado","capacidad_":1135,"inversin_m":200,"desarrolla":"IENova","promotor":"CFE","longitud_k":23,"tramo":" ","permiso_cr":"G/13491/TRA2016","fecha_de_i":"Enero 2017","zona_tarif":"No Aplica","integrado_":"No","observacio":"La longitud y el tramo expresados son estimados, para fines informativos y no corresponden a la ubicación exacta del gasoducto","Chihuahua":"Chihuahua","IDD":"12","OBJECTID":3,"GlobalID":"4b48bae4-ad64-4720-a07e-1b459b66c9c8","Shape__Length":0.30907038055689606}},{"type":"Feature","id":4,"geometry":{"type":"LineString","coordinates":[[-106.247619211957,31.5425781874334],[-106.247424246132,31.5071922454258],[-106.244802350048,31.491086312983],[-106.235438436235,31.429284481094],[-106.225325408741,31.3244086440437],[-106.254769917598,31.166590142621],[-106.334406030514,30.9535603218514],[-106.346098379037,30.9024401309074],[-106.420975172666,30.5913805981361],[-106.417805550785,30.3159004956115],[-106.310521743883,30.1287606915527],[-106.300137203869,29.9529711536958],[-106.260863132927,29.8058376377968],[-106.21378040784,29.5625768897117],[-106.143156320208,29.2957747799821],[-106.033296627437,29.0368197902012],[-105.978611107517,28.8061111128376],[-106.016930999566,28.6421049996461]]},"properties":{"nombre":"SAN ISIDRO - EL ENCINO","proyecto":"Tarahumara Pipeline","tipo":"Gasoducto privado","capacidad_":850,"inversin_m":369,"desarrolla":"Fermaca","promotor":"CFE","longitud_k":381,"tramo":" ","permiso_cr":"G/213/TRA/2008","fecha_de_i":"Enero 2017","zona_tarif":"No Aplica","integrado_":"No","observacio":"La longitud y el tramo expresados son estimados, para fines informativos y no corresponden a la ubicación exacta del gasoducto","Chihuahua":"Chihuahua","IDD":"13","OBJECTID":4,"GlobalID":"31431421-a592-4a11-bcec-253cedf064b0","Shape__Length":3.0101048924667406}},{"type":"Feature","id":5,"geometry":{"type":"LineString","coordinates":[[-106.016930999566,28.6421049996461],[-106.00329066823,28.5505120934584],[-105.937459330384,28.4358884004294],[-105.868162769796,28.3087832973114],[-105.762223177757,28.0953477294142],[-105.742154063459,28.0699698289445],[-105.723686650718,28.0466173222317],[-105.476291864878,27.8253257059167],[-105.261588648597,27.561075593364],[-105.118953644995,27.3764007995573],[-105.046885433216,27.2773070070128],[-104.908504472903,27.1072913487168],[-104.62348468497,26.8869375238477],[-104.38475873143,26.7292883090083],[-104.312016067687,26.6915268896543],[-104.147993817061,26.4524446445048],[-103.99172345897,26.2774218425441],[-103.725634871352,26.0701644489302],[-103.576994183435,25.9875862893758],[-103.260299999645,25.7735009999712]]},"properties":{"nombre":"EL ENCINO - LA LAGUNA","proyecto":" ","tipo":"Gasoductos en construcción","capacidad_":1500,"inversin_m":1291,"desarrolla":"Fermaca","promotor":"CFE","longitud_k":423,"tramo":"El Encino - La Laguna","permiso_cr":"G/13687/TRA2017","fecha_de_i":"Marzo 2017","zona_tarif":"No Aplica","integrado_":"No","observacio":"La longitud y el tramo expresados son estimados, para fines informativos y no corresponden a la ubicación exacta del gasoducto","Chihuahua":"Chihuahua","IDD":"14","OBJECTID":5,"GlobalID":"a29683e0-8029-4c2f-b754-ac5e3b57eb2c","Shape__Length":4.0599202152463079}},{"type":"Feature","id":6,"geometry":{"type":"LineString","coordinates":[[-104.535315014876,29.6730125164145],[-104.536600932987,29.6719502830791],[-104.744892072111,29.4193423998319],[-105.016826154104,29.2301708644939],[-105.265113794966,29.0528225497209],[-105.607987203047,28.8754742349481],[-105.926515161146,28.7958272663153],[-106.017106999588,28.6422910001296],[-106.017119719599,28.6422770471481]]},"properties":{"nombre":"OJINAGA - EL ENCINO","proyecto":" ","tipo":"Gasoducto privado","capacidad_":1350,"inversin_m":509,"desarrolla":"IENova","promotor":"CFE","longitud_k":220,"tramo":" ","permiso_cr":"G/13309/TRA2016","fecha_de_i":"Marzo 2017","zona_tarif":"No Aplica","integrado_":"No","observacio":"La longitud y el tramo expresados son estimados, para fines informativos y no corresponden a la ubicación exacta del gasoducto","Chihuahua":"Chihuahua","IDD":"15","OBJECTID":6,"GlobalID":"6e0f7e50-bbd1-4dd1-9ee5-1fd63774a31b","Shape__Length":1.8581065641543228}}]}