{"type":"FeatureCollection","features":[{"type":"Feature","id":1,"geometry":{"type":"LineString","coordinates":[[-106.385396085061,31.7344709192976],[-106.539120000188,30.4526159996287],[-106.02414799963,28.7303899996988]]},"properties":{"ducto":"SISTRANGAS","proyecto":" ","tipo":"Gasoductos existentes operados por CENAGAS","longitud_k":341.73771,"tramo":"JUAREZ-CHIHUAUA","permiso_cr":"G/061/TRA/1999","inicio_de_":"1962","zona_tarif":"Zona Norte","integrado_":"Si","notas":"La longitud y el tramo expresados son estimados, para fines informativos y no corresponden a la ubicación exacta del gasoducto","Chihuahua":"Chihuahua","IDD":"1","OBJECTID":1,"GlobalID":"eab84dd4-0a7f-46b2-84f8-b8521932024f","Shape__Length":3.0886097146983911}},{"type":"Feature","id":2,"geometry":{"type":"LineString","coordinates":[[-106.02414799963,28.7303899996988],[-105.664726000205,28.0372200004027],[-104.92827799983,27.163287000095],[-104.327175691205,26.6625634533407]]},"properties":{"ducto":"SISTRANGAS","proyecto":" ","tipo":"Gasoductos existentes operados por CENAGAS","longitud_k":434.3739,"tramo":"EL ENCINO-LA LAGUNA","permiso_cr":"G/061/TRA/1999","inicio_de_":"1962","zona_tarif":"Zona Norte","integrado_":"Si","notas":"La longitud y el tramo expresados son estimados, para fines informativos y no corresponden a la ubicación exacta del gasoducto","Chihuahua":"Chihuahua","IDD":" ","OBJECTID":2,"GlobalID":"f7f68aa7-c95d-477c-99e6-5b315cd250f6","Shape__Length":2.7060016112063208}},{"type":"Feature","id":3,"geometry":{"type":"LineString","coordinates":[[-105.664726000205,28.0372200004027],[-105.483078761476,28.1686432342979]]},"properties":{"ducto":"SISTRANGAS","proyecto":" ","tipo":"Gasoductos existentes operados por CENAGAS","longitud_k":55.84603,"tramo":"RAMAL A DELICIAS","permiso_cr":"G/061/TRA/1999","inicio_de_":"1962","zona_tarif":"Zona Norte","integrado_":"Si","notas":"La longitud y el tramo expresados son estimados, para fines informativos y no corresponden a la ubicación exacta del gasoducto","Chihuahua":"Chihuahua","IDD":"3","OBJECTID":3,"GlobalID":"e6f9ce53-a54f-425a-a121-ef4702565992","Shape__Length":0.22420478528650198}},{"type":"Feature","id":4,"geometry":{"type":"LineString","coordinates":[[-105.291734646637,27.5945961453958],[-105.147021000419,27.6621190000918]]},"properties":{"ducto":"SISTRANGAS","proyecto":" ","tipo":"Gasoductos existentes operados por CENAGAS","longitud_k":13.74282,"tramo":"RAMAL A CAMARGO","permiso_cr":"G/061/TRA/1999","inicio_de_":"1962","zona_tarif":"Zona Norte","integrado_":"Si","notas":"La longitud y el tramo expresados son estimados, para fines informativos y no corresponden a la ubicación exacta del gasoducto","Chihuahua":"Chihuahua","IDD":"4","OBJECTID":4,"GlobalID":"49883660-2761-4430-9157-6210f1c45c52","Shape__Length":0.15969150042485486}},{"type":"Feature","id":5,"geometry":{"type":"LineString","coordinates":[[-105.991420961708,28.6672736611506],[-106.298002000192,28.3451110003724],[-106.521618999817,28.3091030000035],[-106.724155000353,28.4802890000374]]},"properties":{"ducto":"SISTRANGAS","proyecto":" ","tipo":"Gasoductos existentes operados por CENAGAS","longitud_k":96.389765,"tramo":"RAMAL A ANAHUAC","permiso_cr":"G/061/TRA/1999","inicio_de_":"1962","zona_tarif":"Zona Norte","integrado_":"Si","notas":"La longitud y el tramo expresados son estimados, para fines informativos y no corresponden a la ubicación exacta del gasoducto","Chihuahua":"Chihuahua","IDD":"5","OBJECTID":5,"GlobalID":"54116f78-6040-420c-9ccc-034f4594cade","Shape__Length":0.93641249588500575}},{"type":"Feature","id":6,"geometry":{"type":"LineString","coordinates":[[-104.393131867542,26.717394666131],[-104.084946999704,26.8808759997277],[-103.454453000306,26.9669490002962],[-103.375298000402,27.0302999998452]]},"properties":{"ducto":"SISTRANGAS","proyecto":" ","tipo":"Gasoductos existentes operados por CENAGAS","longitud_k":109.4757,"tramo":"RAMAL A LAGUNA DEL REY","permiso_cr":"G/061/TRA/1999","inicio_de_":"1962","zona_tarif":"Zona Norte","integrado_":"Si","notas":"La longitud y el tramo expresados son estimados, para fines informativos y no corresponden a la ubicación exacta del gasoducto","Chihuahua":"Chihuahua","IDD":"6","OBJECTID":6,"GlobalID":"033339c5-1892-425a-ba22-bc0c48a29420","Shape__Length":1.0865878986021256}},{"type":"Feature","id":7,"geometry":{"type":"LineString","coordinates":[[-105.833150960149,28.365641139527],[-105.626039870044,28.4500197319251],[-105.099312902069,28.5983214995376]]},"properties":{"ducto":"SISTRANGAS","proyecto":" ","tipo":"Gasoductos existentes operados por CENAGAS","longitud_k":76.458818,"tramo":"RAMAL A SANTA RITA DE CASIA","permiso_cr":"G/061/TRA/1999","inicio_de_":"1962","zona_tarif":"Zona Norte","integrado_":"Si","notas":"La longitud y el tramo expresados son estimados, para fines informativos y no corresponden a la ubicación exacta del gasoducto","Chihuahua":"Chihuahua","IDD":"7","OBJECTID":7,"GlobalID":"1502c63f-44a8-4a4c-9903-9959869bf05e","Shape__Length":0.770846058618052}},{"type":"Feature","id":8,"geometry":{"type":"LineString","coordinates":[[-105.833150960149,28.365641139527],[-105.510978154119,28.5957645722772],[-105.168148114044,28.6801607140458]]},"properties":{"ducto":"SISTRANGAS","proyecto":" ","tipo":"Gasoductos existentes operados por CENAGAS","longitud_k":75.36861,"tramo":"RAMAL A SAN DIEGO DE ALCALA","permiso_cr":"G/061/TRA/1999","inicio_de_":"1962","zona_tarif":"Zona Norte","integrado_":"Si","notas":"La longitud y el tramo expresados son estimados, para fines informativos y no corresponden a la ubicación exacta del gasoducto","Chihuahua":"Chihuahua","IDD":"8","OBJECTID":8,"GlobalID":"e86d364d-c23c-4198-b20c-b8eb41f8efc0","Shape__Length":0.74898467947716685}},{"type":"Feature","id":9,"geometry":{"type":"LineString","coordinates":[[-105.657457999587,28.0299289996237],[-105.423287445859,28.0422215062176],[-105.296523836906,28.0382539095903]]},"properties":{"ducto":"SISTRANGAS","proyecto":" ","tipo":"Gasoductos existentes operados por CENAGAS","longitud_k":60.423844,"tramo":"RAMAL A SAUCILLO","permiso_cr":"G/061/TRA/1999","inicio_de_":"1962","zona_tarif":"Zona Norte","integrado_":"Si","notas":"La longitud y el tramo expresados son estimados, para fines informativos y no corresponden a la ubicación exacta del gasoducto","Chihuahua":"Chihuahua","IDD":"9","OBJECTID":9,"GlobalID":"e8cadb2a-c8aa-4994-8646-4c78fb815cb1","Shape__Length":0.36131865708164279}},{"type":"Feature","id":10,"geometry":{"type":"LineString","coordinates":[[-104.327175628253,26.6625634011801],[-103.245395288961,25.7614307976932]]},"properties":{"ducto":"SISTRANGAS","proyecto":" ","tipo":"Gasoductos existentes operados por CENAGAS","longitud_k":434.3739,"tramo":"EL ENCINO-LA LAGUNA","permiso_cr":"G/061/TRA/1999","inicio_de_":"1962","zona_tarif":"Zona Norte","integrado_":"Si","notas":"La longitud y el tramo expresados son estimados, para fines informativos y no corresponden a la ubicación exacta del gasoducto","Chihuahua":" ","IDD":"2","OBJECTID":10,"GlobalID":"4eb7248b-26be-4962-b6ac-b6799cd53837","Shape__Length":1.4079377370978103}}]}