{"type":"FeatureCollection","features":[{"type":"Feature","id":1,"geometry":{"type":"LineString","coordinates":[[-105.526876020312,30.9782115808998],[-105.564049026741,30.9407474774142],[-105.613146293467,30.9039245266956],[-105.654060682854,30.863010137308],[-105.703157950479,30.8343700648267],[-105.761314939833,30.7934915808718],[-105.862724068461,30.7689070416267],[-105.936369969898,30.7525412860516],[-105.96501004238,30.7034440193261],[-106.026381626011,30.6257066792199],[-106.075478892737,30.6052494849758],[-106.16139911108,30.5766094115951],[-106.304599473487,30.556152217351],[-106.378245374025,30.5397864617759],[-106.472348469706,30.5316035835386],[-106.541902931575,30.5152378279635],[-106.6564632215,30.5111463892945],[-106.726017683369,30.4865977554821],[-106.811937900813,30.4784148772449],[-106.963321141457,30.4415919274256],[-107.02060128642,30.404768976707],[-107.208807476884,30.3024830036877],[-107.245630427602,30.2779343698753],[-107.315184889471,30.2697514925374],[-107.507482519503,30.2656600529691],[-107.58112842004,30.2656600529691],[-107.650682881909,30.249294297394],[-107.822523316798,30.249294297394],[-108.055735336217,30.2247456635816],[-108.133472676323,30.2083799080064],[-108.24394152668,30.179739835525],[-108.354410377937,30.1633740799499],[-108.40759908423,30.1510997630437],[-108.468970668761,30.1510997630437],[-108.546708007968,30.1429168848064],[-108.61508733831,30.0969905430791],[-108.815599120503,30.017269004461],[-109.077339831368,29.9101932593115],[-109.327183236417,29.8745013436621],[-109.648410472765,29.8507067338288],[-109.862561963064,29.8269121239954],[-110.148097283763,29.8031175132627],[-110.516913739777,29.7793229034293],[-110.826243670309,29.7674255985126]]},"properties":{"Id":0,"OBJECTID":1,"GlobalID":"75db55bf-c0a5-4086-9c13-be3b061c232c","Shape__Length":5.5721766956072747}}]}