{"type":"FeatureCollection","features":[{"type":"Feature","id":1,"geometry":{"type":"LineString","coordinates":[[-106.478967050089,31.6051759948763],[-106.473389952085,31.571223211582],[-106.559650823726,30.4498318712439],[-106.340740411641,29.7193373423445],[-106.043307786025,28.7247226421363],[-105.984992098706,28.5979088986768]]},"properties":{"regin":"Norte","ducto":"Bidireccional Cd. Juárez-Chihuahua","servicio":"Poliducto","longitud":349.1,"capacidad_":25000,"capacida_1":25000,"Chihuahua":"Chihuahua","IDD":"A","OBJECTID":1,"GlobalID":"0ad73299-5b1b-4496-b9c9-c1b5c0d792e0","Shape__Length":3.0994169634827182}},{"type":"Feature","id":2,"geometry":{"type":"LineString","coordinates":[[-106.478967050089,31.6051759948763],[-106.506778548391,31.9060539142568]]},"properties":{"regin":"Norte","ducto":"Poliducto El Paso-Cd. Juárez","servicio":"Poliducto","longitud":28.7,"capacidad_":31000,"capacida_1":31000,"Chihuahua":" ","IDD":" ","OBJECTID":2,"GlobalID":"4e5a7148-9bd5-4d1e-b940-77b570bd5721","Shape__Length":0.30216055634136407}},{"type":"Feature","id":3,"geometry":{"type":"LineString","coordinates":[[-106.478967050089,31.6051759948763],[-106.398926851093,31.9044648472749]]},"properties":{"regin":"Norte","ducto":"Poliducto Frontera-Cd. Juárez","servicio":"Poliducto","longitud":32,"capacidad_":45000,"capacida_1":0,"Chihuahua":" ","IDD":" ","OBJECTID":3,"GlobalID":"5ac4a93c-fdf6-40ea-8d06-d00b07e3b142","Shape__Length":0.3098067956410675}},{"type":"Feature","id":4,"geometry":{"type":"LineString","coordinates":[[-105.984992098706,28.5979088986768],[-106.00295533532,28.4762678937483],[-105.781402618836,28.0810657533818],[-105.745475151857,28.0331624625776],[-105.613741105068,27.9193921488286],[-105.476019147266,27.7906520584458],[-105.146684028945,27.3774861832408],[-104.946089002805,27.1170120451698],[-104.760463755098,26.9673142644418],[-104.440110505096,26.7277978149173],[-104.206581966584,26.497263232812],[-104.026944629891,26.2876863401525],[-103.817367737231,26.1140369135728],[-103.758601208079,26.0572292688158],[-103.4682097237,25.5628910497822]]},"properties":{"regin":"Norte","ducto":"Poliducto Gómez Palacio-Chihuahua","servicio":"Poliducto","longitud":433.7,"capacidad_":17000,"capacida_1":17000,"Chihuahua":"Chihuahua","IDD":"B","OBJECTID":4,"GlobalID":"3435f66d-654b-4369-94e1-c2d72435dbda","Shape__Length":4.0254831719389328}},{"type":"Feature","id":5,"geometry":{"type":"LineString","coordinates":[[-103.4682097237,25.5628910497822],[-103.52544953227,25.6222007011015],[-103.598808977153,25.7577561956919],[-103.763476536313,26.0361940677021],[-104.023950674384,26.2667286507067],[-104.311370412914,26.5751060786826],[-104.449092370716,26.712828037384],[-104.958064825731,27.1020422667373],[-105.260454342694,27.4912564969898],[-105.47302519086,27.7547245905674],[-105.607753194055,27.8834646818497],[-105.748469108263,28.0092108176252],[-105.802360309181,28.0750778405699],[-106.02990093488,28.4822558047616],[-105.984992098706,28.5979088986768]]},"properties":{"regin":"Norte","ducto":"Bidireccional Gómez Palacio-Chihuahua","servicio":"Poliducto","longitud":433.5,"capacidad_":23000,"capacida_1":22000,"Chihuahua":"Chihuahua","IDD":"C","OBJECTID":5,"GlobalID":"98d34cc0-3aee-49d2-9e08-9cfe1b55fd61","Shape__Length":4.0470210847626662}}]}